{"type": "FeatureCollection", "features": [{"type": "Feature", "properties": {"cod_imovel": "SC-4213609-A68714810C8B42318197F733CC178530", "municipio": "Porto Uniao", "num_area": 25.4018, "mod_fiscal": 1.5876, "des_condic": "Aguardando analise", "ind_status": "AT", "dat_atuali": "30/10/2025"}, "geometry": {"type": "Polygon", "coordinates": [[[-51.0494823089147, -26.24715210137996], [-51.05956162489184, -26.24752267769525], [-51.05995815838691, -26.24709457750768], [-51.06070672244261, -26.24669686582776], [-51.06167727522384, -26.24653183109607], [-51.06185921153465, -26.24641356718426], [-51.06187727760746, -26.24611275220139], [-51.06039546389785, -26.24578118223482], [-51.06027029444773, -26.24530278307672], [-51.06055937955447, -26.24489209851897], [-51.04972272480718, -26.24557765069433], [-51.0494823089147, -26.24715210137996]]]}}, {"type": "Feature", "properties": {"cod_imovel": "SC-4213609-2A31A554683A4CDC9B23333D623BA4A1", "municipio": "Porto Uniao", "num_area": 40.4763, "mod_fiscal": 2.5298, "des_condic": "Aguardando analise", "ind_status": "AT", "dat_atuali": "19/09/2025"}, "geometry": {"type": "Polygon", "coordinates": [[[-51.037254631787164, -26.25338956695561], [-51.032292002969974, -26.246975961029513], [-51.031496845167155, -26.24626468115348], [-51.030795101010135, -26.245942729795193], [-51.029720271226296, -26.24583906126247], [-51.02806968248642, -26.246245293596488], [-51.02870497997519, -26.248519835705196], [-51.025225474728735, -26.250017309311847], [-51.02569312743755, -26.252160777389324], [-51.028804937773934, -26.25081581426589], [-51.028738360870435, -26.250300962871194], [-51.02948327005746, -26.249630079115374], [-51.03172951265865, -26.249427537354], [-51.03270855110329, -26.250860072062682], [-51.033503372435064, -26.252681418907994], [-51.03486914327881, -26.254686627981112], [-51.03619478336499, -26.25463067751153], [-51.03555159857602, -26.253773997874568], [-51.037254631787164, -26.25338956695561]]]}}, {"type": "Feature", "properties": {"cod_imovel": "SC-4213609-211E7BC4F3454029BF7380F05EE4C5EC", "municipio": "Porto Uniao", "num_area": 24.2, "mod_fiscal": 1.5125, "des_condic": "Aguardando analise", "ind_status": "AT", "dat_atuali": "18/04/2016"}, "geometry": {"type": "Polygon", "coordinates": [[[-50.9962496028339, -26.2501856947329], [-50.9961897883477, -26.251060451342], [-50.9994750011455, -26.2515672246397], [-51.0034271406552, -26.25037386237], [-51.0031467263584, -26.2496201718836], [-51.0033451775563, -26.2488009761267], [-50.9974339481433, -26.2470778231198], [-50.9968875442307, -26.2474392528994], [-50.9971278972224, -26.247824861078], [-50.9962496028339, -26.2501856947329]]]}}, {"type": "Feature", "properties": {"cod_imovel": "SC-4213609-2CA931E229084DB883A3D8330DC1A441", "municipio": "Porto Uniao", "num_area": 19.5886, "mod_fiscal": 1.2243, "des_condic": "Aguardando analise", "ind_status": "AT", "dat_atuali": "13/06/2019"}, "geometry": {"type": "Polygon", "coordinates": [[[-51.02308301077822, -26.25587469862169], [-51.02330667993515, -26.24628788525719], [-51.02243317190593, -26.24603197452785], [-51.02146078088129, -26.24636220967842], [-51.0212914319985, -26.25588432077786], [-51.02308301077822, -26.25587469862169]]]}}, {"type": "Feature", "properties": {"cod_imovel": "SC-4213609-1AEA151F362C483EA3C8798F6C3CA9D7", "municipio": "Porto Uniao", "num_area": 37.7917, "mod_fiscal": 2.362, "des_condic": "Aguardando analise", "ind_status": "AT", "dat_atuali": "05/05/2016"}, "geometry": {"type": "Polygon", "coordinates": [[[-51.00294795514432, -26.24244609093226], [-51.00295619105167, -26.24488424190445], [-51.0018521267757, -26.2447118261558], [-51.00203800913126, -26.24844549285727], [-51.00326061766831, -26.24887373397221], [-51.00320927148108, -26.24959453210983], [-51.00343116426596, -26.24999423928809], [-51.00342172385637, -26.25101519379931], [-51.00402539952748, -26.25192795606718], [-51.00480046119011, -26.25234991925859], [-51.00754674495187, -26.24238544861521], [-51.00537888509447, -26.24223669843201], [-51.00294795514432, -26.24244609093226]]]}}, {"type": "Feature", "properties": {"cod_imovel": "SC-4213609-56DAD7AC876A451CBB12A5744D3A908F", "municipio": "Porto Uniao", "num_area": 88.1349, "mod_fiscal": 5.5084, "des_condic": "Aguardando analise", "ind_status": "AT", "dat_atuali": "27/04/2015"}, "geometry": {"type": "Polygon", "coordinates": [[[-51.03235872408279, -26.24622142399368], [-51.0414950402793, -26.25811541810384], [-51.0445485099725, -26.25362100168357], [-51.0400983762041, -26.24791710906091], [-51.03849352540809, -26.24412320860723], [-51.03831390568933, -26.24116476239923], [-51.03759615312129, -26.24116123722416], [-51.03672034565742, -26.24310345040175], [-51.03494510137495, -26.24460785568825], [-51.03265124009588, -26.24508055061318], [-51.03166718718005, -26.24594923322615], [-51.03235872408279, -26.24622142399368]]]}}, {"type": "Feature", "properties": {"cod_imovel": "SC-4213609-67612E09A2B44F03979B136E667EA1DE", "municipio": "Porto Uniao", "num_area": 32.586, "mod_fiscal": 2.0366, "des_condic": "Aguardando analise", "ind_status": "AT", "dat_atuali": "21/04/2015"}, "geometry": {"type": "Polygon", "coordinates": [[[-51.0481961724302, -26.24691699518343], [-51.04672935820746, -26.24668778029723], [-51.04411518892383, -26.24575458003812], [-51.0441723787598, -26.24542536080861], [-51.04177769544447, -26.24439025363312], [-51.038575172424316, -26.24446421578799], [-51.040077209472656, -26.247851412804444], [-51.04804926303837, -26.24991788341118], [-51.0481961724302, -26.24691699518343]]]}}, {"type": "Feature", "properties": {"cod_imovel": "SC-4213609-B68B0EA10CC5409782A494E0DBD4505B", "municipio": "Porto Uniao", "num_area": 17.7559, "mod_fiscal": 1.1097, "des_condic": "Aguardando analise", "ind_status": "AT", "dat_atuali": "08/04/2015"}, "geometry": {"type": "Polygon", "coordinates": [[[-51.02808664851184, -26.24626174240809], [-51.02685707397895, -26.24632535663988], [-51.02557529288435, -26.24688947207817], [-51.0246339696105, -26.24703817466], [-51.02412942259943, -26.24688772394286], [-51.02331346809151, -26.24628511459123], [-51.02321368390202, -26.25087044454295], [-51.0287045083642, -26.24849095936445], [-51.02808664851184, -26.24626174240809]]]}}, {"type": "Feature", "properties": {"cod_imovel": "SC-4213609-4D30DF916AF745608E0E1683A47893C6", "municipio": "Porto Uniao", "num_area": 95.8644, "mod_fiscal": 5.9915, "des_condic": "Aguardando analise", "ind_status": "AT", "dat_atuali": "26/12/2017"}, "geometry": {"type": "Polygon", "coordinates": [[[-51.01885953495289, -26.24646505365046], [-51.01448792257632, -26.24513353802514], [-51.010235509216955, -26.242668993350822], [-51.00751499587486, -26.242342523883266], [-51.00465103857914, -26.25168754366868], [-51.00496555076919, -26.25267666333609], [-51.00793948313355, -26.252237493186275], [-51.00782940467601, -26.2515313637857], [-51.017978027119646, -26.249975057802818], [-51.017617781773644, -26.248069687822454], [-51.01877611747572, -26.248134700484144], [-51.01885953495289, -26.24646505365046]]]}}, {"type": "Feature", "properties": {"cod_imovel": "SC-4213609-5C33B497B93047F380C4F4BBC0B88AA7", "municipio": "Porto Uniao", "num_area": 26.6477, "mod_fiscal": 1.6655, "des_condic": "Aguardando analise", "ind_status": "AT", "dat_atuali": "22/12/2022"}, "geometry": {"type": "Polygon", "coordinates": [[[-51.00347828857421, -26.24888960187949], [-51.00325275872095, -26.24840824829194], [-51.00182947793584, -26.24767060944641], [-51.00194284972296, -26.2448170412839], [-51.0029337957494, -26.24485469577285], [-51.00289502021973, -26.24247439443855], [-51.00198663216251, -26.24256471306401], [-50.99964817043322, -26.24238647306013], [-50.99814605129806, -26.24321233973007], [-50.99781864276578, -26.24388305312221], [-50.9979513063104, -26.24619918892465], [-50.99744862686928, -26.24710390386923], [-51.00347828857421, -26.24888960187949]]]}}, {"type": "Feature", "properties": {"cod_imovel": "SC-4213609-F14923CA893347429CB360EEEEC0E5CF", "municipio": "Porto Uniao", "num_area": 87.455, "mod_fiscal": 5.4659, "des_condic": "Aguardando analise", "ind_status": "AT", "dat_atuali": "27/11/2014"}, "geometry": {"type": "Polygon", "coordinates": [[[-51.052073250336946, -26.256512120978588], [-51.05226748668892, -26.254230616815843], [-51.05205059051514, -26.24996836080044], [-51.05484991555748, -26.24990760002029], [-51.05523105477429, -26.24975662979132], [-51.05681684866491, -26.250006301058885], [-51.05780544814657, -26.249831096665783], [-51.058226468038626, -26.24941861302974], [-51.05844565989319, -26.24837184985328], [-51.059302216308296, -26.24770631841066], [-51.05055446960928, -26.247206250381982], [-51.04807687261531, -26.246930600446774], [-51.048059233229516, -26.250011583006803], [-51.04012952782416, -26.24799292648992], [-51.04506380567165, -26.25428247652392], [-51.052073250336946, -26.256512120978588]]]}}, {"type": "Feature", "properties": {"cod_imovel": "SC-4213609-86872642CDCB45DC99E4BDE4E47465DA", "municipio": "Porto Uniao", "num_area": 228.322, "mod_fiscal": 14.2701, "des_condic": "Aguardando analise", "ind_status": "AT", "dat_atuali": "07/10/2022"}, "geometry": {"type": "Polygon", "coordinates": [[[-51.02044966520947, -26.2461588424102], [-51.02206077628867, -26.24566578684993], [-51.02284383182853, -26.24563634240979], [-51.02342827626122, -26.24584662018623], [-51.02436910957542, -26.2465005090769], [-51.02493744289737, -26.24662245351962], [-51.02545994288691, -26.24651467574658], [-51.02653022064366, -26.2459077312958], [-51.02816133172219, -26.24577800907968], [-51.02938022058691, -26.24537189796619], [-51.03006855390646, -26.24540439796475], [-51.03165605387443, -26.24595773130588], [-51.03265105385501, -26.24508050907494], [-51.03494494269819, -26.24460773129988], [-51.03672022044133, -26.24310328685409], [-51.03759605412481, -26.24116105957913], [-51.03363709795108, -26.24082065904902], [-51.02772438728984, -26.23915717572912], [-51.02316883182574, -26.23845439794843], [-51.01919160968336, -26.23756800905582], [-51.01542772087036, -26.23631939794039], [-51.00541522209177, -26.23211578983048], [-51.00623966549931, -26.23455662014594], [-51.00995327653249, -26.24213939794928], [-51.01081716540397, -26.24243606461534], [-51.01485160976655, -26.24477134240265], [-51.0192341096783, -26.24607939796504], [-51.02044966520947, -26.2461588424102]]]}}, {"type": "Feature", "properties": {"cod_imovel": "SC-4213609-6A85705508CA4217BF533E6B43379BFF", "municipio": "Porto Uniao", "num_area": 13.7664, "mod_fiscal": 0.8604, "des_condic": "Aguardando analise", "ind_status": "AT", "dat_atuali": "13/06/2019"}, "geometry": {"type": "Polygon", "coordinates": [[[-51.01764480568567, -26.24813114884983], [-51.01815383540107, -26.25077131793022], [-51.02139119735758, -26.25027492193233], [-51.02146078088129, -26.24636220967842], [-51.02038278287791, -26.24664569207951], [-51.01890879666428, -26.24648292230009], [-51.01880209503784, -26.24819400401774], [-51.01764480568567, -26.24813114884983]]]}}, {"type": "Feature", "properties": {"cod_imovel": "SC-4213609-B3E99E1130D14CADAE821BA3375B0D0C", "municipio": "Porto Uniao", "num_area": 309.2037, "mod_fiscal": 19.3252, "des_condic": "Aguardando analise", "ind_status": "AT", "dat_atuali": "06/08/2019"}, "geometry": {"type": "Polygon", "coordinates": [[[-51.00541528880706, -26.23211570367773], [-51.00171153887865, -26.23129816788139], [-51.00063415612299, -26.23142395859791], [-50.99861223542802, -26.23225891767903], [-50.98811341334352, -26.23845379864221], [-50.98454463024326, -26.24007128557105], [-50.98370515959808, -26.24084475518646], [-50.98275486300043, -26.24143544829755], [-50.97990713731229, -26.24194055295789], [-50.97684445300135, -26.24374690624839], [-50.97447898943159, -26.24647081208218], [-50.9727471229268, -26.24938523263199], [-50.97174653482279, -26.25328318433887], [-50.97185520224445, -26.25445686555586], [-50.97237054435192, -26.25349920208408], [-50.97302750808883, -26.25151959944684], [-50.97435452951935, -26.2500994948793], [-50.97664591835621, -26.24864116217493], [-50.97814325118441, -26.24849520937682], [-50.97868862015375, -26.24828020744732], [-50.98011538292718, -26.24677338003985], [-50.98170418752574, -26.24612201868793], [-50.98485612358428, -26.24548778851963], [-50.98541675939561, -26.24548793681323], [-50.98708899892952, -26.24598878551984], [-50.98934480475342, -26.24559988708992], [-50.99130282660777, -26.24627154679007], [-50.99334443590683, -26.24599038531085], [-50.99528144508181, -26.24701901825412], [-50.99609912418743, -26.24716324471615], [-50.99698841318102, -26.24681147478549], [-50.9973730345305, -26.24626916743992], [-50.99729398771387, -26.24378486480872], [-50.99750627631129, -26.24317230358136], [-50.99802375421974, -26.24264218636452], [-50.9997118306224, -26.24189536497565], [-51.00200347119466, -26.24207819984144], [-51.00475579087061, -26.24176905334356], [-51.00995337905578, -26.24213954095447], [-51.00623960665819, -26.2345565432305], [-51.00541528880706, -26.23211570367773]]]}}]}