{"type": "FeatureCollection", "features": [{"type": "Feature", "properties": {"cod_imovel": "SC-4205001-B847FD77FA0A432BA887CCED889C1056", "municipio": "Dionisio Cerqueira", "num_area": 2.1734, "mod_fiscal": 0.1087, "des_condic": "Aguardando analise", "ind_status": "AT", "dat_atuali": "03/10/2025"}, "geometry": {"type": "Polygon", "coordinates": [[[-53.35843337908105, -26.25064595614958], [-53.35838714930911, -26.24951458001758], [-53.35674706452713, -26.24985102920494], [-53.35680274220296, -26.25013578050855], [-53.35650181361523, -26.25100609893507], [-53.35843337908105, -26.25064595614958]]]}}, {"type": "Feature", "properties": {"cod_imovel": "SC-4205001-C95E5F661EAB4378AC4FF14715C0CFA3", "municipio": "Dionisio Cerqueira", "num_area": 23.7682, "mod_fiscal": 1.1884, "des_condic": "Aguardando analise", "ind_status": "AT", "dat_atuali": "14/11/2025"}, "geometry": {"type": "Polygon", "coordinates": [[[-53.34099339722221, -26.2526108575791], [-53.3403880166667, -26.2552275853568], [-53.340607225, -26.2557225048012], [-53.340272575, -26.2573546659123], [-53.3403475888889, -26.2583662659123], [-53.3404553555556, -26.2585976686901], [-53.3427027555556, -26.2584439992456], [-53.34416691666671, -26.2502041881347], [-53.3427183583333, -26.2495632270236], [-53.34209669444441, -26.2502683492458], [-53.3421543333333, -26.2511569520235], [-53.34099339722221, -26.2526108575791]]]}}, {"type": "Feature", "properties": {"cod_imovel": "SC-4205001-861661493F99425BB4E956FC7E800427", "municipio": "Dionisio Cerqueira", "num_area": 0.2593, "mod_fiscal": 0.013, "des_condic": "Aguardando analise", "ind_status": "AT", "dat_atuali": "26/02/2021"}, "geometry": {"type": "Polygon", "coordinates": [[[-53.35638999938965, -26.24992987118115], [-53.35179805755615, -26.250930597138833], [-53.352978229522705, -26.250738150508706], [-53.35638999938965, -26.24992987118115]]]}}, {"type": "Feature", "properties": {"cod_imovel": "SC-4205001-CABE2B03473F4CBFBA8BD8CFE3B4AB2F", "municipio": "Dionisio Cerqueira", "num_area": 111.2008, "mod_fiscal": 5.56, "des_condic": "Aguardando analise", "ind_status": "AT", "dat_atuali": "09/02/2023"}, "geometry": {"type": "Polygon", "coordinates": [[[-53.382772207260125, -26.252191114683864], [-53.3812540769577, -26.251522368529212], [-53.381409645080566, -26.25117115497821], [-53.38107705116272, -26.250295522049658], [-53.37962865829467, -26.247456886414128], [-53.37780475616455, -26.246783301676285], [-53.37533712387085, -26.24305926987592], [-53.37362051010132, -26.2466389615816], [-53.37362051010132, -26.249391015172154], [-53.3730411529541, -26.25312446619055], [-53.3902077547222, -26.2551486944444], [-53.3904499047222, -26.2545349519445], [-53.3902196472222, -26.2532367883333], [-53.3905297961111, -26.2530455341667], [-53.3911951580556, -26.2530113502778], [-53.3913143608334, -26.2528600055555], [-53.3905401144445, -26.2519023805556], [-53.3907188252778, -26.2517587994444], [-53.3906268458334, -26.2516169283333], [-53.3901792755555, -26.2513628436111], [-53.389927065, -26.2509081344445], [-53.38968776, -26.2508539983333], [-53.3902838138889, -26.2502753377778], [-53.3893129861111, -26.2494278297222], [-53.3886356963889, -26.2476942558334], [-53.38789929999999, -26.2471017563889], [-53.382772207260125, -26.252191114683864]]]}}, {"type": "Feature", "properties": {"cod_imovel": "SC-4205001-E2B0E2F652E64860A20240C89B9179C8", "municipio": "Dionisio Cerqueira", "num_area": 126.4839, "mod_fiscal": 6.3242, "des_condic": "Aguardando analise", "ind_status": "AT", "dat_atuali": "16/05/2023"}, "geometry": {"type": "Polygon", "coordinates": [[[-53.36477994918823, -26.247793677318796], [-53.363213539123535, -26.247889903112263], [-53.36325645446777, -26.250006850406997], [-53.36239814758301, -26.251315489442753], [-53.360595703125, -26.250815129199005], [-53.35930824279785, -26.25069966114443], [-53.35875034332275, -26.248582726472808], [-53.35759162902832, -26.248736686658575], [-53.3580207824707, -26.25069966114443], [-53.356711864471436, -26.250738150508706], [-53.35654020309448, -26.251796603029476], [-53.35662603378295, -26.25304748903042], [-53.35928678512573, -26.258455010451765], [-53.362183570861816, -26.261283755878036], [-53.36578845977783, -26.262399840559233], [-53.36686134338379, -26.2632465183342], [-53.368706703186035, -26.263977735080736], [-53.37014436721802, -26.26407394746773], [-53.36477994918823, -26.247793677318796]]]}}, {"type": "Feature", "properties": {"cod_imovel": "SC-4205001-5C81CFE8B0AC406A83DBFEE1CE618386", "municipio": "Dionisio Cerqueira", "num_area": 92.5369, "mod_fiscal": 4.6268, "des_condic": "Aguardando analise", "ind_status": "AT", "dat_atuali": "12/05/2023"}, "geometry": {"type": "Polygon", "coordinates": [[[-53.3732755413889, -26.2526871916667], [-53.3737095055556, -26.2496919188889], [-53.3659373838889, -26.2480249136111], [-53.3646913711111, -26.2479168277778], [-53.3701817591667, -26.2643264258333], [-53.3709730341666, -26.2645755338889], [-53.3719022586111, -26.2644644666667], [-53.3725021133333, -26.2648208233334], [-53.3724236083333, -26.2636518877778], [-53.3720937633333, -26.2634508925], [-53.3724342605556, -26.2624454986111], [-53.3720445369444, -26.2618517008333], [-53.3720493269444, -26.2610918791667], [-53.3727017397223, -26.2579367608333], [-53.3735402180556, -26.2551507116667], [-53.3733183466666, -26.2540338047222], [-53.3732755413889, -26.2526871916667]]]}}, {"type": "Feature", "properties": {"cod_imovel": "SC-4205001-A468871B666C4AE69E8E119C215040AC", "municipio": "Dionisio Cerqueira", "num_area": 91.2483, "mod_fiscal": 4.5709, "des_condic": "Aguardando analise", "ind_status": "AT", "dat_atuali": "05/03/2021"}, "geometry": {"type": "Polygon", "coordinates": [[[-53.34277244357064, -26.24907086753404], [-53.34537490208617, -26.25010552084789], [-53.34278583526611, -26.25885912115964], [-53.3400821685791, -26.259090040932833], [-53.340210914611816, -26.260052201712288], [-53.34106922149658, -26.262438326046563], [-53.34086930297291, -26.26712742098099], [-53.34557880786649, -26.26660414256152], [-53.34783314202635, -26.26541841358111], [-53.35003644718559, -26.26461712013798], [-53.35019317859908, -26.26359793513847], [-53.34553241729736, -26.262053470599206], [-53.34763112008652, -26.25305786873727], [-53.34573505364484, -26.25082059719236], [-53.34643300755202, -26.24801290087694], [-53.34572201026243, -26.24692643203622], [-53.34264490675565, -26.24877312050772], [-53.34277244357064, -26.24907086753404]]]}}, {"type": "Feature", "properties": {"cod_imovel": "SC-4205001-A39031261F1B48F5A9197BEB4298EFC2", "municipio": "Dionisio Cerqueira", "num_area": 6.9377, "mod_fiscal": 0.3469, "des_condic": "Aguardando analise", "ind_status": "AT", "dat_atuali": "30/05/2018"}, "geometry": {"type": "Polygon", "coordinates": [[[-53.35687280236745, -26.24986000793519], [-53.35601877019501, -26.25006603414532], [-53.3546241082826, -26.25124770095418], [-53.35295931146457, -26.25182135693388], [-53.35248751800626, -26.2542296662091], [-53.35344787205786, -26.25362375672663], [-53.35438098012267, -26.25266169058478], [-53.3563319707364, -26.2515542406955], [-53.35687280236745, -26.24986000793519]]]}}, {"type": "Feature", "properties": {"cod_imovel": "SC-4205001-6F1CAE8898C34896A1A99C9728BF7EB8", "municipio": "Dionisio Cerqueira", "num_area": 69.9285, "mod_fiscal": 3.4964, "des_condic": "Aguardando analise", "ind_status": "AT", "dat_atuali": "30/12/2017"}, "geometry": {"type": "Polygon", "coordinates": [[[-53.391923904418945, -26.260090687977662], [-53.394713401794434, -26.26101435452031], [-53.395957946777344, -26.260975868561033], [-53.39754581451416, -26.261206784125317], [-53.402695655822754, -26.263438944240264], [-53.40248107910156, -26.260591008266875], [-53.40007781982422, -26.256549898175525], [-53.3959150314331, -26.258204845975566], [-53.39398384094238, -26.254933414769326], [-53.39509963989257, -26.252431669913175], [-53.39312553405761, -26.252316203465266], [-53.39025020599365, -26.2502762772958], [-53.38887691497803, -26.249083096330665], [-53.38810443878174, -26.24931403553829], [-53.38874816894531, -26.250391745771157], [-53.38956356048584, -26.25127700026973], [-53.39080810546875, -26.252162248022866], [-53.390679359436035, -26.252277714623798], [-53.39072227478027, -26.252701091178654], [-53.39003562927246, -26.25320144329965], [-53.39003562927246, -26.255125854449698], [-53.39252471923828, -26.25524131810489], [-53.391923904418945, -26.260090687977662]]]}}, {"type": "Feature", "properties": {"cod_imovel": "SC-4205001-9F61890792AF4E6583E18B5B1B4516C8", "municipio": "Dionisio Cerqueira", "num_area": 36.0718, "mod_fiscal": 1.8036, "des_condic": "Aguardando analise", "ind_status": "AT", "dat_atuali": "11/03/2022"}, "geometry": {"type": "Polygon", "coordinates": [[[-53.365827547363764, -26.247518657831087], [-53.37355998497101, -26.249261815646417], [-53.37372779846191, -26.24796688368967], [-53.37462902069092, -26.24677367900888], [-53.375036716461175, -26.24548423436967], [-53.375465869903564, -26.24269359623652], [-53.375186920166016, -26.242347167516854], [-53.37477922439575, -26.242173952769786], [-53.37325572967529, -26.244137038120098], [-53.37250471115112, -26.244483461504476], [-53.37179660797119, -26.244175529658246], [-53.370766639709466, -26.244156283890756], [-53.370219469070435, -26.243901277170735], [-53.369489908218384, -26.244137038120098], [-53.36892941054493, -26.244792384958068], [-53.368728160858154, -26.24569593521752], [-53.3684492111206, -26.246157826637766], [-53.366711139678955, -26.246831415001328], [-53.365938663482666, -26.24685066032578], [-53.365827547363764, -26.247518657831087]]]}}, {"type": "Feature", "properties": {"cod_imovel": "SC-4205001-6737A422EBBD414997FB62035995E231", "municipio": "Dionisio Cerqueira", "num_area": 26.6087, "mod_fiscal": 1.3304, "des_condic": "Aguardando analise", "ind_status": "AT", "dat_atuali": "11/11/2022"}, "geometry": {"type": "Polygon", "coordinates": [[[-53.3848632191666, -26.245339245], [-53.38399793888891, -26.246289245], [-53.3836229388889, -26.246278965], [-53.3832468288889, -26.246997295], [-53.38229515888891, -26.247862575], [-53.38031682888889, -26.2486220247222], [-53.3815623886111, -26.2514042447222], [-53.3829993286111, -26.251951185], [-53.3878993288889, -26.2471017452778], [-53.3848632191666, -26.245339245]]]}}, {"type": "Feature", "properties": {"cod_imovel": "SC-4212007-DD89D49CB4034AC897DEAC1ED9F0AC29", "municipio": "Palma Sola", "num_area": 0.3114, "mod_fiscal": 0.0173, "des_condic": "Aguardando analise", "ind_status": "AT", "dat_atuali": "17/11/2023"}, "geometry": {"type": "Polygon", "coordinates": [[[-53.33817351143307, -26.24889403721471], [-53.3392649426487, -26.24932243452216], [-53.33927552735863, -26.24906119480155], [-53.33847105136678, -26.24869166190858], [-53.33817351143307, -26.24889403721471]]]}}, {"type": "Feature", "properties": {"cod_imovel": "SC-4212007-273BE1A708B949299393E8B60140B763", "municipio": "Palma Sola", "num_area": 38.6838, "mod_fiscal": 2.0708, "des_condic": "Aguardando analise", "ind_status": "AT", "dat_atuali": "15/09/2023"}, "geometry": {"type": "Polygon", "coordinates": [[[-53.29463543419081, -26.24826092145647], [-53.28561413874219, -26.246503981585942], [-53.28564332378454, -26.25068229237004], [-53.28800451747481, -26.252037636055608], [-53.28921748489548, -26.252473885792043], [-53.29138732048878, -26.25100897518077], [-53.292274684653535, -26.250699464834046], [-53.293916349258254, -26.250845689952943], [-53.29463543419081, -26.24826092145647]]]}}, {"type": "Feature", "properties": {"cod_imovel": "SC-4212007-000CE10B8D154425A480EA735F31864F", "municipio": "Palma Sola", "num_area": 1.2983, "mod_fiscal": 0.0721, "des_condic": "Aguardando analise", "ind_status": "AT", "dat_atuali": "14/07/2015"}, "geometry": {"type": "Polygon", "coordinates": [[[-53.33694602801901, -26.250324816686536], [-53.33695435428679, -26.249659530155657], [-53.33433688355349, -26.251287051905244], [-53.334906491560815, -26.252307874809304], [-53.334780885080065, -26.25145206037963], [-53.33579980674112, -26.25064357537592], [-53.33694602801901, -26.250324816686536]]]}}, {"type": "Feature", "properties": {"cod_imovel": "SC-4212007-A7E73F644A154052BB8D927235566C4C", "municipio": "Palma Sola", "num_area": 30.7553, "mod_fiscal": 1.6681, "des_condic": "Aguardando analise", "ind_status": "AT", "dat_atuali": "27/02/2016"}, "geometry": {"type": "Polygon", "coordinates": [[[-53.3302116394043, -26.252316203465266], [-53.3281946182251, -26.248236315308926], [-53.32847356796265, -26.25079588453122], [-53.3289785412793, -26.25204118429654], [-53.32546949386597, -26.255164342347523], [-53.326284885406494, -26.25535678164531], [-53.32667112350464, -26.2557993908203], [-53.327486515045166, -26.25601107287302], [-53.32939624786377, -26.257338887858648], [-53.32980394363403, -26.257146451844758], [-53.33057335512076, -26.25638347844304], [-53.33047305230914, -26.25588759393203], [-53.33141831294978, -26.25562978862531], [-53.33220870945531, -26.25507774834018], [-53.33381652832031, -26.25547224507094], [-53.33441734313964, -26.254240629280268], [-53.33405256271362, -26.253624816488017], [-53.3339238166809, -26.2529320231946], [-53.331674374895, -26.25305072584465], [-53.3302116394043, -26.252316203465266]]]}}, {"type": "Feature", "properties": {"cod_imovel": "SC-4212007-80E23DEE265F499491F54EED186F4A33", "municipio": "Palma Sola", "num_area": 10.2837, "mod_fiscal": 0.5629, "des_condic": "Aguardando analise", "ind_status": "AT", "dat_atuali": "01/03/2021"}, "geometry": {"type": "Polygon", "coordinates": [[[-53.34265708923339, -26.249506484527316], [-53.339502811431885, -26.248332540735813], [-53.33924766206151, -26.25069587178899], [-53.33982467651367, -26.252855045906955], [-53.34076701145515, -26.2527837828268], [-53.34106922149658, -26.251700380471526], [-53.34188785104982, -26.25127474614631], [-53.34209571313208, -26.25030998281123], [-53.34265708923339, -26.249506484527316]]]}}]}