{"type": "FeatureCollection", "features": [{"type": "Feature", "properties": {"cod_imovel": "SC-4205803-60CAA9B6E849410D8D25BBABDB3C923C", "municipio": "Garuva", "num_area": 191774.9015, "mod_fiscal": 15482.7896, "des_condic": "Em analise", "ind_status": "PE", "dat_atuali": "22/11/2022"}, "geometry": {"type": "Polygon", "coordinates": [[[-48.5957962567778, -25.97664852633631], [-48.60387284751766, -26.0053292638938], [-48.60671128198278, -26.00702133797033], [-48.60746388164227, -26.00835284247144], [-48.60937014707723, -26.009142621229], [-48.61025394269919, -26.01120411046056], [-48.61170016930998, -26.01139784252013], [-48.61276940755714, -26.01288500083225], [-48.61437693407125, -26.01308410409345], [-48.6170536070177, -26.01477025304684], [-48.61551708570775, -26.01675038678022], [-48.61372406673804, -26.01712560231233], [-48.61442228404717, -26.01976121638253], [-48.61614897510893, -26.02098006151718], [-48.61572970119621, -26.02328795031733], [-48.61832350406152, -26.02308457287632], [-48.6179404577873, -26.02452294329072], [-48.61726484391685, -26.02522592938098], [-48.6078143063026, -26.02708628123812], [-48.60856679522333, -26.02841767627391], [-48.61506441614192, -26.02761935811627], [-48.6161154520361, -26.02954113896286], [-48.61802710387886, -26.03394693733123], [-48.61655674629658, -26.03433266929686], [-48.61713653462546, -26.03594896722016], [-48.61435109211354, -26.03687082642019], [-48.61508028950161, -26.03878245278182], [-48.61422545640578, -26.03991473938213], [-48.61977239058578, -26.03865070974311], [-48.61970661688159, -26.04024507167199], [-48.61915069823212, -26.04196800684081], [-48.61017212495374, -26.04413208638803], [-48.6106084073818, -26.04530800109652], [-48.62022651394243, -26.04331055977779], [-48.62072839269807, -26.04681072975672], [-48.61844505836719, -26.04731428001595], [-48.61727339343151, -26.04829070297266], [-48.61790653869199, -26.05252085870761], [-48.61736837888457, -26.05380888214185], [-48.61785197136469, -26.05774357008386], [-48.61665611689656, -26.05929968147987], [-48.6218561890546, -26.0625220775551], [-48.62605825588509, -26.06251807354165], [-48.62874171764923, -26.06405921991783], [-48.63086841283935, -26.07124074775468], [-48.62721847490919, -26.07720902276136], [-48.62575381306152, -26.07744989616216], [-48.62567625116606, -26.07933433336534], [-48.61532667320866, -26.07941992508582], [-48.61523106165838, -26.08173929362407], [-48.60438892076782, -26.08195242564155], [-48.60465202788901, -26.08341304949287], [-48.6274759792147, -26.08273354700326], [-48.62711135636856, -26.08373728557676], [-48.61527891690926, -26.08449891583127], [-48.61326952054154, -26.09009188445861], [-48.6059673148362, -26.09071569672843], [-48.60459022684, -26.10053918136001], [-48.61133662244949, -26.10163788559586], [-48.61316133340562, -26.09661968740635], [-48.61747836390429, -26.10169983799562], [-48.61397359452327, -26.1043391923228], [-48.61235122588992, -26.11226652178861], [-48.6137901808948, -26.11630744812897], [-48.59694041131591, -26.1598627833147], [-48.6110153736303, -26.17542904554744], [-48.60950909204781, -26.18437612103581], [-48.62573158985758, -26.18332200573321], [-48.6356547620505, -26.18974725610491], [-48.65456411755603, -26.19859572980313], [-48.66311131119416, -26.19147857627827], [-48.69953446398402, -26.24667549063496], [-48.76167538250083, -26.2883205418415], [-48.77541457279334, -26.28078297409666], [-48.77867259522867, -26.27624490652597], [-48.78006903234817, -26.27542517032843], [-48.78996477149308, -26.27893592797079], [-48.79470775002368, -26.27371907121191], [-48.79366134744386, -26.26352815268119], [-48.79727253117464, -26.25421313899896], [-48.79162995301738, -26.24561574689047], [-48.79053581251854, -26.23658437789002], [-48.78175626929498, -26.21745768266046], [-48.78138015579257, -26.2067076202549], [-48.77185086834995, -26.20625395894172], [-48.76993848166155, -26.1974849335958], [-48.77120976750357, -26.19404341358866], [-48.77461945960838, -26.19778203220357], [-48.83204052574356, -26.19368523970367], [-48.84787645067384, -26.19114131372034], [-48.86746119900947, -26.19089597933856], [-48.88496554081974, -26.19406381805997], [-48.91199687000181, -26.1952046855996], [-48.91995891847556, -26.21493175051252], [-48.91882871819925, -26.25233520172298], [-48.93722154773972, -26.26966586241528], [-48.96188808657251, -26.28088735181281], [-48.97501189686943, -26.26373887814838], [-48.98722746649302, -26.29535269172924], [-48.95697621291904, -26.31574063470013], [-48.9736516154893, -26.33265539653172], [-48.99584200483109, -26.36707758479125], [-49.01353965972942, -26.37458877711695], [-49.05104293199174, -26.37384836857018], [-49.04907513359861, -26.33576472185339], [-49.13127743789872, -26.3491336975892], [-49.13020212337328, -26.36506445211088], [-49.14323652582381, -26.37183976781902], [-49.15636399167748, -26.39355807496016], [-49.17156964705726, -26.39850605383839], [-49.19598411782281, -26.39081321001299], [-49.20167790118181, -26.38126195654924], [-49.22416053596048, -26.38192136091005], [-49.24791528191011, -26.39218772459498], [-49.25088507855663, -26.39067839193357], [-49.25322873712631, -26.38857055254828], [-49.26032113810985, -26.38950158147348], [-49.27050971441848, -26.38544440408063], [-49.27272276113369, -26.3869590254853], [-49.27200258253709, -26.38447203070881], [-49.27318229904273, -26.38320044563923], [-49.27482653757342, -26.38252252374414], [-49.2759437912996, -26.37849265394898], [-49.27823005925482, -26.37797821154644], [-49.28427499081855, -26.37205863458604], [-49.28786648346551, -26.37129119586372], [-49.29039320468384, -26.36860689291529], [-49.28915604921072, -26.36697541579415], [-49.28633737846648, -26.36428293508375], [-49.28957903906593, -26.36423070949154], [-49.29240333364161, -26.36228012920807], [-49.29134898958182, -26.36007343191186], [-49.29914358273731, -26.35507194109641], [-49.29921160839729, -26.35318732851263], [-49.29878160817769, -26.35144196438217], [-49.30019019887279, -26.34829054422694], [-49.30165699470546, -26.34804252252941], [-49.30499204242474, -26.34538156663339], [-49.30571708756644, -26.34322598219111], [-49.30719432975365, -26.342687960036], [-49.30619625865242, -26.33888692830361], [-49.30834673608233, -26.33764265172626], [-49.31206612840556, -26.32425455289097], [-49.30743010008592, -26.31802792634668], [-49.32062923355768, -26.30209027962307], [-49.32193785605469, -26.28355392579676], [-49.30658493030489, -26.28268053389892], [-49.30789383704865, -26.27778458970593], [-49.29989032217378, -26.27073622280081], [-49.26961967054308, -26.25293853910139], [-49.26868766407901, -26.24732580436302], [-49.2542135805416, -26.2405229230873], [-49.2411823262369, -26.24754131605758], [-49.23848828741651, -26.24601214412559], [-49.22950421161317, -26.24400898517823], [-49.22649983079672, -26.23768376038146], [-49.22768519287999, -26.23177119461961], [-49.2296974007171, -26.22979926293458], [-49.22109068018304, -26.22635602908982], [-49.21185177324288, -26.22695524780292], [-49.20248554076771, -26.22218275755762], [-49.19317704921558, -26.2043509316184], [-49.1758644633144, -26.19150763482921], [-49.17181404987672, -26.18297406345527], [-49.16975642631903, -26.17740085321598], [-49.17014745067938, -26.17117505428114], [-49.17134697613625, -26.16932491952647], [-49.17174991722428, -26.16716103045256], [-49.16688939842529, -26.16310020986203], [-49.16747398553526, -26.15600965521513], [-49.1666935413963, -26.15526116134575], [-49.16500750154997, -26.14839300467333], [-49.16615882192984, -26.14784695231661], [-49.16672319711365, -26.14568768060875], [-49.17037049492664, -26.14318470382422], [-49.17159113020112, -26.14075465983667], [-49.17455527075793, -26.13924672356269], [-49.17460327579492, -26.13794243281987], [-49.16619262421067, -26.1337755106982], [-49.1598762849, -26.13416789211836], [-49.15297247754981, -26.13754438823565], [-49.14731181713767, -26.1376661350081], [-49.14283003079321, -26.13647928243483], [-49.14136649444267, -26.13237375057599], [-49.13879487524124, -26.13200676682255], [-49.13806318300037, -26.12995394174254], [-49.13972006869389, -26.12449075305716], [-49.13927891757911, -26.12331696543113], [-49.13937033523307, -26.12085338210405], [-49.13913894089632, -26.11402752173812], [-49.1368903823435, -26.10931731079657], [-49.13473062410118, -26.08916500172412], [-49.12661522485459, -26.09022732807639], [-49.1224361495274, -26.09401863004747], [-49.11823673162711, -26.08533329135406], [-49.12161441359748, -26.08137277229349], [-49.1228996889583, -26.08155648660167], [-49.12730950773008, -26.08023815733362], [-49.1277560055418, -26.07691470910906], [-49.12522323635493, -26.07553290488589], [-49.12636888895162, -26.07077939478707], [-49.12763255251189, -26.07154279806526], [-49.12961148298456, -26.070441455501], [-49.1284177953995, -26.06779392864864], [-49.12919762226136, -26.06418982376766], [-49.13180601783782, -26.06354440957793], [-49.13345136279286, -26.05837164593372], [-49.13638687032662, -26.05758921868453], [-49.13214511452723, -26.050064197991], [-49.13432780619129, -26.04780865124977], [-49.12792017003251, -26.03775220256436], [-49.12500118035038, -26.03809974976303], [-49.1201041997896, -26.0351962121161], [-49.12181924528767, -26.03249143286404], [-49.1212388335461, -26.0307330808786], [-49.12105098135802, -26.02710049030344], [-49.12032548107181, -26.0249024343847], [-49.12219086900149, -26.02249213624066], [-49.12323939540185, -26.01599458646538], [-49.12186324952406, -26.01827468612373], [-49.11831027957192, -26.01831278111253], [-49.11569246927883, -26.01924951688619], [-49.11269324389546, -26.01741788896665], [-49.10864017192746, -26.01787583264888], [-49.1058629854012, -26.01788451478619], [-49.10184464502132, -26.00876899553202], [-49.09757609229793, -26.01067114659869], [-49.09730242070444, -26.00935727173752], [-49.09355027424281, -26.0104044555724], [-49.091905226525, -26.01122511685794], [-49.09086343874086, -26.00887255944516], [-49.08980540732331, -26.00695470028726], [-49.09090327586667, -26.00350628411321], [-49.08261520108994, -26.00499623970602], [-49.07864226987714, -26.00763201206286], [-49.07209444602532, -26.00148561000457], [-49.06929374531627, -26.00299620365138], [-49.06935672655729, -26.00560926248268], [-49.06736494460842, -26.01135115386397], [-49.06025184902759, -26.01592156009459], [-49.06064807137412, -26.01825459246561], [-49.05390609156083, -26.02153045302864], [-49.05248781162944, -26.02061680416823], [-49.05131296811851, -26.01753466613684], [-49.04926306413199, -26.02051833521425], [-49.04609315774727, -26.01897086037094], [-49.04412665765824, -26.01122246544067], [-49.0433260091098, -26.01105290747013], [-49.04287314324839, -26.00596183864291], [-49.04163824733752, -26.00447338726748], [-49.03431181582711, -26.0061347070985], [-49.03419455511718, -26.00497057977811], [-49.02935773065123, -26.00482211256779], [-49.02550074644807, -26.00862045045294], [-49.02767549471426, -26.01086327409721], [-49.02604657542199, -26.01124843971184], [-49.01972070247708, -26.01627644880359], [-49.01717923842184, -26.0151827789822], [-49.01234142070345, -26.01503382484434], [-49.01010028478051, -26.01452954419234], [-49.0077539972637, -26.01677840885178], [-49.00522893742999, -26.01524977010359], [-49.00470006793223, -26.01218682944528], [-49.00295925530855, -26.01126260765983], [-49.00181370715506, -26.01166245872904], [-48.9980820525856, -26.01212745446012], [-48.99657448468581, -26.00932426001203], [-48.99398276779468, -26.00953421586811], [-48.99211933836382, -26.00759038673678], [-48.98883194706745, -26.00487687585107], [-48.98717454885265, -26.00598618613218], [-48.98562363484368, -26.00521346252471], [-48.98386088883314, -26.00486873116899], [-48.98406112897646, -26.00385937982318], [-48.98590737655792, -26.00203048108722], [-48.98562940744216, -26.00086123329256], [-48.98225976888045, -26.00032170081722], [-48.98090329587369, -25.9978133364658], [-48.97965850798447, -25.99240675453135], [-48.97929759082143, -25.9892037050704], [-48.97409914539457, -25.99005827366817], [-48.96286537757088, -25.98419633479815], [-48.96121857240563, -25.98922301113469], [-48.96227987404282, -25.99099697679536], [-48.96050095956042, -25.99108670649673], [-48.95766521191105, -25.99346471749922], [-48.95021188942385, -25.99004066539137], [-48.95926974380502, -25.9811827649953], [-48.68219320017625, -25.98330503022099], [-48.67643098258744, -25.97818143687527], [-48.66876561034771, -25.98010424698844], [-48.66255690849975, -25.9740946825068], [-48.66195397150774, -25.96914128393502], [-48.659088771501, -25.96817560374848], [-48.6530900602762, -25.96492911995057], [-48.65058356378619, -25.95918639869189], [-48.64555834096002, -25.95582647606847], [-48.63874176060843, -25.96067823797079], [-48.64005442797577, -25.96405959112227], [-48.6403822552054, -25.96784325266063], [-48.63756476925573, -25.96963550731367], [-48.63328482629183, -25.97166896329575], [-48.6339881789573, -25.97807657132804], [-48.62397194500301, -25.97832170531073], [-48.62261746318207, -25.97595483975759], [-48.62121499358873, -25.97474705947905], [-48.62088575475599, -25.97879860283044], [-48.62159555218475, -25.98114383140806], [-48.62074166699203, -25.98227590079405], [-48.61853329829816, -25.98104111933862], [-48.61433077638517, -25.98119021059514], [-48.61344675629702, -25.98304666987826], [-48.61146451083545, -25.98414077034529], [-48.60890366263056, -25.98361941390824], [-48.61150777389705, -25.97920916764152], [-48.60691660783874, -25.9809409383832], [-48.60436779171683, -25.9801296696157], [-48.60112001794683, -25.98060063060514], [-48.59967678797288, -25.97648926941684], [-48.5957962567778, -25.97664852633631]]]}}, {"type": "Feature", "properties": {"cod_imovel": "SC-4205803-6BA23670B8324D4790B73A215CF2538A", "municipio": "Garuva", "num_area": 364.5103, "mod_fiscal": 30.3759, "des_condic": "Aguardando analise", "ind_status": "PE", "dat_atuali": "21/05/2021"}, "geometry": {"type": "Polygon", "coordinates": [[[-48.76473007972756, -25.98669992773159], [-48.76488670778456, -25.98719197093], [-48.76530182740356, -25.98768705261138], [-48.76655946618718, -25.98806356449955], [-48.76717769132383, -25.98851846494155], [-48.76720299642114, -25.98999546760787], [-48.76761398932747, -25.99137621730854], [-48.76742301238468, -25.99212887841229], [-48.76661297782573, -25.9928214569444], [-48.76373305650504, -25.99434635690441], [-48.76302982027294, -25.99518348508349], [-48.76280596015512, -25.99607856358323], [-48.76400287016525, -25.99800394087861], [-48.76398061126537, -25.99834226574906], [-48.76372001907211, -25.998572499216], [-48.76185006415043, -25.99921981224815], [-48.76117211747992, -25.99930783773387], [-48.7608393788258, -25.9996687416989], [-48.75953961230416, -26.00027908809308], [-48.75879373016263, -26.00176657955587], [-48.75750827731302, -26.00251434841439], [-48.75630964426371, -26.00350285263398], [-48.75455472463298, -26.00421990613833], [-48.75382012331885, -26.00468220936324], [-48.75317073950446, -26.00718722082101], [-48.75226596604659, -26.00897413345295], [-48.75119055630664, -26.00978728113017], [-48.75082519066838, -26.01138642193415], [-48.75052896919628, -26.01163200591381], [-48.7494315173003, -26.01193608526086], [-48.75040438757406, -26.01274067276859], [-48.76378186423491, -26.00069103176201], [-48.77283550829319, -26.00221642024742], [-48.76853657709348, -26.00606290309986], [-48.77420326270082, -26.01013238764594], [-48.77964420002052, -26.00878741389787], [-48.77930054835047, -25.98653338985323], [-48.76473007972756, -25.98669992773159]]]}}, {"type": "Feature", "properties": {"cod_imovel": "SC-4205803-6A538C73DA414B649CE78C9E13DBF86F", "municipio": "Garuva", "num_area": 330.5922, "mod_fiscal": 26.9757, "des_condic": "Aguardando analise", "ind_status": "AT", "dat_atuali": "27/05/2021"}, "geometry": {"type": "Polygon", "coordinates": [[[-48.7633621727422, -25.98063617042179], [-48.75262072504413, -25.98067731198538], [-48.75177136050131, -25.99167322708347], [-48.75058187999742, -26.0002159140557], [-48.74968494261219, -26.01142394697239], [-48.7459714684929, -26.01472399394268], [-48.7483971316197, -26.01282904964258], [-48.74943150024507, -26.01178776688769], [-48.75069124783988, -26.01137676703181], [-48.75108313135559, -26.00973588051945], [-48.75216896614818, -26.00890542617131], [-48.75305574514564, -26.0071540551484], [-48.75331807709263, -26.00591342137033], [-48.75386913543274, -26.00444413334302], [-48.75624648712315, -26.00341023856249], [-48.75743347007307, -26.00242780419898], [-48.75871253275995, -26.00168633971396], [-48.75946877223436, -26.00018896558002], [-48.76075942995496, -25.99958476235696], [-48.76112540356596, -25.99920449984655], [-48.76181973500647, -25.9991143470078], [-48.7638637390641, -25.99829407734729], [-48.76388116221058, -25.99802925769455], [-48.76268639894423, -25.99609517225784], [-48.76292408400052, -25.99513019312862], [-48.76365054519554, -25.99426543925759], [-48.76654792513389, -25.99272934725708], [-48.76731495242236, -25.99207670491633], [-48.76749120832703, -25.99138059543181], [-48.76708341856187, -25.99001060184662], [-48.76705874868323, -25.98857058904354], [-48.766504087485, -25.98816245968555], [-48.76522262981819, -25.9877718972427], [-48.76477772990789, -25.98724129833357], [-48.76460587442836, -25.98670141683328], [-48.76476779171821, -25.9861367924038], [-48.76431030993711, -25.98469148259927], [-48.7645653732929, -25.98328720781409], [-48.76376333739343, -25.9819822593583], [-48.7633621727422, -25.98063617042179]]]}}, {"type": "Feature", "properties": {"cod_imovel": "SC-4205803-3BD002C9041F4FFEB8720524FD7D6178", "municipio": "Garuva", "num_area": 8.9845, "mod_fiscal": 0.7487, "des_condic": "Aguardando analise", "ind_status": "AT", "dat_atuali": "26/01/2026"}, "geometry": {"type": "Polygon", "coordinates": [[[-48.71372581790268, -25.98630787880778], [-48.71559234469044, -25.98807737000517], [-48.71923506045088, -25.98802496553821], [-48.71852684863575, -25.98608532131646], [-48.71372581790268, -25.98630787880778]]]}}, {"type": "Feature", "properties": {"cod_imovel": "SC-4205803-386025A5AEF54C02A18C465CCE1B81D5", "municipio": "Garuva", "num_area": 24.9661, "mod_fiscal": 2.0805, "des_condic": "Aguardando analise", "ind_status": "AT", "dat_atuali": "21/08/2025"}, "geometry": {"type": "Polygon", "coordinates": [[[-48.72826935143272, -25.99844887900415], [-48.72076254529706, -25.99854705657801], [-48.71887997843854, -25.99860351398904], [-48.71968671914861, -26.00113094526437], [-48.7239908999551, -26.00122382296832], [-48.72718013396037, -26.00114207436862], [-48.72826935143272, -25.99844887900415]]]}}, {"type": "Feature", "properties": {"cod_imovel": "SC-4205803-ED158E0DA2DC476C931F87CCD32264D5", "municipio": "Garuva", "num_area": 341.757, "mod_fiscal": 27.7409, "des_condic": "Aguardando analise", "ind_status": "AT", "dat_atuali": "14/02/2019"}, "geometry": {"type": "Polygon", "coordinates": [[[-48.68111509104213, -25.98116007129722], [-48.68155364635774, -25.98212481148783], [-48.6822759716725, -25.98495930628992], [-48.68243333810337, -25.98639657088934], [-48.68327276759776, -25.9888506943262], [-48.68385166479054, -25.98984562363899], [-48.68500376719931, -25.9907107438096], [-48.68595658254298, -25.99117286801681], [-48.68781564975482, -25.99278685260301], [-48.69342202598052, -25.99553795833993], [-48.69476793904973, -25.99643197741476], [-48.69531731825624, -25.99744784500551], [-48.69522840915036, -25.99875289832677], [-48.695505483901, -25.99906584988348], [-48.69773446907878, -25.99816802539549], [-48.69825559465652, -25.997391654208], [-48.70028459878483, -25.99645789577064], [-48.70172779247621, -25.99643447510338], [-48.70416249427728, -25.99427150488163], [-48.70557154902208, -25.99221724706286], [-48.70547912478282, -25.99028750070482], [-48.70701552850333, -25.98907426751212], [-48.70747892907626, -25.98811448565516], [-48.70931444836469, -25.98803252823783], [-48.70936305479479, -25.98840282974465], [-48.70972117945911, -25.98817160669214], [-48.71075930591559, -25.98804990457462], [-48.71007277295517, -25.98740345695336], [-48.70924892895202, -25.98694849113978], [-48.70927863198958, -25.9860542519136], [-48.70983412730932, -25.9855186843057], [-48.7108760465465, -25.98368785378348], [-48.68111509104213, -25.98116007129722]]]}}, {"type": "Feature", "properties": {"cod_imovel": "SC-4205803-C0B18CA128DB46E4BF452A7A97015D00", "municipio": "Garuva", "num_area": 42.0201, "mod_fiscal": 3.4615, "des_condic": "Aguardando analise", "ind_status": "AT", "dat_atuali": "04/05/2016"}, "geometry": {"type": "Polygon", "coordinates": [[[-48.725063411073855, -25.98302641284631], [-48.71344554328533, -25.98324933580047], [-48.713334272075336, -25.985386593288677], [-48.71478651735939, -25.985165864085957], [-48.71410054780751, -25.98603951063422], [-48.72469709528725, -25.987009890575628], [-48.725063411073855, -25.98302641284631]]]}}, {"type": "Feature", "properties": {"cod_imovel": "SC-4205803-B9501CE5930441B8B6A4694B8A9D4901", "municipio": "Garuva", "num_area": 24.9705, "mod_fiscal": 2.0809, "des_condic": "Aguardando analise", "ind_status": "AT", "dat_atuali": "16/10/2024"}, "geometry": {"type": "Polygon", "coordinates": [[[-48.72163929762975, -25.99852424417601], [-48.73116930396376, -25.99845804440431], [-48.73246158400693, -25.99612145004102], [-48.72204002248947, -25.99633210613361], [-48.72163929762975, -25.99852424417601]]]}}, {"type": "Feature", "properties": {"cod_imovel": "SC-4205803-23D12E3CDD18411886D6956DC8356B0F", "municipio": "Garuva", "num_area": 62.3829, "mod_fiscal": 5.1986, "des_condic": "Aguardando analise", "ind_status": "AT", "dat_atuali": "23/11/2023"}, "geometry": {"type": "Polygon", "coordinates": [[[-48.71917000762252, -25.99314327820509], [-48.73216487636984, -25.99314500287293], [-48.7329149144421, -25.98904509911513], [-48.71855490419134, -25.98902371462205], [-48.71917000762252, -25.99314327820509]]]}}, {"type": "Feature", "properties": {"cod_imovel": "SC-4205803-F99AF4B035AC41049861142BFF77A130", "municipio": "Garuva", "num_area": 31.9176, "mod_fiscal": 2.6598, "des_condic": "Aguardando analise", "ind_status": "AT", "dat_atuali": "19/10/2022"}, "geometry": {"type": "Polygon", "coordinates": [[[-48.71738675, -25.99430857], [-48.70786177, -25.99884246], [-48.70907651, -25.99952649], [-48.71044019, -25.99935545], [-48.71140801, -25.99988362], [-48.71206962, -25.99987917], [-48.71255576, -26.00017598], [-48.71268017, -26.00085151], [-48.71825814, -25.99721676], [-48.71738675, -25.99430857]]]}}, {"type": "Feature", "properties": {"cod_imovel": "SC-4205803-4B7476241727479B90E7BE7DD3DFA599", "municipio": "Garuva", "num_area": 70.0882, "mod_fiscal": 5.7382, "des_condic": "Aguardando analise", "ind_status": "AT", "dat_atuali": "14/06/2023"}, "geometry": {"type": "Polygon", "coordinates": [[[-48.71001193513906, -25.98399840836169], [-48.71092621637884, -25.98381441239279], [-48.70843687549046, -25.98174424933228], [-48.70706986210848, -25.98284286283296], [-48.69795162436782, -25.98408844271248], [-48.69786352246762, -25.98350563563648], [-48.68934442221299, -25.98458241896934], [-48.68925429948457, -25.98593949873881], [-48.70410848204499, -25.98755120355679], [-48.7040964778933, -25.98620296949863], [-48.70941489214422, -25.98631848370508], [-48.71001193513906, -25.98399840836169]]]}}, {"type": "Feature", "properties": {"cod_imovel": "SC-4205803-6366E3A623CB48D0A9D97420CF026BA3", "municipio": "Garuva", "num_area": 33.4834, "mod_fiscal": 2.7903, "des_condic": "Aguardando analise", "ind_status": "AT", "dat_atuali": "23/03/2016"}, "geometry": {"type": "Polygon", "coordinates": [[[-48.71411582119765, -25.9870267196846], [-48.71268591101445, -25.98542091731232], [-48.70141135369514, -25.99377573884267], [-48.70299919776279, -25.99531631521871], [-48.71411582119765, -25.9870267196846]]]}}, {"type": "Feature", "properties": {"cod_imovel": "SC-4205803-C6BE88603A83419CBE30F0658466EF8A", "municipio": "Garuva", "num_area": 1.1626, "mod_fiscal": 0.0969, "des_condic": "Aguardando analise", "ind_status": "AT", "dat_atuali": "14/12/2017"}, "geometry": {"type": "Polygon", "coordinates": [[[-48.73202657197147, -25.99762572387288], [-48.73161837183178, -25.99750426149323], [-48.73082980445182, -25.99996619848223], [-48.7311947433343, -26.00008360349239], [-48.73202657197147, -25.99762572387288]]]}}, {"type": "Feature", "properties": {"cod_imovel": "SC-4205803-1E2424120F2647DCBFD2EDDF3E27B1B4", "municipio": "Garuva", "num_area": 39.1619, "mod_fiscal": 3.2635, "des_condic": "Aguardando analise", "ind_status": "AT", "dat_atuali": "26/10/2022"}, "geometry": {"type": "Polygon", "coordinates": [[[-48.71269423448958, -26.00089870029048], [-48.71294842048469, -26.00174199109127], [-48.71287163064674, -26.00232826410121], [-48.71385789856849, -26.0028866251222], [-48.71442134304294, -26.00387460860931], [-48.72343968747369, -25.99729763185555], [-48.72152108257453, -25.99502641565436], [-48.71269423448958, -26.00089870029048]]]}}, {"type": "Feature", "properties": {"cod_imovel": "SC-4205803-ECA37226DD5C4546890D626E444D31B6", "municipio": "Garuva", "num_area": 52.5505, "mod_fiscal": 4.3792, "des_condic": "Aguardando analise", "ind_status": "AT", "dat_atuali": "17/10/2019"}, "geometry": {"type": "Polygon", "coordinates": [[[-48.75340765536167, -25.99259430845641], [-48.7335379312558, -25.99134110862812], [-48.73332961512755, -25.99374477623494], [-48.75315380268552, -25.99493403085036], [-48.75340765536167, -25.99259430845641]]]}}, {"type": "Feature", "properties": {"cod_imovel": "SC-4205803-E4A6E8D2684047CEB7BDD2743D46C302", "municipio": "Garuva", "num_area": 0.8905, "mod_fiscal": 0.0742, "des_condic": "Aguardando analise", "ind_status": "AT", "dat_atuali": "14/12/2017"}, "geometry": {"type": "Polygon", "coordinates": [[[-48.73170027857519, -25.9986147320491], [-48.73120523692495, -26.00009332314397], [-48.73166909540456, -26.0002417840682], [-48.73221635477958, -25.99880145720424], [-48.73170027857519, -25.9986147320491]]]}}, {"type": "Feature", "properties": {"cod_imovel": "SC-4205803-0A5C6DF121C24F34B12143CF8BE6FB4F", "municipio": "Garuva", "num_area": 13.6911, "mod_fiscal": 1.1409, "des_condic": "Aguardando analise", "ind_status": "AT", "dat_atuali": "11/11/2015"}, "geometry": {"type": "Polygon", "coordinates": [[[-48.70786176708128, -25.99884246375324], [-48.71411043343824, -25.99586820992836], [-48.71351522477593, -25.99469912659118], [-48.70540252755808, -25.99788745643913], [-48.70586797837967, -25.99821788146599], [-48.70717241199519, -25.99846140495489], [-48.70786176708128, -25.99884246375324]]]}}, {"type": "Feature", "properties": {"cod_imovel": "SC-4205803-0C7A3DAE734849D2930C8CA152C803C2", "municipio": "Garuva", "num_area": 129.3801, "mod_fiscal": 10.7817, "des_condic": "Aguardando analise", "ind_status": "AT", "dat_atuali": "11/02/2015"}, "geometry": {"type": "Polygon", "coordinates": [[[-48.7353243555556, -25.9946945881398], [-48.7356833444444, -25.9979749492509], [-48.7348363444444, -25.9990364714731], [-48.738484382629395, -26.001677143129402], [-48.74608039855957, -26.006498482324876], [-48.74865531921387, -26.000211416787526], [-48.74927759170532, -25.99814779738601], [-48.75163793563843, -25.998533523393185], [-48.752238750457764, -25.995621260725436], [-48.7353243555556, -25.9946945881398]]]}}, {"type": "Feature", "properties": {"cod_imovel": "SC-4205803-777324A7AB0E444A8AEE6B26857BE9A0", "municipio": "Garuva", "num_area": 53.391, "mod_fiscal": 4.4492, "des_condic": "Aguardando analise", "ind_status": "AT", "dat_atuali": "22/11/2019"}, "geometry": {"type": "Polygon", "coordinates": [[[-48.75123226558061, -25.99857267656062], [-48.74405197425033, -26.00338233074297], [-48.74517954095246, -26.00597080856301], [-48.74347490579887, -26.00870227055837], [-48.75225181150162, -26.00604581730579], [-48.75123226558061, -25.99857267656062]]]}}, {"type": "Feature", "properties": {"cod_imovel": "SC-4205803-98FC318AF9674AB4971336917E9A7639", "municipio": "Garuva", "num_area": 138.9623, "mod_fiscal": 11.4628, "des_condic": "Aguardando analise", "ind_status": "AT", "dat_atuali": "04/05/2016"}, "geometry": {"type": "Polygon", "coordinates": [[[-48.7076763757754, -25.98311287848306], [-48.68212396974355, -25.98356299714589], [-48.68370611569404, -25.98894033138985], [-48.703740374032684, -25.989359154687474], [-48.70376668629391, -25.988005770719706], [-48.701674316690195, -25.98673605756848], [-48.704595506580446, -25.985952124660596], [-48.7076763757754, -25.98311287848306]]]}}, {"type": "Feature", "properties": {"cod_imovel": "SC-4205803-7380EE570769461FA2232483313EE3B6", "municipio": "Garuva", "num_area": 26.4223, "mod_fiscal": 2.2019, "des_condic": "Aguardando analise", "ind_status": "AT", "dat_atuali": "15/12/2017"}, "geometry": {"type": "Polygon", "coordinates": [[[-48.72892271988425, -25.99671290058171], [-48.72572945376214, -26.00420408054726], [-48.7278549338487, -26.00437490052027], [-48.72906916612487, -26.00470803457159], [-48.73163093338859, -25.99752956044977], [-48.72892271988425, -25.99671290058171]]]}}, {"type": "Feature", "properties": {"cod_imovel": "SC-4205803-7C304868A7DB47FEA7415812DDED44EF", "municipio": "Garuva", "num_area": 1.8117, "mod_fiscal": 0.151, "des_condic": "Aguardando analise", "ind_status": "AT", "dat_atuali": "13/12/2017"}, "geometry": {"type": "Polygon", "coordinates": [[[-48.73093712857138, -25.99967847061931], [-48.73190561811957, -25.9975983702315], [-48.73109370508367, -25.99734018432441], [-48.7303849995744, -25.99945399519933], [-48.73093712857138, -25.99967847061931]]]}}, {"type": "Feature", "properties": {"cod_imovel": "SC-4205803-DC3C8B20651F48139C37DEBB7B7785F4", "municipio": "Garuva", "num_area": 4.6092, "mod_fiscal": 0.3841, "des_condic": "Aguardando analise", "ind_status": "AT", "dat_atuali": "13/12/2017"}, "geometry": {"type": "Polygon", "coordinates": [[[-48.73163938522338, -25.99814779738601], [-48.7324333190918, -25.998494950849466], [-48.73167720349122, -26.00024266853223], [-48.73234529480013, -26.000416862538], [-48.7344660831435, -25.99870175515746], [-48.73203199353279, -25.99732574169894], [-48.73163938522338, -25.99814779738601]]]}}, {"type": "Feature", "properties": {"cod_imovel": "SC-4205803-991EC2AA8191411B9665DD45CD26631B", "municipio": "Garuva", "num_area": 66.6695, "mod_fiscal": 5.5558, "des_condic": "Aguardando analise", "ind_status": "AT", "dat_atuali": "09/12/2014"}, "geometry": {"type": "Polygon", "coordinates": [[[-48.71262788772583, -26.002178571626715], [-48.712477684020996, -26.000230702779184], [-48.71121168136597, -25.99992212653274], [-48.71018171310425, -25.9993628300201], [-48.709774017333984, -25.999517118979206], [-48.70880842208862, -25.9994206884035], [-48.70857238769531, -25.999208540858344], [-48.70805740356445, -25.99930497160818], [-48.70728492736816, -25.998784244618726], [-48.706018924713135, -25.998398519434744], [-48.705246448516846, -25.99789707480222], [-48.70219945907592, -25.998745672157305], [-48.70219945907592, -26.00051999227407], [-48.70292901992798, -26.004685682005004], [-48.70421648025513, -26.005804221678652], [-48.705825805664055, -26.006787756382828], [-48.71262788772583, -26.002178571626715]]]}}, {"type": "Feature", "properties": {"cod_imovel": "SC-4205803-7C810DEBC6E742469A43AAC103A30A43", "municipio": "Garuva", "num_area": 8.0534, "mod_fiscal": 0.6711, "des_condic": "Aguardando analise", "ind_status": "AT", "dat_atuali": "13/12/2017"}, "geometry": {"type": "Polygon", "coordinates": [[[-48.70226249811925, -25.99718135064639], [-48.70509624481201, -25.99727990923948], [-48.70417356491088, -25.994734067024876], [-48.70358427775418, -25.99412615335591], [-48.70188692114071, -25.99541691328813], [-48.70138406753539, -25.996026281709373], [-48.70226249811925, -25.99718135064639]]]}}, {"type": "Feature", "properties": {"cod_imovel": "SC-4205803-54C05B7C04A24782A153E6A75611C9A8", "municipio": "Garuva", "num_area": 39.9351, "mod_fiscal": 3.3279, "des_condic": "Aguardando analise", "ind_status": "AT", "dat_atuali": "07/04/2016"}, "geometry": {"type": "Polygon", "coordinates": [[[-48.74301063016585, -25.99813256647897], [-48.7360125249562, -25.99971747943756], [-48.7375380788336, -26.00053054617386], [-48.73352826079353, -26.00361599472106], [-48.73454692366705, -26.00483150726425], [-48.7464037189182, -26.00011206169981], [-48.74301063016585, -25.99813256647897]]]}}, {"type": "Feature", "properties": {"cod_imovel": "SC-4205803-0F0BBE5F06234747B657FE88FFF67F6A", "municipio": "Garuva", "num_area": 50.8426, "mod_fiscal": 4.2369, "des_condic": "Aguardando analise", "ind_status": "AT", "dat_atuali": "21/03/2017"}, "geometry": {"type": "Polygon", "coordinates": [[[-48.71943499829161, -25.99325839337521], [-48.71882176499935, -25.99133680908967], [-48.70526589655309, -25.99324860049842], [-48.70420028218121, -25.9944194627844], [-48.7054364109877, -25.99780172840405], [-48.71115841486059, -25.99572953765894], [-48.7120858654361, -25.9952150942436], [-48.71943499829161, -25.99325839337521]]]}}, {"type": "Feature", "properties": {"cod_imovel": "SC-4205803-BD08F1768DF342DBA5EF816F9D630E08", "municipio": "Garuva", "num_area": 2.2339, "mod_fiscal": 0.1862, "des_condic": "Aguardando analise", "ind_status": "AT", "dat_atuali": "04/06/2020"}, "geometry": {"type": "Polygon", "coordinates": [[[-48.702242374420166, -25.998784244618726], [-48.705267906188965, -25.99795493390752], [-48.70518207550049, -25.997723497315388], [-48.70222091674805, -25.99768492450571], [-48.702242374420166, -25.998784244618726]]]}}, {"type": "Feature", "properties": {"cod_imovel": "SC-4205803-2BB01ADD433A4FFAA75B4A00F144EE60", "municipio": "Garuva", "num_area": 30.0638, "mod_fiscal": 2.5053, "des_condic": "Aguardando analise", "ind_status": "AT", "dat_atuali": "16/06/2020"}, "geometry": {"type": "Polygon", "coordinates": [[[-48.71322572472058, -25.9944356787532], [-48.70219366394915, -25.98530219146276], [-48.69987260063474, -25.98576918611061], [-48.71100321811724, -25.99507705996588], [-48.71322572472058, -25.9944356787532]]]}}, {"type": "Feature", "properties": {"cod_imovel": "SC-4208450-73228A0A08FE4005AF23B6FE03E6EBDF", "municipio": "Itapoa", "num_area": 2977.7564, "mod_fiscal": 248.136, "des_condic": "Aguardando analise", "ind_status": "AT", "dat_atuali": "13/03/2015"}, "geometry": {"type": "Polygon", "coordinates": [[[-48.66603057596984, -26.018058849829146], [-48.65812634389062, -26.057346680264803], [-48.654314398746585, -26.080740660870283], [-48.68150716848634, -26.074796979158194], [-48.69751092496779, -26.077576979875666], [-48.71188730250301, -26.00739176570503], [-48.71135764790294, -26.00759345040022], [-48.71010184896947, -26.007480088619484], [-48.70920431242451, -26.00780331861678], [-48.707379172375276, -26.007631448837174], [-48.705851487431445, -26.006903463203436], [-48.703342343525875, -26.00511460826432], [-48.702726197811344, -26.00416228227052], [-48.7024127184912, -26.001960932019642], [-48.702049884645895, -25.995602503823765], [-48.70186635196496, -25.995379250719004], [-48.70138789881207, -25.99525770861047], [-48.69995929911974, -25.995342000281674], [-48.69815890134976, -25.995988271495168], [-48.69671142018452, -25.997188852531323], [-48.69601991139265, -25.99742845771316], [-48.696989952416864, -26.02526570612719], [-48.66603057596984, -26.018058849829146]]]}}, {"type": "Feature", "properties": {"cod_imovel": "SC-4208450-378196EF821547288EFA5F88E8CA2A0D", "municipio": "Itapoa", "num_area": 0.8832, "mod_fiscal": 0.07, "des_condic": "Aguardando analise", "ind_status": "AT", "dat_atuali": "11/06/2026"}, "geometry": {"type": "Polygon", "coordinates": [[[-48.66950966, -25.983887407], [-48.671086866, -25.982748937], [-48.670772713, -25.982518201], [-48.6691548, -25.983573458], [-48.66950966, -25.983887407]]]}}, {"type": "Feature", "properties": {"cod_imovel": "SC-4208450-7648B4BD50844E53ACE908092EDFE380", "municipio": "Itapoa", "num_area": 2.4924, "mod_fiscal": 0.21, "des_condic": "Aguardando analise", "ind_status": "AT", "dat_atuali": "09/06/2026"}, "geometry": {"type": "Polygon", "coordinates": [[[-48.657199477, -25.976344991], [-48.655994977, -25.976829896], [-48.656068158, -25.977288461], [-48.658038291, -25.977525472], [-48.658241667, -25.976150525], [-48.657263857, -25.975983049], [-48.657199477, -25.976344991]]]}}, {"type": "Feature", "properties": {"cod_imovel": "SC-4208450-EC31591EDC5C4319A0CB2A79F49C77C3", "municipio": "Itapoa", "num_area": 72.5131, "mod_fiscal": 6.0428, "des_condic": "Aguardando analise", "ind_status": "AT", "dat_atuali": "16/03/2026"}, "geometry": {"type": "Polygon", "coordinates": [[[-48.68155270563887, -25.99463660245771], [-48.68220853291427, -25.98645523953562], [-48.68172780404485, -25.98475375241821], [-48.68110179846562, -25.98138827445797], [-48.68036911699652, -25.98113883001985], [-48.67855695767358, -26.01555467982994], [-48.68043825738076, -26.0168480503731], [-48.68155270563887, -25.99463660245771]]]}}, {"type": "Feature", "properties": {"cod_imovel": "SC-4208450-0FB7DCF73A0E4C4E90A62D9E93997112", "municipio": "Itapoa", "num_area": 72.5295, "mod_fiscal": 6.0441, "des_condic": "Aguardando analise", "ind_status": "AT", "dat_atuali": "16/03/2026"}, "geometry": {"type": "Polygon", "coordinates": [[[-48.68278852501307, -26.01841205325856], [-48.68394539870753, -25.99031893841533], [-48.68356405300793, -25.98991687221196], [-48.68280053462267, -25.98850858440409], [-48.68272748583118, -25.98778629430862], [-48.68221421495096, -25.98646194706336], [-48.68155486626693, -25.9946494858017], [-48.68044764852632, -26.01684564040403], [-48.68278852501307, -26.01841205325856]]]}}, {"type": "Feature", "properties": {"cod_imovel": "SC-4208450-3D1B01E828804EEA8BFFC4B492ACEEBF", "municipio": "Itapoa", "num_area": 835.4795, "mod_fiscal": 69.6233, "des_condic": "Aguardando analise", "ind_status": "AT", "dat_atuali": "04/02/2020"}, "geometry": {"type": "Polygon", "coordinates": [[[-48.61575463316209, -25.98977397308496], [-48.61514793789746, -26.005512411196143], [-48.61602754323797, -26.005684960113804], [-48.61673695510966, -26.00649307258583], [-48.61633900563253, -26.007755407938976], [-48.61973580076075, -26.008581734805674], [-48.619328796403856, -26.010363771397376], [-48.619654751686774, -26.010776945541476], [-48.62013617950652, -26.01098316378237], [-48.62062719413397, -26.010796300028357], [-48.622055553496644, -26.00941502986047], [-48.62369806411611, -26.00995698089463], [-48.626759823464596, -26.00962922786098], [-48.62686099376851, -26.010745338545377], [-48.623975941945275, -26.011018950554842], [-48.62361813838254, -26.011560408208446], [-48.6206603257933, -26.014030195155513], [-48.62016070657599, -26.01465181409527], [-48.619701403591584, -26.015553139607665], [-48.619650233669006, -26.016187224438116], [-48.62011171280589, -26.017606005000925], [-48.618536687827444, -26.0199675003804], [-48.61840993219635, -26.02041221177409], [-48.619190101064454, -26.021628041355033], [-48.61943844401518, -26.023130158772364], [-48.61915646904403, -26.024323445668408], [-48.62992391516955, -26.02550649871261], [-48.6303063680472, -26.02609548464696], [-48.635473968555864, -26.023293726287303], [-48.637921814238254, -26.02108824226949], [-48.6380469213263, -25.996342318570697], [-48.648885242500654, -25.996389195563523], [-48.64438235723436, -25.989910373010495], [-48.61575463316209, -25.98977397308496]]]}}, {"type": "Feature", "properties": {"cod_imovel": "SC-4208450-9574AA8E9EFC4B9797546A6C09DB2610", "municipio": "Itapoa", "num_area": 515.0466, "mod_fiscal": 3.6976, "des_condic": "Aguardando analise", "ind_status": "AT", "dat_atuali": "28/02/2019"}, "geometry": {"type": "Polygon", "coordinates": [[[-48.61462878924338, -25.98326283803552], [-48.65559948671022, -25.97814325890281], [-48.65792173273248, -25.96736903750005], [-48.65579775472413, -25.96650314014106], [-48.65391621488737, -25.96483853087238], [-48.65200226801771, -25.9635713016506], [-48.65130710421803, -25.96261046506601], [-48.65096423972055, -25.96173535884759], [-48.65054483117364, -25.95951744131763], [-48.65030575261393, -25.95908087320414], [-48.64858481408931, -25.95729555094609], [-48.64602917302585, -25.95606292712961], [-48.64425322893857, -25.95584224995822], [-48.64365704002073, -25.95592087149129], [-48.6420870844384, -25.95793972105734], [-48.64134722479867, -25.95838085840794], [-48.64002714915905, -25.95859686610907], [-48.63910397627021, -25.95921277254937], [-48.63815325117607, -25.96021725717815], [-48.63779994614946, -25.96105893546645], [-48.63767034368275, -25.9619975049073], [-48.63845207931198, -25.9634161172586], [-48.63984786083256, -25.96472438694693], [-48.64025170704895, -25.96558522409917], [-48.6403092820323, -25.96664271058436], [-48.64010629662982, -25.9674148355592], [-48.63842725753784, -25.968732460475564], [-48.63879203796387, -25.96961985041326], [-48.63845512622784, -25.97113376116311], [-48.63657197901016, -25.97160776356189], [-48.63651821920391, -25.96925616258506], [-48.63502931605099, -25.9690438958778], [-48.63440469652642, -25.9691533472425], [-48.63371506848363, -25.96953130166713], [-48.63279458601048, -25.97116857944029], [-48.63256557256465, -25.97260983481358], [-48.63383564615853, -25.97360259554444], [-48.63398946280825, -25.97492204555838], [-48.63425986249172, -25.97565397431499], [-48.6343067749437, -25.97668830985981], [-48.6340772326698, -25.97742487347555], [-48.63367574978465, -25.97787590514675], [-48.63187327540789, -25.97785362878301], [-48.63047465876309, -25.97829992209863], [-48.62879907653243, -25.97833106042825], [-48.62418694879479, -25.97763872185474], [-48.62348473495599, -25.97731044327029], [-48.62302482804033, -25.97663637602546], [-48.62286218650034, -25.97583137372903], [-48.62203631683995, -25.97452696001747], [-48.62161862960185, -25.97426653206108], [-48.62122755299407, -25.97429559702652], [-48.62084526064947, -25.97449098644809], [-48.62058499994866, -25.97495737621322], [-48.62104557171394, -25.9758844164312], [-48.62101888969251, -25.9766508872712], [-48.62056085560687, -25.97848611611322], [-48.62066341494706, -25.97885893608937], [-48.62170100573808, -25.97962552191725], [-48.62179579023803, -25.98010059089628], [-48.62142288452044, -25.98197755966864], [-48.62083741682731, -25.98232736172022], [-48.62007492697995, -25.98234759203915], [-48.61859324295401, -25.98117230817583], [-48.61814228483118, -25.98101532838744], [-48.61677986976235, -25.98124795565881], [-48.61417280359972, -25.98108848703425], [-48.61350228837222, -25.98129847721071], [-48.61331112382791, -25.98162491555291], [-48.61355541904612, -25.98205815354487], [-48.61462878924338, -25.98326283803552]]]}}, {"type": "Feature", "properties": {"cod_imovel": "SC-4208450-5C08F90DCB9E4F299EDAC80EA01D7BCE", "municipio": "Itapoa", "num_area": 345.458, "mod_fiscal": 28.7731, "des_condic": "Aguardando analise", "ind_status": "AT", "dat_atuali": "06/02/2018"}, "geometry": {"type": "Polygon", "coordinates": [[[-48.59625598506188, -25.9774938874671], [-48.6015919990234, -25.99532028482889], [-48.60206344676824, -25.99639878695299], [-48.60306866398799, -25.99713958167237], [-48.60384176977144, -25.99973924489125], [-48.60422626527267, -25.99975279913784], [-48.60426152466388, -25.99988037489618], [-48.60394556691576, -26.00012665733012], [-48.60430519064013, -26.00148121281843], [-48.60477553297188, -26.00207812355104], [-48.6049577445069, -26.00206113404372], [-48.60450505969435, -26.00327254688235], [-48.60431673437966, -26.00467425740963], [-48.60470657239749, -26.00511193765514], [-48.60713278998095, -26.00620372916334], [-48.6080800024884, -26.00799682801462], [-48.60978109679392, -26.00840703123457], [-48.61001150847404, -26.00830812344144], [-48.61007799454669, -26.00805642317785], [-48.60918760898472, -26.00688114605764], [-48.60897556548397, -26.00592884286986], [-48.6092489328652, -26.00494310612164], [-48.6100837697984, -26.00427502171236], [-48.61113059395652, -26.00416015555648], [-48.61171133365322, -26.00444595451512], [-48.6123194730765, -26.00525104895604], [-48.6118548004967, -26.00718520018495], [-48.61217291495194, -26.00750187884364], [-48.61298712900216, -26.00753424626665], [-48.61342884514363, -26.0072407574424], [-48.61403411016155, -26.00610249365848], [-48.6150885120566, -26.00572619989568], [-48.61275143521447, -25.99007824531754], [-48.61187503966717, -25.98884387308045], [-48.61096099930708, -25.98889870688539], [-48.61052813121266, -25.98837517899737], [-48.61061676142027, -25.98762387166904], [-48.61149254141762, -25.98541886624649], [-48.61292460852229, -25.9848487157622], [-48.61523347597815, -25.98522342349415], [-48.61561775084148, -25.9851139359267], [-48.61600247293547, -25.98467058163186], [-48.6158748796767, -25.98414991683113], [-48.61536877056875, -25.98335830179351], [-48.61458545516043, -25.98323956825306], [-48.61388446349758, -25.98251583933242], [-48.6136010930781, -25.98333448654863], [-48.61293919457702, -25.98387334938183], [-48.61166020729541, -25.98357149200914], [-48.61039855098175, -25.98437361565426], [-48.60954892996322, -25.98434749842875], [-48.60893457841614, -25.98411123207859], [-48.60855568930796, -25.9837212135836], [-48.60842843149884, -25.98339762651107], [-48.60857366679964, -25.98279783558245], [-48.61057011019801, -25.98144547074853], [-48.61095994139259, -25.98098869651623], [-48.61139249890364, -25.9799608342397], [-48.61114129018136, -25.97900603043275], [-48.61081949105962, -25.97894607719944], [-48.60962656669158, -25.97924419642194], [-48.60920377513235, -25.97953425259646], [-48.60814305013699, -25.98079198001488], [-48.607376861898, -25.98114829783552], [-48.60616498039211, -25.98089202447825], [-48.60476831924473, -25.98006593174], [-48.60423286476597, -25.9799686255561], [-48.60331612749015, -25.98077262406444], [-48.60102938004858, -25.98132715953046], [-48.59999096263563, -25.98111322186966], [-48.5991988281284, -25.98038589200693], [-48.59895443251345, -25.97954960807556], [-48.60006755008452, -25.97810702674421], [-48.59997396569453, -25.97734876800929], [-48.59941432186998, -25.97691548277754], [-48.59863536427648, -25.97661080984782], [-48.59771791786922, -25.97651664165648], [-48.59682992526641, -25.97684140751669], [-48.59625598506188, -25.9774938874671]]]}}, {"type": "Feature", "properties": {"cod_imovel": "SC-4208450-E4E05D1496574D1287B738E1DD084C38", "municipio": "Itapoa", "num_area": 225.9449, "mod_fiscal": 18.8287, "des_condic": "Aguardando analise", "ind_status": "AT", "dat_atuali": "23/04/2021"}, "geometry": {"type": "Polygon", "coordinates": [[[-48.63805349186777, -25.99634439006326], [-48.63792835106312, -26.02109755145844], [-48.64487382541054, -26.01475555211095], [-48.64524112146503, -26.01423374938624], [-48.64921442939525, -26.00265790925334], [-48.64944379117386, -25.99749419895036], [-48.6488950092285, -25.99639124570901], [-48.63805349186777, -25.99634439006326]]]}}, {"type": "Feature", "properties": {"cod_imovel": "SC-4208450-D2B50804CF9D4C7688F970278263EDBD", "municipio": "Itapoa", "num_area": 181.6988, "mod_fiscal": 15.1382, "des_condic": "Aguardando analise", "ind_status": "AT", "dat_atuali": "23/06/2016"}, "geometry": {"type": "Polygon", "coordinates": [[[-48.66246407145799, -25.97397901958837], [-48.66204118342058, -25.971687871384567], [-48.66242976700524, -25.9692600531469], [-48.6623529561123, -25.96873585502956], [-48.66196843000798, -25.968543382659426], [-48.66085267421744, -25.968722211877058], [-48.65863678652589, -25.967695974240677], [-48.65799249861568, -25.967548240221845], [-48.65164181264251, -25.996774504463634], [-48.65734037927816, -25.997288988144504], [-48.66246407145799, -25.97397901958837]]]}}, {"type": "Feature", "properties": {"cod_imovel": "SC-4208450-B18739D0FB5949238955997B4F9A4E77", "municipio": "Itapoa", "num_area": 0.5101, "mod_fiscal": 0.0425, "des_condic": "Aguardando analise", "ind_status": "AT", "dat_atuali": "26/01/2025"}, "geometry": {"type": "Polygon", "coordinates": [[[-48.66931969059158, -25.98488418409784], [-48.66971156424266, -25.98427681525912], [-48.66871950294058, -25.9833228397719], [-48.66873814195223, -25.98338627409424], [-48.66931969059158, -25.98488418409784]]]}}, {"type": "Feature", "properties": {"cod_imovel": "SC-4208450-D6D15863F07E430594B8A26E2EABE7BE", "municipio": "Itapoa", "num_area": 144.3109, "mod_fiscal": 12.0259, "des_condic": "Aguardando analise", "ind_status": "AT", "dat_atuali": "14/01/2025"}, "geometry": {"type": "Polygon", "coordinates": [[[-48.6803566562182, -25.9810460828245], [-48.6785325168584, -26.0155708673798], [-48.6825658108301, -26.0184158454144], [-48.6840525215744, -25.9903663578284], [-48.6835453102105, -25.98989306892], [-48.682844309746, -25.9886287647165], [-48.6817097018891, -25.9847199546982], [-48.6812450477649, -25.9818715226344], [-48.6803566562182, -25.9810460828245]]]}}, {"type": "Feature", "properties": {"cod_imovel": "SC-4208450-F48B81FD84ED4DE5A00783DA19CEED1F", "municipio": "Itapoa", "num_area": 6.3101, "mod_fiscal": 0.5258, "des_condic": "Aguardando analise", "ind_status": "AT", "dat_atuali": "12/11/2024"}, "geometry": {"type": "Polygon", "coordinates": [[[-48.6813140972222, -25.9822226825845], [-48.6812427222222, -25.9816246964734], [-48.6722141305556, -25.9872618436955], [-48.6726073777778, -25.9876588686955], [-48.6813140972222, -25.9822226825845]]]}}, {"type": "Feature", "properties": {"cod_imovel": "SC-4208450-D30A211A555F4797A1E9406581CA883A", "municipio": "Itapoa", "num_area": 144.3109, "mod_fiscal": 12.0259, "des_condic": "Aguardando analise", "ind_status": "AT", "dat_atuali": "06/12/2023"}, "geometry": {"type": "Polygon", "coordinates": [[[-48.68035665621819, -25.981046082824466], [-48.67853251685839, -26.015570867379815], [-48.682565810830056, -26.01841584541441], [-48.684052521574415, -25.990366357828417], [-48.68354531021046, -25.989893068919987], [-48.68284430974602, -25.988628764716477], [-48.68170970188914, -25.98471995469825], [-48.68124504776491, -25.981871522634446], [-48.68035665621819, -25.981046082824466]]]}}, {"type": "Feature", "properties": {"cod_imovel": "SC-4208450-3BB2452DF78740EF8D0F4E4802C677F4", "municipio": "Itapoa", "num_area": 18.7478, "mod_fiscal": 1.5623, "des_condic": "Aguardando analise", "ind_status": "AT", "dat_atuali": "07/08/2024"}, "geometry": {"type": "Polygon", "coordinates": [[[-48.67362971054902, -25.99811965548783], [-48.67409710487155, -25.99528467935674], [-48.67020664102419, -25.99641988783612], [-48.66639055491138, -25.99635308612595], [-48.66626294298644, -25.99867424785487], [-48.67362971054902, -25.99811965548783]]]}}, {"type": "Feature", "properties": {"cod_imovel": "SC-4208450-885A6B1890EC4997AD21554EF0CF8DA5", "municipio": "Itapoa", "num_area": 3.4962, "mod_fiscal": 0.2913, "des_condic": "Aguardando analise", "ind_status": "AT", "dat_atuali": "21/07/2024"}, "geometry": {"type": "Polygon", "coordinates": [[[-48.66050552265726, -25.97559283321998], [-48.66092721012307, -25.97584581714393], [-48.66242269865589, -25.969200008501], [-48.66236310751496, -25.96881354021839], [-48.66209281796156, -25.96860200242072], [-48.66050552265726, -25.97559283321998]]]}}, {"type": "Feature", "properties": {"cod_imovel": "SC-4208450-AB3D71E22DFB43B4BF13CE792B6C310A", "municipio": "Itapoa", "num_area": 3.0849, "mod_fiscal": 0.2571, "des_condic": "Aguardando analise", "ind_status": "AT", "dat_atuali": "02/07/2024"}, "geometry": {"type": "Polygon", "coordinates": [[[-48.65832621606528, -25.96758882034199], [-48.65798066172042, -25.96738362244522], [-48.65640041048059, -25.97466898115223], [-48.65684467098841, -25.97444610990564], [-48.65832621606528, -25.96758882034199]]]}}, {"type": "Feature", "properties": {"cod_imovel": "SC-4208450-6F69B6E4D1E645B0BCAFA668FA5D8868", "municipio": "Itapoa", "num_area": 3.2284, "mod_fiscal": 0.269, "des_condic": "Aguardando analise", "ind_status": "AT", "dat_atuali": "23/06/2024"}, "geometry": {"type": "Polygon", "coordinates": [[[-48.6736319972222, -25.9895318159177], [-48.6692898111111, -25.9919348409177], [-48.6692858527778, -25.9925664881399], [-48.6728738333333, -25.9907651909177], [-48.6736319972222, -25.9895318159177]]]}}, {"type": "Feature", "properties": {"cod_imovel": "SC-4208450-6AC722CF6CD04A68AA3B6739A6F46DD0", "municipio": "Itapoa", "num_area": 1.3692, "mod_fiscal": 0.1141, "des_condic": "Aguardando analise", "ind_status": "AT", "dat_atuali": "18/06/2024"}, "geometry": {"type": "Polygon", "coordinates": [[[-48.6740161305556, -25.9953489964732], [-48.6711520833333, -25.9961450075843], [-48.6710906888889, -25.996592835362], [-48.6739547472222, -25.9957968186954], [-48.6740161305556, -25.9953489964732]]]}}, {"type": "Feature", "properties": {"cod_imovel": "SC-4208450-3BB2660710B54E8AAF3C47883F111C1F", "municipio": "Itapoa", "num_area": 1.3692, "mod_fiscal": 0.1141, "des_condic": "Aguardando analise", "ind_status": "AT", "dat_atuali": "18/06/2024"}, "geometry": {"type": "Polygon", "coordinates": [[[-48.6739547472222, -25.9957968186954], [-48.6710906888889, -25.996592835362], [-48.6710292944444, -25.997040660362], [-48.6738933555556, -25.9962446464731], [-48.6739547472222, -25.9957968186954]]]}}, {"type": "Feature", "properties": {"cod_imovel": "SC-4208450-BC0F61A15BBF433B8B185C5D6E065157", "municipio": "Itapoa", "num_area": 8.955, "mod_fiscal": 0.746, "des_condic": "Aguardando analise", "ind_status": "AT", "dat_atuali": "24/04/2024"}, "geometry": {"type": "Polygon", "coordinates": [[[-48.68006590775812, -25.98083388420229], [-48.67936634463378, -25.98036747643528], [-48.67125110495231, -25.98628082350106], [-48.671344330148, -25.98644437382757], [-48.67170636554236, -25.98693342196029], [-48.68006590775812, -25.98083388420229]]]}}, {"type": "Feature", "properties": {"cod_imovel": "SC-4208450-7C9E001079D148B89F33D839D2F737C7", "municipio": "Itapoa", "num_area": 0.7549, "mod_fiscal": 0.0629, "des_condic": "Aguardando analise", "ind_status": "AT", "dat_atuali": "08/03/2024"}, "geometry": {"type": "Polygon", "coordinates": [[[-48.669326305389404, -25.993152531205578], [-48.67325862569957, -25.99129820046066], [-48.67316486951022, -25.99117610951977], [-48.66924047470093, -25.99301269927052], [-48.669326305389404, -25.993152531205578]]]}}, {"type": "Feature", "properties": {"cod_imovel": "SC-4208450-D029D0884CE64982A2A57FD0016C17BC", "municipio": "Itapoa", "num_area": 1.7241, "mod_fiscal": 0.1437, "des_condic": "Aguardando analise", "ind_status": "AT", "dat_atuali": "05/02/2024"}, "geometry": {"type": "Polygon", "coordinates": [[[-48.67638356144987, -25.9935869892389], [-48.67418870445327, -25.99409582546225], [-48.67442910445912, -25.99522425826502], [-48.67516564659084, -25.99486681468285], [-48.67638356144987, -25.9935869892389]]]}}, {"type": "Feature", "properties": {"cod_imovel": "SC-4208450-B7E01021C5F24F2F86D2ABEB65F30845", "municipio": "Itapoa", "num_area": 3.213, "mod_fiscal": 0.2678, "des_condic": "Aguardando analise", "ind_status": "AT", "dat_atuali": "17/12/2023"}, "geometry": {"type": "Polygon", "coordinates": [[[-48.6739034888889, -25.992344824251], [-48.6740028361111, -25.993574174251], [-48.6765362916667, -25.9935358770288], [-48.6770074166667, -25.9937030770287], [-48.6784188416667, -25.9935091798065], [-48.6739034888889, -25.992344824251]]]}}, {"type": "Feature", "properties": {"cod_imovel": "SC-4208450-3C6287B64A8C41269383E6FF64EDF21B", "municipio": "Itapoa", "num_area": 1.4, "mod_fiscal": 0.1167, "des_condic": "Aguardando analise", "ind_status": "AT", "dat_atuali": "28/11/2023"}, "geometry": {"type": "Polygon", "coordinates": [[[-48.6753229916667, -25.9992155714731], [-48.6724723805556, -25.999485185362], [-48.6724699472222, -25.9999844325842], [-48.6742699666667, -25.9998141909175], [-48.6742491833333, -25.9996346964731], [-48.6755204527778, -25.9995144492509], [-48.6753229916667, -25.9992155714731]]]}}, {"type": "Feature", "properties": {"cod_imovel": "SC-4208450-8F52EB66D31C4BAAAF217A3276FB232C", "municipio": "Itapoa", "num_area": 2.0082, "mod_fiscal": 0.1673, "des_condic": "Aguardando analise", "ind_status": "AT", "dat_atuali": "06/11/2021"}, "geometry": {"type": "Polygon", "coordinates": [[[-48.6738777111111, -25.993500924251], [-48.6692275583333, -25.9951215492509], [-48.6692222138889, -25.9954211020287], [-48.6739639388889, -25.9939453353621], [-48.6738777111111, -25.993500924251]]]}}, {"type": "Feature", "properties": {"cod_imovel": "SC-4208450-32E4441A90F24E568432629127C82AE9", "municipio": "Itapoa", "num_area": 2.0085, "mod_fiscal": 0.1674, "des_condic": "Aguardando analise", "ind_status": "AT", "dat_atuali": "06/11/2021"}, "geometry": {"type": "Polygon", "coordinates": [[[-48.6737978, -25.9930557770288], [-48.6692331583333, -25.9948075631398], [-48.6692275583333, -25.9951215492509], [-48.6738777111111, -25.993500924251], [-48.6737978, -25.9930557770288]]]}}, {"type": "Feature", "properties": {"cod_imovel": "SC-4208450-3E070BE5BE674C168D23ABE003D23E8F", "municipio": "Itapoa", "num_area": 17.6953, "mod_fiscal": 1.4746, "des_condic": "Aguardando analise", "ind_status": "AT", "dat_atuali": "15/05/2021"}, "geometry": {"type": "Polygon", "coordinates": [[[-48.67368314685842, -25.991823446597387], [-48.68253620678095, -25.9927748680888], [-48.68431566987562, -25.991431678667578], [-48.68447984816728, -25.99073082302083], [-48.68401328148587, -25.990319953302606], [-48.67343666804832, -25.99130675902871], [-48.67368314685842, -25.991823446597387]]]}}, {"type": "Feature", "properties": {"cod_imovel": "SC-4208450-24FD9F10176F4FF99447A449261DB669", "municipio": "Itapoa", "num_area": 4.8059, "mod_fiscal": 0.4005, "des_condic": "Aguardando analise", "ind_status": "AT", "dat_atuali": "04/08/2023"}, "geometry": {"type": "Polygon", "coordinates": [[[-48.6708268194763, -25.98547747597722], [-48.67852801438451, -25.97986658227776], [-48.67813773387505, -25.97961236107863], [-48.67053043498264, -25.98509808827942], [-48.6708268194763, -25.98547747597722]]]}}, {"type": "Feature", "properties": {"cod_imovel": "SC-4208450-62FDE0340F444868957DC30F5CAC2B82", "municipio": "Itapoa", "num_area": 2.5801, "mod_fiscal": 0.215, "des_condic": "Aguardando analise", "ind_status": "AT", "dat_atuali": "12/10/2023"}, "geometry": {"type": "Polygon", "coordinates": [[[-48.6732392611111, -25.9904034464733], [-48.6730201888889, -25.9906174548066], [-48.6834505138889, -25.9896943353622], [-48.6833468638889, -25.9894770881399], [-48.6732392611111, -25.9904034464733]]]}}, {"type": "Feature", "properties": {"cod_imovel": "SC-4208450-EBE0413F9F1243FD846BBA57B763E130", "municipio": "Itapoa", "num_area": 0.47, "mod_fiscal": 0.0392, "des_condic": "Aguardando analise", "ind_status": "AT", "dat_atuali": "25/09/2023"}, "geometry": {"type": "Polygon", "coordinates": [[[-48.669267775, -25.9954448770287], [-48.6682697638889, -25.995763260362], [-48.6682697111111, -25.9961921992509], [-48.6692642, -25.9958672631398], [-48.669267775, -25.9954448770287]]]}}, {"type": "Feature", "properties": {"cod_imovel": "SC-4208450-631007D4AA9E4B6F98B92FC708F33001", "municipio": "Itapoa", "num_area": 3.0281, "mod_fiscal": 0.2523, "des_condic": "Aguardando analise", "ind_status": "AT", "dat_atuali": "29/08/2023"}, "geometry": {"type": "Polygon", "coordinates": [[[-48.66074104829101, -25.96870166193977], [-48.66029888538082, -25.96859179996123], [-48.65899398550267, -25.97445265433277], [-48.65939351987154, -25.97469486543575], [-48.66074104829101, -25.96870166193977]]]}}, {"type": "Feature", "properties": {"cod_imovel": "SC-4208450-641B02A7C25E46F4B53BF78850B6C8C7", "municipio": "Itapoa", "num_area": 14.0121, "mod_fiscal": 1.1677, "des_condic": "Aguardando analise", "ind_status": "AT", "dat_atuali": "22/08/2023"}, "geometry": {"type": "Polygon", "coordinates": [[[-48.6692680138889, -25.9954160909176], [-48.6692929527778, -25.991432499251], [-48.6664746305556, -25.9915101825843], [-48.6663442527778, -25.9963487936954], [-48.6692680138889, -25.9954160909176]]]}}, {"type": "Feature", "properties": {"cod_imovel": "SC-4208450-9BE5D492039345DD863566EEFE4CF207", "municipio": "Itapoa", "num_area": 4.9783, "mod_fiscal": 0.4145, "des_condic": "Aguardando analise", "ind_status": "AT", "dat_atuali": "06/08/2023"}, "geometry": {"type": "Polygon", "coordinates": [[[-48.679046630859375, -25.980079936973276], [-48.67085516452789, -25.986155908557517], [-48.671085834503174, -25.986483809203754], [-48.67944359779358, -25.980374098386378], [-48.679046630859375, -25.980079936973276]]]}}, {"type": "Feature", "properties": {"cod_imovel": "SC-4208450-434DA3DF02CE4A9293D62069A4D06276", "municipio": "Itapoa", "num_area": 4.9968, "mod_fiscal": 0.4163, "des_condic": "Aguardando analise", "ind_status": "AT", "dat_atuali": "04/08/2023"}, "geometry": {"type": "Polygon", "coordinates": [[[-48.67862718353427, -25.97978502632858], [-48.67069932071136, -25.98557313921724], [-48.67089573505739, -25.98598737324154], [-48.67904247064426, -25.9800446175418], [-48.67862718353427, -25.97978502632858]]]}}, {"type": "Feature", "properties": {"cod_imovel": "SC-4208450-79915B3B368442F38E0BE34A1639077A", "municipio": "Itapoa", "num_area": 25.3834, "mod_fiscal": 2.1153, "des_condic": "Aguardando analise", "ind_status": "AT", "dat_atuali": "04/05/2016"}, "geometry": {"type": "Polygon", "coordinates": [[[-48.66233237595814, -25.973901128905467], [-48.661606662194856, -25.977346267909486], [-48.662405439264376, -25.977403610795918], [-48.6614705386321, -25.989897926186934], [-48.66317602380389, -25.989933396955266], [-48.66365707951053, -25.97510269749999], [-48.66289179030548, -25.974714957187036], [-48.66233237595814, -25.973901128905467]]]}}, {"type": "Feature", "properties": {"cod_imovel": "SC-4208450-E06BEEB562B44E2BA608E1869AD35C81", "municipio": "Itapoa", "num_area": 4.2017, "mod_fiscal": 0.3501, "des_condic": "Aguardando analise", "ind_status": "AT", "dat_atuali": "30/05/2022"}, "geometry": {"type": "Polygon", "coordinates": [[[-48.6813140972222, -25.9822226825845], [-48.6722851916667, -25.98786171314], [-48.6725861611111, -25.9880989853622], [-48.6813616944444, -25.9826182048068], [-48.6813140972222, -25.9822226825845]]]}}, {"type": "Feature", "properties": {"cod_imovel": "SC-4208450-316BA187ACEB4568A922DF1A5B3C45BE", "municipio": "Itapoa", "num_area": 25.0896, "mod_fiscal": 2.0908, "des_condic": "Aguardando analise", "ind_status": "AT", "dat_atuali": "04/05/2016"}, "geometry": {"type": "Polygon", "coordinates": [[[-48.66653071483739, -25.98999221771475], [-48.6665429432955, -25.97656931588256], [-48.66582755190221, -25.9759500735323], [-48.6650600909899, -25.97565244647744], [-48.66485465196805, -25.98996549912847], [-48.66653071483739, -25.98999221771475]]]}}, {"type": "Feature", "properties": {"cod_imovel": "SC-4208450-3802FA68C8B3420795609C1655C15598", "municipio": "Itapoa", "num_area": 24.9367, "mod_fiscal": 2.0781, "des_condic": "Aguardando analise", "ind_status": "AT", "dat_atuali": "04/05/2016"}, "geometry": {"type": "Polygon", "coordinates": [[[-48.6636571189026, -25.975102725211947], [-48.66317607318353, -25.989933424828987], [-48.66485312683836, -25.989967026434517], [-48.66504952551936, -25.97564797745848], [-48.6636571189026, -25.975102725211947]]]}}, {"type": "Feature", "properties": {"cod_imovel": "SC-4208450-13E733575208435BB909EDAC57643A35", "municipio": "Itapoa", "num_area": 1.8271, "mod_fiscal": 0.1523, "des_condic": "Aguardando analise", "ind_status": "AT", "dat_atuali": "22/02/2023"}, "geometry": {"type": "Polygon", "coordinates": [[[-48.6738368277778, -25.992130449251], [-48.6739034888889, -25.992344824251], [-48.6784188416667, -25.9935091798065], [-48.6794477527778, -25.9935807686954], [-48.6797693777778, -25.9934300548065], [-48.6738368277778, -25.992130449251]]]}}, {"type": "Feature", "properties": {"cod_imovel": "SC-4208450-5257C2F07EE648E88C658802B61631ED", "municipio": "Itapoa", "num_area": 5.033, "mod_fiscal": 0.4194, "des_condic": "Aguardando analise", "ind_status": "AT", "dat_atuali": "13/06/2019"}, "geometry": {"type": "Polygon", "coordinates": [[[-48.67415821866588, -25.9819061914332], [-48.67010143990432, -25.98456511731358], [-48.67068892856406, -25.98529192719897], [-48.67475171281338, -25.98264094362605], [-48.67415821866588, -25.9819061914332]]]}}, {"type": "Feature", "properties": {"cod_imovel": "SC-4208450-EE0A848E24894E1BAB395EB035C9153C", "municipio": "Itapoa", "num_area": 41.3451, "mod_fiscal": 3.4454, "des_condic": "Aguardando analise", "ind_status": "AT", "dat_atuali": "04/02/2020"}, "geometry": {"type": "Polygon", "coordinates": [[[-48.64510431880221, -25.989913739936547], [-48.64960254415379, -25.99639042658889], [-48.65280806806066, -25.996392761655606], [-48.653455554929984, -25.98995242149437], [-48.64510431880221, -25.989913739936547]]]}}, {"type": "Feature", "properties": {"cod_imovel": "SC-4208450-C311C02880B54111BE86418C74BB7DDC", "municipio": "Itapoa", "num_area": 48.9267, "mod_fiscal": 4.0772, "des_condic": "Aguardando analise", "ind_status": "AT", "dat_atuali": "04/02/2020"}, "geometry": {"type": "Polygon", "coordinates": [[[-48.65981196112437, -25.989983401199662], [-48.65927734929301, -25.996399117683996], [-48.666342677403065, -25.996403669520607], [-48.66651485299585, -25.990013808823466], [-48.65981196112437, -25.989983401199662]]]}}, {"type": "Feature", "properties": {"cod_imovel": "SC-4208450-7D5072CDC8D64145981CA672967A27B6", "municipio": "Itapoa", "num_area": 6.4006, "mod_fiscal": 0.5334, "des_condic": "Aguardando analise", "ind_status": "AT", "dat_atuali": "08/01/2020"}, "geometry": {"type": "Polygon", "coordinates": [[[-48.67362860237161, -25.98957228965859], [-48.673357386407275, -25.98895662454094], [-48.672743991903054, -25.988619050489554], [-48.668318653090296, -25.989322444595903], [-48.66874282375518, -25.990537322555888], [-48.67362860237161, -25.98957228965859]]]}}, {"type": "Feature", "properties": {"cod_imovel": "SC-4208450-9EF136E2EEE145B2B15EA7FEB3983E4E", "municipio": "Itapoa", "num_area": 1.7175, "mod_fiscal": 0.1363, "des_condic": "Aguardando analise", "ind_status": "AT", "dat_atuali": "28/10/2025"}, "geometry": {"type": "Polygon", "coordinates": [[[-48.67256310027036, -25.978178643693376], [-48.67140621041607, -25.978776679737322], [-48.6696733652446, -25.980593862939784], [-48.66946900156775, -25.98064021061167], [-48.66879616176527, -25.98151575214216], [-48.66876861573739, -25.981882947662925], [-48.67256310027036, -25.978178643693376]]]}}, {"type": "Feature", "properties": {"cod_imovel": "SC-4208450-091F51C8DA344FA4B6473EEDA3068447", "municipio": "Itapoa", "num_area": 72.5454, "mod_fiscal": 6.0454, "des_condic": "Aguardando analise", "ind_status": "AT", "dat_atuali": "02/08/2025"}, "geometry": {"type": "Polygon", "coordinates": [[[-48.69420280859528, -26.02141394348319], [-48.696913554685814, -26.02132545841937], [-48.69627832835583, -26.00529052531583], [-48.69603280026279, -25.99915196147548], [-48.69519467923327, -25.999109846135738], [-48.69503878667872, -25.99878386186983], [-48.69509560850297, -25.997730594431612], [-48.69469697710447, -25.996968295978363], [-48.69407834500095, -25.996199915442045], [-48.69317008859597, -25.995579378620487], [-48.69420280859528, -26.02141394348319]]]}}, {"type": "Feature", "properties": {"cod_imovel": "SC-4208450-02D06E0CA39E48B0B827CA2E2E806D7F", "municipio": "Itapoa", "num_area": 363.9527, "mod_fiscal": 30.3294, "des_condic": "Aguardando analise", "ind_status": "AT", "dat_atuali": "11/07/2025"}, "geometry": {"type": "Polygon", "coordinates": [[[-48.6840524996813, -25.990366389875994], [-48.682374169679214, -26.021864439875245], [-48.69707082969324, -26.02528443987552], [-48.69691971969314, -26.021325279875615], [-48.694202779690585, -26.021413889875543], [-48.69316999968997, -25.995579439876106], [-48.6878230596849, -25.993056669876033], [-48.686008059683175, -25.991451109876028], [-48.6840524996813, -25.990366389875994]]]}}, {"type": "Feature", "properties": {"cod_imovel": "SC-4208450-0870D1DF27FF4F5DA5BFEDE80052378A", "municipio": "Itapoa", "num_area": 952.8772, "mod_fiscal": 79.4064, "des_condic": "Aguardando analise", "ind_status": "AT", "dat_atuali": "23/04/2021"}, "geometry": {"type": "Polygon", "coordinates": [[[-48.64531253635009, -26.0151245192009], [-48.63792445520193, -26.02187057633294], [-48.6378654337579, -26.03549106653958], [-48.66495331322272, -26.03524578396316], [-48.6663427244638, -25.99640382773952], [-48.64960144597318, -25.99639244439945], [-48.65004326816332, -25.99749076855334], [-48.64979834383735, -26.00278030948148], [-48.64589419312963, -26.01420161170872], [-48.64531253635009, -26.0151245192009]]]}}, {"type": "Feature", "properties": {"cod_imovel": "SC-4208450-32F8F916B039437493D8D0B03E84B089", "municipio": "Itapoa", "num_area": 6.3914, "mod_fiscal": 0.5326, "des_condic": "Aguardando analise", "ind_status": "AT", "dat_atuali": "25/08/2022"}, "geometry": {"type": "Polygon", "coordinates": [[[-48.67274880505688, -25.98864523066995], [-48.66880866226549, -25.99026090217481], [-48.66953358314976, -25.99145179400464], [-48.67367210708944, -25.98950288889249], [-48.67333021490886, -25.98890283552259], [-48.67274880505688, -25.98864523066995]]]}}, {"type": "Feature", "properties": {"cod_imovel": "SC-4208450-4DA6D8C701674BDE9C51BB9FA60FCE19", "municipio": "Itapoa", "num_area": 0.5598, "mod_fiscal": 0.0466, "des_condic": "Aguardando analise", "ind_status": "AT", "dat_atuali": "25/08/2022"}, "geometry": {"type": "Polygon", "coordinates": [[[-48.67001779210495, -25.98309120004543], [-48.66967656911824, -25.98290433388214], [-48.66876524429944, -25.98294247605991], [-48.66911156068109, -25.98359932143379], [-48.67001779210495, -25.98309120004543]]]}}, {"type": "Feature", "properties": {"cod_imovel": "SC-4208450-A4EE3CA7FC754AED88BFC622C8AD1DEC", "municipio": "Itapoa", "num_area": 1.0907, "mod_fiscal": 0.0909, "des_condic": "Aguardando analise", "ind_status": "AT", "dat_atuali": "26/07/2022"}, "geometry": {"type": "Polygon", "coordinates": [[[-48.66777442693474, -25.98114711208901], [-48.66870921819972, -25.98208303167992], [-48.66880481426026, -25.98109755640882], [-48.66808999158867, -25.98023425302709], [-48.66777442693474, -25.98114711208901]]]}}, {"type": "Feature", "properties": {"cod_imovel": "SC-4208450-C339A562193C4557BE8FCD9AB29A196E", "municipio": "Itapoa", "num_area": 594.8617, "mod_fiscal": 49.5718, "des_condic": "Aguardando analise", "ind_status": "AT", "dat_atuali": "21/09/2022"}, "geometry": {"type": "Polygon", "coordinates": [[[-48.65872168494736, -25.97785556951722], [-48.60496462942713, -25.98528796072081], [-48.60595846559599, -25.98762198660843], [-48.60725858974271, -25.99256474170973], [-48.61001084413512, -26.00018457994786], [-48.61197430671606, -26.00310700059354], [-48.61649399524593, -26.00257300580117], [-48.61640792166327, -25.99684535230615], [-48.61482054100433, -25.9910519320499], [-48.64411434704144, -25.98921288639785], [-48.64307897131972, -25.98777938414862], [-48.66551376882265, -25.98657632188583], [-48.65872168494736, -25.97785556951722]]]}}, {"type": "Feature", "properties": {"cod_imovel": "SC-4208450-42251F88441B40C7A0329E407402E614", "municipio": "Itapoa", "num_area": 8.737, "mod_fiscal": 0.7281, "des_condic": "Aguardando analise", "ind_status": "AT", "dat_atuali": "15/04/2021"}, "geometry": {"type": "Polygon", "coordinates": [[[-48.66977553078862, -25.984279154514084], [-48.669373298457195, -25.98480361365555], [-48.66937372165573, -25.989286487474626], [-48.67219622216867, -25.987864315273335], [-48.6707169257226, -25.98547261176563], [-48.66977553078862, -25.984279154514084]]]}}, {"type": "Feature", "properties": {"cod_imovel": "SC-4208450-75849737CC6443929382EEF0F7EEA44D", "municipio": "Itapoa", "num_area": 4.752, "mod_fiscal": 0.396, "des_condic": "Aguardando analise", "ind_status": "AT", "dat_atuali": "30/03/2022"}, "geometry": {"type": "Polygon", "coordinates": [[[-48.6736037055556, -25.9890906936955], [-48.68210872500001, -25.9855643853622], [-48.6820146861111, -25.98510696314], [-48.6732699305556, -25.9887326686955], [-48.6736037055556, -25.9890906936955]]]}}, {"type": "Feature", "properties": {"cod_imovel": "SC-4208450-F1637E230BD84E1B819B00C1CD5ADF35", "municipio": "Itapoa", "num_area": 5.5712, "mod_fiscal": 0.4643, "des_condic": "Aguardando analise", "ind_status": "AT", "dat_atuali": "05/01/2023"}, "geometry": {"type": "Polygon", "coordinates": [[[-48.67519345, -25.9948294881398], [-48.6744021166667, -25.9952633381398], [-48.6754456666667, -25.9977363742509], [-48.6760960388889, -25.9973065131398], [-48.6762623194444, -25.9969909936953], [-48.6765826527778, -25.9968771075842], [-48.6768192666667, -25.9970225436953], [-48.6777174833333, -25.9964739798065], [-48.67723355, -25.9960491659176], [-48.67722845, -25.9955788770287], [-48.6764836166667, -25.9955504186954], [-48.6762225888889, -25.9952436686954], [-48.67583975, -25.9951588131398], [-48.6758115777778, -25.9948060964732], [-48.67519345, -25.9948294881398]]]}}, {"type": "Feature", "properties": {"cod_imovel": "SC-4208450-27AF4A50649E418B80DFF583C5FD6C10", "municipio": "Itapoa", "num_area": 1.2, "mod_fiscal": 0.1, "des_condic": "Aguardando analise", "ind_status": "AT", "dat_atuali": "04/01/2023"}, "geometry": {"type": "Polygon", "coordinates": [[[-48.6754815138889, -25.9996995992508], [-48.6724699472222, -25.9999844409175], [-48.6724555444444, -26.0003487298064], [-48.6754027638889, -26.0000699742508], [-48.6754815138889, -25.9996995992508]]]}}, {"type": "Feature", "properties": {"cod_imovel": "SC-4208450-A1EFCCD5F5564CB1BD9E8E2CB8EF3EFD", "municipio": "Itapoa", "num_area": 0.5, "mod_fiscal": 0.0417, "des_condic": "Aguardando analise", "ind_status": "AT", "dat_atuali": "04/01/2023"}, "geometry": {"type": "Polygon", "coordinates": [[[-48.6765388166667, -25.9981830714731], [-48.6754269527778, -25.9991666742509], [-48.67559195, -25.9995657520286], [-48.6763748805556, -25.9989953631398], [-48.6762222888889, -25.9985848520286], [-48.6765388166667, -25.9981830714731]]]}}, {"type": "Feature", "properties": {"cod_imovel": "SC-4208450-547B7FA834F9444DB46FD6AFCF38B952", "municipio": "Itapoa", "num_area": 1.5432, "mod_fiscal": 0.1286, "des_condic": "Aguardando analise", "ind_status": "AT", "dat_atuali": "11/07/2022"}, "geometry": {"type": "Polygon", "coordinates": [[[-48.66869856370055, -25.98208105313923], [-48.66775592357356, -25.98116435632589], [-48.66736572879005, -25.98221684530623], [-48.66875578364497, -25.983214636669], [-48.66869856370055, -25.98208105313923]]]}}, {"type": "Feature", "properties": {"cod_imovel": "SC-4208450-A6223FC4B7FE49DF89C84C2E9F3D89BD", "municipio": "Itapoa", "num_area": 2.5679, "mod_fiscal": 0.214, "des_condic": "Aguardando analise", "ind_status": "AT", "dat_atuali": "31/05/2022"}, "geometry": {"type": "Polygon", "coordinates": [[[-48.6736750055556, -25.9919861575843], [-48.66924925, -25.9939052964732], [-48.6692412027778, -25.9943564298065], [-48.6737991083333, -25.9925143464732], [-48.6736750055556, -25.9919861575843]]]}}, {"type": "Feature", "properties": {"cod_imovel": "SC-4208450-993261387AB642939666AE840E030D43", "municipio": "Itapoa", "num_area": 4.5, "mod_fiscal": 0.375, "des_condic": "Aguardando analise", "ind_status": "AT", "dat_atuali": "30/05/2022"}, "geometry": {"type": "Polygon", "coordinates": [[[-48.6740962333333, -25.9944724436954], [-48.6692141666667, -25.9958722325843], [-48.6692047, -25.9964029992509], [-48.6701979805556, -25.9964073214731], [-48.6742755916667, -25.9953050575843], [-48.6740962333333, -25.9944724436954]]]}}, {"type": "Feature", "properties": {"cod_imovel": "SC-4208450-51FF3D7E57DC462DA51609EAF6754788", "municipio": "Itapoa", "num_area": 3.6829, "mod_fiscal": 0.3069, "des_condic": "Aguardando analise", "ind_status": "AT", "dat_atuali": "30/05/2022"}, "geometry": {"type": "Polygon", "coordinates": [[[-48.6820186222222, -25.9856055659178], [-48.6735862972222, -25.9890995103622], [-48.6737567444444, -25.9894258075844], [-48.6820809805556, -25.9859766742511], [-48.6820186222222, -25.9856055659178]]]}}, {"type": "Feature", "properties": {"cod_imovel": "SC-4208450-524CBC2EE9384655BA0E7DDBA77116D1", "municipio": "Itapoa", "num_area": 2.6008, "mod_fiscal": 0.2167, "des_condic": "Aguardando analise", "ind_status": "AT", "dat_atuali": "07/04/2022"}, "geometry": {"type": "Polygon", "coordinates": [[[-48.6729800055556, -25.9906538131399], [-48.6730190388889, -25.9908769770288], [-48.6833074583333, -25.9899357548066], [-48.6833622555556, -25.9897040048066], [-48.6729800055556, -25.9906538131399]]]}}, {"type": "Feature", "properties": {"cod_imovel": "SC-4208450-B26DF9E81B364587902EB831C5DF7237", "municipio": "Itapoa", "num_area": 2.0075, "mod_fiscal": 0.1673, "des_condic": "Aguardando analise", "ind_status": "AT", "dat_atuali": "01/07/2022"}, "geometry": {"type": "Polygon", "coordinates": [[[-48.6737677777778, -25.9919117214732], [-48.6738329333333, -25.9921295020288], [-48.67981605, -25.9934226825843], [-48.6800568527778, -25.9930274381399], [-48.6737677777778, -25.9919117214732]]]}}, {"type": "Feature", "properties": {"cod_imovel": "SC-4208450-5B4038428ED643BB9CAB88DFA518DD08", "municipio": "Itapoa", "num_area": 4.4665, "mod_fiscal": 0.3722, "des_condic": "Aguardando analise", "ind_status": "AT", "dat_atuali": "11/10/2022"}, "geometry": {"type": "Polygon", "coordinates": [[[-48.66902844369397, -25.99012593361042], [-48.66650299439477, -25.99155729315671], [-48.66637280100634, -25.99287152595382], [-48.66962755823256, -25.99135766509525], [-48.66902844369397, -25.99012593361042]]]}}, {"type": "Feature", "properties": {"cod_imovel": "SC-4208450-B1F7E3E4F34D4D1EA6380B8E81A2E9EC", "municipio": "Itapoa", "num_area": 3.4954, "mod_fiscal": 0.2913, "des_condic": "Aguardando analise", "ind_status": "AT", "dat_atuali": "16/09/2021"}, "geometry": {"type": "Polygon", "coordinates": [[[-48.67028789032266, -25.98474185323583], [-48.67410658345822, -25.98183325516234], [-48.67367616407556, -25.98133683158036], [-48.66986080993632, -25.98423937595211], [-48.67028789032266, -25.98474185323583]]]}}, {"type": "Feature", "properties": {"cod_imovel": "SC-4208450-7291383007D740249579CFF4F7E81D0D", "municipio": "Itapoa", "num_area": 1.7876, "mod_fiscal": 0.1462, "des_condic": "Aguardando analise", "ind_status": "AT", "dat_atuali": "28/11/2020"}, "geometry": {"type": "Polygon", "coordinates": [[[-48.66871588750119, -25.982062881155155], [-48.673541920115426, -25.97789823215829], [-48.67256310026522, -25.978178643697138], [-48.66871588750119, -25.982062881155155]]]}}, {"type": "Feature", "properties": {"cod_imovel": "SC-4208450-BB62CA5CC9004688A2747B4D8D328F0B", "municipio": "Itapoa", "num_area": 18.7852, "mod_fiscal": 1.5654, "des_condic": "Aguardando analise", "ind_status": "AT", "dat_atuali": "17/12/2020"}, "geometry": {"type": "Polygon", "coordinates": [[[-48.675335090551464, -25.977900316364636], [-48.66873934883888, -25.98235370939487], [-48.66878688699829, -25.98266717755002], [-48.67058378919378, -25.982636586814436], [-48.670769879284194, -25.98251621440946], [-48.671083515214576, -25.982739750249912], [-48.67066542846541, -25.983041200892913], [-48.670978485950656, -25.983429983833613], [-48.677487528090836, -25.97894091364701], [-48.67698408153915, -25.97824961320393], [-48.67649482762819, -25.97793750449921], [-48.675335090551464, -25.977900316364636]]]}}, {"type": "Feature", "properties": {"cod_imovel": "SC-4208450-EA850C07D5EE4865A7A7DE6088ED8CE7", "municipio": "Itapoa", "num_area": 2.3951, "mod_fiscal": 0.1995, "des_condic": "Aguardando analise", "ind_status": "AT", "dat_atuali": "10/11/2020"}, "geometry": {"type": "Polygon", "coordinates": [[[-48.67354191944459, -25.97789823243612], [-48.66871594747557, -25.982062329782956], [-48.668698501393834, -25.98221560024074], [-48.674412233714804, -25.977877496137648], [-48.67354191944459, -25.97789823243612]]]}}, {"type": "Feature", "properties": {"cod_imovel": "SC-4208450-F430D3974EC945418FDC4CE3B1D148D8", "municipio": "Itapoa", "num_area": 2.8374, "mod_fiscal": 0.2365, "des_condic": "Aguardando analise", "ind_status": "AT", "dat_atuali": "29/11/2021"}, "geometry": {"type": "Polygon", "coordinates": [[[-48.668704716287, -25.982364455053], [-48.676172973626, -25.977838258014], [-48.67522488446, -25.977862020665], [-48.668730454212, -25.982194680878], [-48.668704716287, -25.982364455053]]]}}, {"type": "Feature", "properties": {"cod_imovel": "SC-4208450-FD106DD3FA89432BBFB3740DCC2390C0", "municipio": "Itapoa", "num_area": 19.1698, "mod_fiscal": 1.5975, "des_condic": "Aguardando analise", "ind_status": "AT", "dat_atuali": "15/12/2017"}, "geometry": {"type": "Polygon", "coordinates": [[[-48.66112536579096, -25.97685532294306], [-48.659665038006864, -25.985359810037192], [-48.659287093775205, -25.989369893971286], [-48.660971973563925, -25.989406771550556], [-48.66192405849532, -25.97691356930794], [-48.66112536579096, -25.97685532294306]]]}}]}