{"type": "FeatureCollection", "features": [{"type": "Feature", "properties": {"cod_imovel": "SC-4203303-186C6534418D4C18B260107E1A197A0C", "municipio": "Campo Alegre", "num_area": 31.0, "mod_fiscal": 1.9374, "des_condic": "Aguardando analise", "ind_status": "AT", "dat_atuali": "19/06/2024"}, "geometry": {"type": "Polygon", "coordinates": [[[-49.1196499944444, -26.0018472936952], [-49.1175431972222, -26.0043565436952], [-49.1177430194444, -26.0054893686952], [-49.1196492, -26.0064682770285], [-49.1214817388889, -26.0043231520285], [-49.1229118444444, -26.0048741409174], [-49.1249964305556, -26.001224146473], [-49.1242030111111, -26.0006256381397], [-49.1235309555556, -25.9993659381397], [-49.1231346916667, -25.9995171131397], [-49.1228280222222, -25.9980099881398], [-49.1224034361111, -25.9980044742509], [-49.1223632777778, -25.9983024798064], [-49.1219292, -25.9985377881398], [-49.1218447472222, -25.9989728159175], [-49.1213060138889, -25.999024110362], [-49.121769525, -25.9993808159175], [-49.1217998138889, -26.0001817575842], [-49.1211296444444, -26.0005988186953], [-49.1211482166667, -26.0010537436953], [-49.1209596222222, -26.0012766825841], [-49.1202338416667, -26.0013963242508], [-49.12010935, -26.0016473020286], [-49.1196499944444, -26.0018472936952]]]}}, {"type": "Feature", "properties": {"cod_imovel": "SC-4203303-0BB4A87CAFD3410BA4AEC8233C6DE0AB", "municipio": "Campo Alegre", "num_area": 27.7189, "mod_fiscal": 1.7324, "des_condic": "Aguardando analise", "ind_status": "AT", "dat_atuali": "24/05/2022"}, "geometry": {"type": "Polygon", "coordinates": [[[-49.1053309777778, -26.0038293520285], [-49.1101325555556, -26.0069922603618], [-49.1102420222222, -26.0062297436952], [-49.1120855527778, -26.0068614270285], [-49.11280055555559, -26.0062829381396], [-49.11325206944441, -26.0057398214729], [-49.1131995805556, -26.005505071473], [-49.1133976777778, -26.0054295742507], [-49.1134082666667, -26.0049045325841], [-49.1130988027778, -26.0048854186952], [-49.11301756944441, -26.0046429798063], [-49.1126186805556, -26.0051189936952], [-49.1121163694444, -26.00497838536189], [-49.11182379166671, -26.004640571473], [-49.1117558694444, -26.0040782159174], [-49.1112960583333, -26.004322071473], [-49.111087075, -26.0043352298063], [-49.1107971138889, -26.0040713770285], [-49.1100903472222, -26.0043352909174], [-49.1097980944444, -26.0042708992508], [-49.1096921027778, -26.0038283742508], [-49.1098212055556, -26.0031955659174], [-49.1088635111111, -26.0026178742508], [-49.10741489444441, -26.0006611325842], [-49.1071805083333, -26.0000099381397], [-49.1073425166667, -25.9989512298064], [-49.10719049722219, -25.998844710362], [-49.1069373916667, -25.9989436686953], [-49.10650048888889, -25.9996846464731], [-49.10530681944441, -26.000842671473], [-49.1059053694444, -26.003114346473], [-49.1053309777778, -26.0038293520285]]]}}, {"type": "Feature", "properties": {"cod_imovel": "SC-4205803-60CAA9B6E849410D8D25BBABDB3C923C", "municipio": "Garuva", "num_area": 191774.9015, "mod_fiscal": 15482.7896, "des_condic": "Em analise", "ind_status": "PE", "dat_atuali": "22/11/2022"}, "geometry": {"type": "Polygon", "coordinates": [[[-48.5957962567778, -25.97664852633631], [-48.60387284751766, -26.0053292638938], [-48.60671128198278, -26.00702133797033], [-48.60746388164227, -26.00835284247144], [-48.60937014707723, -26.009142621229], [-48.61025394269919, -26.01120411046056], [-48.61170016930998, -26.01139784252013], [-48.61276940755714, -26.01288500083225], [-48.61437693407125, -26.01308410409345], [-48.6170536070177, -26.01477025304684], [-48.61551708570775, -26.01675038678022], [-48.61372406673804, -26.01712560231233], [-48.61442228404717, -26.01976121638253], [-48.61614897510893, -26.02098006151718], [-48.61572970119621, -26.02328795031733], [-48.61832350406152, -26.02308457287632], [-48.6179404577873, -26.02452294329072], [-48.61726484391685, -26.02522592938098], [-48.6078143063026, -26.02708628123812], [-48.60856679522333, -26.02841767627391], [-48.61506441614192, -26.02761935811627], [-48.6161154520361, -26.02954113896286], [-48.61802710387886, -26.03394693733123], [-48.61655674629658, -26.03433266929686], [-48.61713653462546, -26.03594896722016], [-48.61435109211354, -26.03687082642019], [-48.61508028950161, -26.03878245278182], [-48.61422545640578, -26.03991473938213], [-48.61977239058578, -26.03865070974311], [-48.61970661688159, -26.04024507167199], [-48.61915069823212, -26.04196800684081], [-48.61017212495374, -26.04413208638803], [-48.6106084073818, -26.04530800109652], [-48.62022651394243, -26.04331055977779], [-48.62072839269807, -26.04681072975672], [-48.61844505836719, -26.04731428001595], [-48.61727339343151, -26.04829070297266], [-48.61790653869199, -26.05252085870761], [-48.61736837888457, -26.05380888214185], [-48.61785197136469, -26.05774357008386], [-48.61665611689656, -26.05929968147987], [-48.6218561890546, -26.0625220775551], [-48.62605825588509, -26.06251807354165], [-48.62874171764923, -26.06405921991783], [-48.63086841283935, -26.07124074775468], [-48.62721847490919, -26.07720902276136], [-48.62575381306152, -26.07744989616216], [-48.62567625116606, -26.07933433336534], [-48.61532667320866, -26.07941992508582], [-48.61523106165838, -26.08173929362407], [-48.60438892076782, -26.08195242564155], [-48.60465202788901, -26.08341304949287], [-48.6274759792147, -26.08273354700326], [-48.62711135636856, -26.08373728557676], [-48.61527891690926, -26.08449891583127], [-48.61326952054154, -26.09009188445861], [-48.6059673148362, -26.09071569672843], [-48.60459022684, -26.10053918136001], [-48.61133662244949, -26.10163788559586], [-48.61316133340562, -26.09661968740635], [-48.61747836390429, -26.10169983799562], [-48.61397359452327, -26.1043391923228], [-48.61235122588992, -26.11226652178861], [-48.6137901808948, -26.11630744812897], [-48.59694041131591, -26.1598627833147], [-48.6110153736303, -26.17542904554744], [-48.60950909204781, -26.18437612103581], [-48.62573158985758, -26.18332200573321], [-48.6356547620505, -26.18974725610491], [-48.65456411755603, -26.19859572980313], [-48.66311131119416, -26.19147857627827], [-48.69953446398402, -26.24667549063496], [-48.76167538250083, -26.2883205418415], [-48.77541457279334, -26.28078297409666], [-48.77867259522867, -26.27624490652597], [-48.78006903234817, -26.27542517032843], [-48.78996477149308, -26.27893592797079], [-48.79470775002368, -26.27371907121191], [-48.79366134744386, -26.26352815268119], [-48.79727253117464, -26.25421313899896], [-48.79162995301738, -26.24561574689047], [-48.79053581251854, -26.23658437789002], [-48.78175626929498, -26.21745768266046], [-48.78138015579257, -26.2067076202549], [-48.77185086834995, -26.20625395894172], [-48.76993848166155, -26.1974849335958], [-48.77120976750357, -26.19404341358866], [-48.77461945960838, -26.19778203220357], [-48.83204052574356, -26.19368523970367], [-48.84787645067384, -26.19114131372034], [-48.86746119900947, -26.19089597933856], [-48.88496554081974, -26.19406381805997], [-48.91199687000181, -26.1952046855996], [-48.91995891847556, -26.21493175051252], [-48.91882871819925, -26.25233520172298], [-48.93722154773972, -26.26966586241528], [-48.96188808657251, -26.28088735181281], [-48.97501189686943, -26.26373887814838], [-48.98722746649302, -26.29535269172924], [-48.95697621291904, -26.31574063470013], [-48.9736516154893, -26.33265539653172], [-48.99584200483109, -26.36707758479125], [-49.01353965972942, -26.37458877711695], [-49.05104293199174, -26.37384836857018], [-49.04907513359861, -26.33576472185339], [-49.13127743789872, -26.3491336975892], [-49.13020212337328, -26.36506445211088], [-49.14323652582381, -26.37183976781902], [-49.15636399167748, -26.39355807496016], [-49.17156964705726, -26.39850605383839], [-49.19598411782281, -26.39081321001299], [-49.20167790118181, -26.38126195654924], [-49.22416053596048, -26.38192136091005], [-49.24791528191011, -26.39218772459498], [-49.25088507855663, -26.39067839193357], [-49.25322873712631, -26.38857055254828], [-49.26032113810985, -26.38950158147348], [-49.27050971441848, -26.38544440408063], [-49.27272276113369, -26.3869590254853], [-49.27200258253709, -26.38447203070881], [-49.27318229904273, -26.38320044563923], [-49.27482653757342, -26.38252252374414], [-49.2759437912996, -26.37849265394898], [-49.27823005925482, -26.37797821154644], [-49.28427499081855, -26.37205863458604], [-49.28786648346551, -26.37129119586372], [-49.29039320468384, -26.36860689291529], [-49.28915604921072, -26.36697541579415], [-49.28633737846648, -26.36428293508375], [-49.28957903906593, -26.36423070949154], [-49.29240333364161, -26.36228012920807], [-49.29134898958182, -26.36007343191186], [-49.29914358273731, -26.35507194109641], [-49.29921160839729, -26.35318732851263], [-49.29878160817769, -26.35144196438217], [-49.30019019887279, -26.34829054422694], [-49.30165699470546, -26.34804252252941], [-49.30499204242474, -26.34538156663339], [-49.30571708756644, -26.34322598219111], [-49.30719432975365, -26.342687960036], [-49.30619625865242, -26.33888692830361], [-49.30834673608233, -26.33764265172626], [-49.31206612840556, -26.32425455289097], [-49.30743010008592, -26.31802792634668], [-49.32062923355768, -26.30209027962307], [-49.32193785605469, -26.28355392579676], [-49.30658493030489, -26.28268053389892], [-49.30789383704865, -26.27778458970593], [-49.29989032217378, -26.27073622280081], [-49.26961967054308, -26.25293853910139], [-49.26868766407901, -26.24732580436302], [-49.2542135805416, -26.2405229230873], [-49.2411823262369, -26.24754131605758], [-49.23848828741651, -26.24601214412559], [-49.22950421161317, -26.24400898517823], [-49.22649983079672, -26.23768376038146], [-49.22768519287999, -26.23177119461961], [-49.2296974007171, -26.22979926293458], [-49.22109068018304, -26.22635602908982], [-49.21185177324288, -26.22695524780292], [-49.20248554076771, -26.22218275755762], [-49.19317704921558, -26.2043509316184], [-49.1758644633144, -26.19150763482921], [-49.17181404987672, -26.18297406345527], [-49.16975642631903, -26.17740085321598], [-49.17014745067938, -26.17117505428114], [-49.17134697613625, -26.16932491952647], [-49.17174991722428, -26.16716103045256], [-49.16688939842529, -26.16310020986203], [-49.16747398553526, -26.15600965521513], [-49.1666935413963, -26.15526116134575], [-49.16500750154997, -26.14839300467333], [-49.16615882192984, -26.14784695231661], [-49.16672319711365, -26.14568768060875], [-49.17037049492664, -26.14318470382422], [-49.17159113020112, -26.14075465983667], [-49.17455527075793, -26.13924672356269], [-49.17460327579492, -26.13794243281987], [-49.16619262421067, -26.1337755106982], [-49.1598762849, -26.13416789211836], [-49.15297247754981, -26.13754438823565], [-49.14731181713767, -26.1376661350081], [-49.14283003079321, -26.13647928243483], [-49.14136649444267, -26.13237375057599], [-49.13879487524124, -26.13200676682255], [-49.13806318300037, -26.12995394174254], [-49.13972006869389, -26.12449075305716], [-49.13927891757911, -26.12331696543113], [-49.13937033523307, -26.12085338210405], [-49.13913894089632, -26.11402752173812], [-49.1368903823435, -26.10931731079657], [-49.13473062410118, -26.08916500172412], [-49.12661522485459, -26.09022732807639], [-49.1224361495274, -26.09401863004747], [-49.11823673162711, -26.08533329135406], [-49.12161441359748, -26.08137277229349], [-49.1228996889583, -26.08155648660167], [-49.12730950773008, -26.08023815733362], [-49.1277560055418, -26.07691470910906], [-49.12522323635493, -26.07553290488589], [-49.12636888895162, -26.07077939478707], [-49.12763255251189, -26.07154279806526], [-49.12961148298456, -26.070441455501], [-49.1284177953995, -26.06779392864864], [-49.12919762226136, -26.06418982376766], [-49.13180601783782, -26.06354440957793], [-49.13345136279286, -26.05837164593372], [-49.13638687032662, -26.05758921868453], [-49.13214511452723, -26.050064197991], [-49.13432780619129, -26.04780865124977], [-49.12792017003251, -26.03775220256436], [-49.12500118035038, -26.03809974976303], [-49.1201041997896, -26.0351962121161], [-49.12181924528767, -26.03249143286404], [-49.1212388335461, -26.0307330808786], [-49.12105098135802, -26.02710049030344], [-49.12032548107181, -26.0249024343847], [-49.12219086900149, -26.02249213624066], [-49.12323939540185, -26.01599458646538], [-49.12186324952406, -26.01827468612373], [-49.11831027957192, -26.01831278111253], [-49.11569246927883, -26.01924951688619], [-49.11269324389546, -26.01741788896665], [-49.10864017192746, -26.01787583264888], [-49.1058629854012, -26.01788451478619], [-49.10184464502132, -26.00876899553202], [-49.09757609229793, -26.01067114659869], [-49.09730242070444, -26.00935727173752], [-49.09355027424281, -26.0104044555724], [-49.091905226525, -26.01122511685794], [-49.09086343874086, -26.00887255944516], [-49.08980540732331, -26.00695470028726], [-49.09090327586667, -26.00350628411321], [-49.08261520108994, -26.00499623970602], [-49.07864226987714, -26.00763201206286], [-49.07209444602532, -26.00148561000457], [-49.06929374531627, -26.00299620365138], [-49.06935672655729, -26.00560926248268], [-49.06736494460842, -26.01135115386397], [-49.06025184902759, -26.01592156009459], [-49.06064807137412, -26.01825459246561], [-49.05390609156083, -26.02153045302864], [-49.05248781162944, -26.02061680416823], [-49.05131296811851, -26.01753466613684], [-49.04926306413199, -26.02051833521425], [-49.04609315774727, -26.01897086037094], [-49.04412665765824, -26.01122246544067], [-49.0433260091098, -26.01105290747013], [-49.04287314324839, -26.00596183864291], [-49.04163824733752, -26.00447338726748], [-49.03431181582711, -26.0061347070985], [-49.03419455511718, -26.00497057977811], [-49.02935773065123, -26.00482211256779], [-49.02550074644807, -26.00862045045294], [-49.02767549471426, -26.01086327409721], [-49.02604657542199, -26.01124843971184], [-49.01972070247708, -26.01627644880359], [-49.01717923842184, -26.0151827789822], [-49.01234142070345, -26.01503382484434], [-49.01010028478051, -26.01452954419234], [-49.0077539972637, -26.01677840885178], [-49.00522893742999, -26.01524977010359], [-49.00470006793223, -26.01218682944528], [-49.00295925530855, -26.01126260765983], [-49.00181370715506, -26.01166245872904], [-48.9980820525856, -26.01212745446012], [-48.99657448468581, -26.00932426001203], [-48.99398276779468, -26.00953421586811], [-48.99211933836382, -26.00759038673678], [-48.98883194706745, -26.00487687585107], [-48.98717454885265, -26.00598618613218], [-48.98562363484368, -26.00521346252471], [-48.98386088883314, -26.00486873116899], [-48.98406112897646, -26.00385937982318], [-48.98590737655792, -26.00203048108722], [-48.98562940744216, -26.00086123329256], [-48.98225976888045, -26.00032170081722], [-48.98090329587369, -25.9978133364658], [-48.97965850798447, -25.99240675453135], [-48.97929759082143, -25.9892037050704], [-48.97409914539457, -25.99005827366817], [-48.96286537757088, -25.98419633479815], [-48.96121857240563, -25.98922301113469], [-48.96227987404282, -25.99099697679536], [-48.96050095956042, -25.99108670649673], [-48.95766521191105, -25.99346471749922], [-48.95021188942385, -25.99004066539137], [-48.95926974380502, -25.9811827649953], [-48.68219320017625, -25.98330503022099], [-48.67643098258744, -25.97818143687527], [-48.66876561034771, -25.98010424698844], [-48.66255690849975, -25.9740946825068], [-48.66195397150774, -25.96914128393502], [-48.659088771501, -25.96817560374848], [-48.6530900602762, -25.96492911995057], [-48.65058356378619, -25.95918639869189], [-48.64555834096002, -25.95582647606847], [-48.63874176060843, -25.96067823797079], [-48.64005442797577, -25.96405959112227], [-48.6403822552054, -25.96784325266063], [-48.63756476925573, -25.96963550731367], [-48.63328482629183, -25.97166896329575], [-48.6339881789573, -25.97807657132804], [-48.62397194500301, -25.97832170531073], [-48.62261746318207, -25.97595483975759], [-48.62121499358873, -25.97474705947905], [-48.62088575475599, -25.97879860283044], [-48.62159555218475, -25.98114383140806], [-48.62074166699203, -25.98227590079405], [-48.61853329829816, -25.98104111933862], [-48.61433077638517, -25.98119021059514], [-48.61344675629702, -25.98304666987826], [-48.61146451083545, -25.98414077034529], [-48.60890366263056, -25.98361941390824], [-48.61150777389705, -25.97920916764152], [-48.60691660783874, -25.9809409383832], [-48.60436779171683, -25.9801296696157], [-48.60112001794683, -25.98060063060514], [-48.59967678797288, -25.97648926941684], [-48.5957962567778, -25.97664852633631]]]}}]}