{"type": "FeatureCollection", "features": [{"type": "Feature", "properties": {"cod_imovel": "SC-4207908-7204E491257948B48D4D4E269A2283C7", "municipio": "Irineopolis", "num_area": 28.9953, "mod_fiscal": 1.8122, "des_condic": "Aguardando analise", "ind_status": "AT", "dat_atuali": "27/02/2026"}, "geometry": {"type": "Polygon", "coordinates": [[[-50.75709342956543, -26.24200073776456], [-50.75775861740112, -26.248255560400672], [-50.75943231582641, -26.247331792400914], [-50.76159954071045, -26.246735188331304], [-50.76172828674316, -26.2460808448619], [-50.76239347457885, -26.245003094644805], [-50.761942863464355, -26.24461818143063], [-50.761878490448, -26.244329495683342], [-50.76230764389038, -26.24388684281136], [-50.76202869415283, -26.24305926987592], [-50.76099872589111, -26.241904507094567], [-50.76074123382568, -26.240980688608705], [-50.75709342956543, -26.24200073776456]]]}}, {"type": "Feature", "properties": {"cod_imovel": "SC-4207908-94A7CC0EC8864B81943DEE6205C1A489", "municipio": "Irineopolis", "num_area": 17.35, "mod_fiscal": 1.0844, "des_condic": "Aguardando analise", "ind_status": "AT", "dat_atuali": "05/02/2026"}, "geometry": {"type": "Polygon", "coordinates": [[[-50.76610493924634, -26.23139337248701], [-50.76423616721118, -26.22875454079918], [-50.76403937185987, -26.22885310198224], [-50.76385639255722, -26.22940540385905], [-50.76367666521842, -26.2289300015068], [-50.76352559755089, -26.22901889980639], [-50.76361014754834, -26.22960625989023], [-50.76325449554504, -26.22942171912457], [-50.76299320283221, -26.22963316273318], [-50.76249792503592, -26.22953581522723], [-50.76248750001991, -26.22983397904001], [-50.7627371494332, -26.23004926367495], [-50.7621248396168, -26.23013850596481], [-50.76195975164642, -26.2297625828005], [-50.7617612428756, -26.2296832181771], [-50.76148600457083, -26.22988810301918], [-50.76088386328769, -26.23054207420418], [-50.76082994000943, -26.2309297542988], [-50.76119602552594, -26.23130690447755], [-50.76146978157526, -26.23505077238282], [-50.76174544643406, -26.23485753374584], [-50.76247348074833, -26.23361516955355], [-50.76610493924634, -26.23139337248701]]]}}, {"type": "Feature", "properties": {"cod_imovel": "SC-4207908-7634C1772EA843D4AD977BF562D2293D", "municipio": "Irineopolis", "num_area": 136.3407, "mod_fiscal": 0.9468, "des_condic": "Aguardando analise", "ind_status": "AT", "dat_atuali": "29/01/2026"}, "geometry": {"type": "Polygon", "coordinates": [[[-50.75669474037416, -26.227381574725065], [-50.751750824077895, -26.230375898277792], [-50.755000338161295, -26.23475803654442], [-50.75214280490163, -26.236061675971193], [-50.75387437420455, -26.23871192436003], [-50.761450074510456, -26.23505848154387], [-50.76117126207981, -26.23130108776429], [-50.760803407738656, -26.23093656821596], [-50.760863453316354, -26.230522691560694], [-50.76175920995038, -26.22966618459986], [-50.7619785186834, -26.229757312718114], [-50.76213993696526, -26.230121984472323], [-50.76269777062641, -26.230029405781103], [-50.76247001019997, -26.229843508953085], [-50.76247872067118, -26.229513196212903], [-50.76298028312554, -26.22961431509119], [-50.7632566709856, -26.22940465350816], [-50.76358926028192, -26.229577845452283], [-50.763510540006955, -26.229007663891664], [-50.76368114591307, -26.22891508482512], [-50.763856105225614, -26.22936847401755], [-50.764020775010316, -26.228824209802767], [-50.764324890921515, -26.228664452692975], [-50.76449149481508, -26.22894278102483], [-50.76458337449055, -26.228319957326743], [-50.764828691664995, -26.228246063929355], [-50.7649614087717, -26.228477581394728], [-50.765680596279786, -26.22770332671668], [-50.76534176368513, -26.22746491812451], [-50.7650284198303, -26.22749105240715], [-50.765529272289264, -26.22711875201245], [-50.765775805821065, -26.227165276768027], [-50.76566488274452, -26.226824782021488], [-50.76583645776624, -26.226746757526744], [-50.76621498999593, -26.22690651912479], [-50.76633552706895, -26.22736211947019], [-50.76691604319557, -26.226920614947737], [-50.76723424951319, -26.225876612403706], [-50.76415992118549, -26.223937683415002], [-50.76147339102956, -26.22304572920259], [-50.759086656976756, -26.222959174337962], [-50.753736333741344, -26.224157447338108], [-50.75642719046264, -26.225541536054283], [-50.75669474037416, -26.227381574725065]]]}}, {"type": "Feature", "properties": {"cod_imovel": "SC-4207908-AB03E709FEA6472393321B564AEF861F", "municipio": "Irineopolis", "num_area": 32.0362, "mod_fiscal": 2.0023, "des_condic": "Aguardando analise", "ind_status": "AT", "dat_atuali": "20/01/2026"}, "geometry": {"type": "Polygon", "coordinates": [[[-50.75527681574356, -26.24938474011244], [-50.75766146971896, -26.24821682115004], [-50.75708176747074, -26.24199607761759], [-50.75505434999774, -26.24258548781061], [-50.7510852813721, -26.249063851376], [-50.75255039960025, -26.2490746370507], [-50.75527681574356, -26.24938474011244]]]}}, {"type": "Feature", "properties": {"cod_imovel": "SC-4207908-BD45E12FC2484E628E62E01EC9B2914A", "municipio": "Irineopolis", "num_area": 17.0262, "mod_fiscal": 1.0641, "des_condic": "Aguardando analise", "ind_status": "AT", "dat_atuali": "16/12/2025"}, "geometry": {"type": "Polygon", "coordinates": [[[-50.805974006652825, -26.249006116492787], [-50.810372829437256, -26.253009000431216], [-50.81105947494506, -26.25248940309409], [-50.81133842468262, -26.25268184682327], [-50.81129550933838, -26.25302824473241], [-50.81148862838745, -26.253393885849274], [-50.81183195114136, -26.25327842035775], [-50.81183195114136, -26.2526626024647], [-50.81254005432128, -26.25206602576777], [-50.80990076065063, -26.249718178047097], [-50.81080198287964, -26.248986871525346], [-50.8098578453064, -26.248063109339693], [-50.80895662307739, -26.248890646640348], [-50.80760478973388, -26.247601225492815], [-50.805974006652825, -26.249006116492787]]]}}, {"type": "Feature", "properties": {"cod_imovel": "SC-4207908-7B74C20DEB20444F903BBB79AF3DE57D", "municipio": "Irineopolis", "num_area": 0.9434, "mod_fiscal": 0.059, "des_condic": "Aguardando analise", "ind_status": "AT", "dat_atuali": "05/12/2025"}, "geometry": {"type": "Polygon", "coordinates": [[[-50.79899785654943, -26.23719427464079], [-50.79937459663198, -26.23684503293232], [-50.79852506809205, -26.23554755120861], [-50.79801702064175, -26.23587511877194], [-50.79899785654943, -26.23719427464079]]]}}, {"type": "Feature", "properties": {"cod_imovel": "SC-4207908-8AE3B1FD48D04B738784E9866D4F6281", "municipio": "Irineopolis", "num_area": 5.3239, "mod_fiscal": 0.3327, "des_condic": "Aguardando analise", "ind_status": "AT", "dat_atuali": "23/03/2026"}, "geometry": {"type": "Polygon", "coordinates": [[[-50.79258441925049, -26.236380733100457], [-50.791447162628174, -26.235572353913785], [-50.78968453154072, -26.23794919180547], [-50.790932178497314, -26.238728850287814], [-50.79166173934936, -26.23834391629439], [-50.79258441925049, -26.236380733100457]]]}}, {"type": "Feature", "properties": {"cod_imovel": "SC-4207908-6508F7DB453E4FB19A24A53D35BBB052", "municipio": "Irineopolis", "num_area": 14.5266, "mod_fiscal": 0.9079, "des_condic": "Aguardando analise", "ind_status": "AT", "dat_atuali": "15/10/2025"}, "geometry": {"type": "Polygon", "coordinates": [[[-50.77841604543821, -26.23336526862208], [-50.77770558336845, -26.23598477451486], [-50.77283416868785, -26.24203427541595], [-50.77321361312901, -26.24284427541669], [-50.77907030226555, -26.23550390144124], [-50.78045721818164, -26.23599901088249], [-50.78172420444574, -26.23469947730625], [-50.78051256268087, -26.23395537928456], [-50.77841604543821, -26.23336526862208]]]}}, {"type": "Feature", "properties": {"cod_imovel": "SC-4207908-0D2B64D356D84B4BA6A071B2AD1670EE", "municipio": "Irineopolis", "num_area": 11.7135, "mod_fiscal": 0.7321, "des_condic": "Aguardando analise", "ind_status": "AT", "dat_atuali": "05/09/2025"}, "geometry": {"type": "Polygon", "coordinates": [[[-50.78848600387573, -26.232550505748883], [-50.79026911689054, -26.23368023146907], [-50.79283823567391, -26.22951325665395], [-50.79254222913209, -26.22909240664357], [-50.79064892889994, -26.22872650631037], [-50.78848600387573, -26.232550505748883]]]}}, {"type": "Feature", "properties": {"cod_imovel": "SC-4207908-18F0A41B5682414E85AF484B9EFE4388", "municipio": "Irineopolis", "num_area": 7.7695, "mod_fiscal": 0.4856, "des_condic": "Aguardando analise", "ind_status": "AT", "dat_atuali": "15/12/2025"}, "geometry": {"type": "Polygon", "coordinates": [[[-50.80573797199997, -26.24028781925104], [-50.81082344099997, -26.24492611125099], [-50.81187486699997, -26.24409854625101], [-50.80978274345398, -26.242347167516854], [-50.80833434999995, -26.24173129125102], [-50.80781936699998, -26.24128862825104], [-50.80657482099996, -26.23961419225108], [-50.80573797199997, -26.24028781925104]]]}}, {"type": "Feature", "properties": {"cod_imovel": "SC-4207908-DE8D25DD1A0B4996B91EB4BF24290443", "municipio": "Irineopolis", "num_area": 7.1569, "mod_fiscal": 0.4473, "des_condic": "Aguardando analise", "ind_status": "AT", "dat_atuali": "15/12/2025"}, "geometry": {"type": "Polygon", "coordinates": [[[-50.813698768615716, -26.245041585896104], [-50.81571578979492, -26.244310249941375], [-50.81500768661498, -26.243232483303544], [-50.814685821533196, -26.24300153200935], [-50.812411308288574, -26.241923753234943], [-50.811767578125, -26.24182752250121], [-50.81138134002685, -26.242039230010263], [-50.81230401992798, -26.242847564224924], [-50.812132358551025, -26.24319399145304], [-50.81260442733765, -26.24357890938428], [-50.8123254776001, -26.243809859531094], [-50.813698768615716, -26.245041585896104]]]}}, {"type": "Feature", "properties": {"cod_imovel": "SC-4207908-DCC128FF262E49ADBA198502EE1B8905", "municipio": "Irineopolis", "num_area": 23.2224, "mod_fiscal": 1.4514, "des_condic": "Aguardando analise", "ind_status": "AT", "dat_atuali": "15/12/2025"}, "geometry": {"type": "Polygon", "coordinates": [[[-50.81424313, -26.24227754], [-50.81534662, -26.24284548], [-50.81614721, -26.24409457], [-50.81934489, -26.24678473], [-50.82012322, -26.24716168], [-50.82249042, -26.24764206], [-50.82337144, -26.24808916], [-50.82383673, -26.24808503], [-50.82454903, -26.24836668], [-50.82460517, -26.24778293], [-50.82481853, -26.24747263], [-50.82379063, -26.24649593], [-50.82220423, -26.24536768], [-50.81969625, -26.24399486], [-50.8154918, -26.2420105], [-50.81488274, -26.24177991], [-50.81424313, -26.24227754]]]}}, {"type": "Feature", "properties": {"cod_imovel": "SC-4207908-7EA87C79E2514ECF8C6DB2BB0CE6D80F", "municipio": "Irineopolis", "num_area": 13.257, "mod_fiscal": 0.8286, "des_condic": "Aguardando analise", "ind_status": "AT", "dat_atuali": "21/07/2025"}, "geometry": {"type": "Polygon", "coordinates": [[[-50.78856427462961, -26.23253449064933], [-50.79064892889994, -26.22872650631037], [-50.78668690034007, -26.22852601889814], [-50.78551335438369, -26.23050506150243], [-50.78856427462961, -26.23253449064933]]]}}, {"type": "Feature", "properties": {"cod_imovel": "SC-4207908-7C220BB6980748D3B0D335C01F4D06A2", "municipio": "Irineopolis", "num_area": 23.3846, "mod_fiscal": 1.4615, "des_condic": "Aguardando analise", "ind_status": "AT", "dat_atuali": "18/06/2025"}, "geometry": {"type": "Polygon", "coordinates": [[[-50.79962622949789, -26.24431921524726], [-50.80282877964284, -26.25013354033244], [-50.80442419383527, -26.24944511129611], [-50.80467421970442, -26.24990435131701], [-50.80647734074516, -26.24820898268073], [-50.80137638497943, -26.24338772362684], [-50.79962622949789, -26.24431921524726]]]}}, {"type": "Feature", "properties": {"cod_imovel": "SC-4207908-491BD7ADADE241A9BC61B65FC97587AA", "municipio": "Irineopolis", "num_area": 1.3031, "mod_fiscal": 0.0814, "des_condic": "Aguardando analise", "ind_status": "AT", "dat_atuali": "30/12/2024"}, "geometry": {"type": "Polygon", "coordinates": [[[-50.81153154373169, -26.247081603970457], [-50.80998659133911, -26.24563819866089], [-50.80955743789673, -26.245984617570333], [-50.81105947494506, -26.247428018576873], [-50.81153154373169, -26.247081603970457]]]}}, {"type": "Feature", "properties": {"cod_imovel": "SC-4207908-80594DE4FE654BA9A93F7EE66248D5B5", "municipio": "Irineopolis", "num_area": 1.3602, "mod_fiscal": 0.085, "des_condic": "Aguardando analise", "ind_status": "AT", "dat_atuali": "30/12/2024"}, "geometry": {"type": "Polygon", "coordinates": [[[-50.81204652786254, -26.246831415001328], [-50.81050157546997, -26.24534951544751], [-50.81002950668335, -26.24569593521752], [-50.811617374420166, -26.247197075620683], [-50.81204652786254, -26.246831415001328]]]}}, {"type": "Feature", "properties": {"cod_imovel": "SC-4207908-A7B42CBBAC184CF3A47F09E2A23DB3B9", "municipio": "Irineopolis", "num_area": 3.5365, "mod_fiscal": 0.221, "des_condic": "Aguardando analise", "ind_status": "AT", "dat_atuali": "21/11/2024"}, "geometry": {"type": "Polygon", "coordinates": [[[-50.79493972740892, -26.25130086739666], [-50.79169596604811, -26.24831993631215], [-50.79119213434164, -26.24880315808271], [-50.79486659040647, -26.25215148030226], [-50.79493972740892, -26.25130086739666]]]}}, {"type": "Feature", "properties": {"cod_imovel": "SC-4207908-32C14A6B412142818793C8CB82835ACA", "municipio": "Irineopolis", "num_area": 26.4915, "mod_fiscal": 1.6557, "des_condic": "Aguardando analise", "ind_status": "AT", "dat_atuali": "03/10/2023"}, "geometry": {"type": "Polygon", "coordinates": [[[-50.77769692951696, -26.23597567727514], [-50.77840164606053, -26.2333817639012], [-50.77489975124165, -26.23259188134906], [-50.7729333663391, -26.23944130482511], [-50.77254430038897, -26.24126569176182], [-50.77283831311966, -26.24200765763941], [-50.77769692951696, -26.23597567727514]]]}}, {"type": "Feature", "properties": {"cod_imovel": "SC-4207908-4DBDE828152E4D7CB27057F989C7D8BF", "municipio": "Irineopolis", "num_area": 5.4122, "mod_fiscal": 0.3383, "des_condic": "Aguardando analise", "ind_status": "AT", "dat_atuali": "07/10/2025"}, "geometry": {"type": "Polygon", "coordinates": [[[-50.78478123457548, -26.23144140164607], [-50.78311302098255, -26.23033319623611], [-50.78161371154891, -26.23240921344496], [-50.78329467007484, -26.23329197254085], [-50.78478123457548, -26.23144140164607]]]}}, {"type": "Feature", "properties": {"cod_imovel": "SC-4207908-0DC6826AD2E842E1B2CB60F1B7872E09", "municipio": "Irineopolis", "num_area": 14.2344, "mod_fiscal": 0.8896, "des_condic": "Aguardando analise", "ind_status": "AT", "dat_atuali": "04/10/2024"}, "geometry": {"type": "Polygon", "coordinates": [[[-50.81371344545354, -26.24111313545365], [-50.80820261941781, -26.23820675195828], [-50.80664204570583, -26.23914882499841], [-50.80818193746202, -26.24115664397868], [-50.80920131270325, -26.24171419786934], [-50.81025996108707, -26.24177727062844], [-50.81221404555777, -26.24146223628849], [-50.81315547937084, -26.24196198050592], [-50.81371344545354, -26.24111313545365]]]}}, {"type": "Feature", "properties": {"cod_imovel": "SC-4207908-C4B0154D12734259B00B9D02274D6C4E", "municipio": "Irineopolis", "num_area": 83.6663, "mod_fiscal": 5.2291, "des_condic": "Aguardando analise", "ind_status": "AT", "dat_atuali": "06/08/2024"}, "geometry": {"type": "Polygon", "coordinates": [[[-50.82438468933105, -26.25004534000078], [-50.82417011260986, -26.24977591257645], [-50.82399845123291, -26.2490446064181], [-50.82326889038086, -26.24831329565681], [-50.822367668151855, -26.249083096330665], [-50.82168102264404, -26.25031476680034], [-50.82095146179199, -26.250468724690975], [-50.820908546447754, -26.249660443489038], [-50.81949234008789, -26.250122319150133], [-50.81949234008789, -26.249737422893393], [-50.81910610198974, -26.249621953767726], [-50.81867694854736, -26.249852891904293], [-50.81880569458008, -26.249391015172154], [-50.81730365753173, -26.24804386421606], [-50.81618785858154, -26.248736686658575], [-50.81545829772949, -26.24885215666402], [-50.81455707550049, -26.249852891904293], [-50.81374168395996, -26.250430235237452], [-50.81352710723876, -26.251007575701625], [-50.81296920776367, -26.25158491329677], [-50.81198215484619, -26.252162248022866], [-50.811638832092285, -26.253085977616845], [-50.811424255371094, -26.25327842035775], [-50.81103801727295, -26.252393181109962], [-50.80996513366699, -26.25347086277986], [-50.81039428710937, -26.25377876999212], [-50.810651779174805, -26.25431760564975], [-50.81069469451904, -26.255087366539126], [-50.81627368927002, -26.25862820092732], [-50.82438468933105, -26.25004534000078]]]}}, {"type": "Feature", "properties": {"cod_imovel": "SC-4207908-78F0544E06AA4FEE8CF7D585FCCECD4A", "municipio": "Irineopolis", "num_area": 5.4851, "mod_fiscal": 0.3428, "des_condic": "Aguardando analise", "ind_status": "AT", "dat_atuali": "17/09/2024"}, "geometry": {"type": "Polygon", "coordinates": [[[-50.79681137946075, -26.25454061444501], [-50.79686340180629, -26.25397718036043], [-50.7911120425049, -26.2487435128687], [-50.79069384657409, -26.24902021357022], [-50.79063914002638, -26.24911551992871], [-50.79649546887622, -26.25451565445182], [-50.79681137946075, -26.25454061444501]]]}}, {"type": "Feature", "properties": {"cod_imovel": "SC-4207908-F8F95FAB04C1462B9443153354E8A37D", "municipio": "Irineopolis", "num_area": 4.2433, "mod_fiscal": 0.2652, "des_condic": "Aguardando analise", "ind_status": "AT", "dat_atuali": "09/09/2024"}, "geometry": {"type": "Polygon", "coordinates": [[[-50.79286336898804, -26.234609990410277], [-50.79101800918579, -26.23430203240673], [-50.789644718170166, -26.2335898763993], [-50.78925848007202, -26.234090310806117], [-50.7927131652832, -26.236419227207232], [-50.79286336898804, -26.234609990410277]]]}}, {"type": "Feature", "properties": {"cod_imovel": "SC-4207908-09D243EA95774F96A39BB32665F9F7BA", "municipio": "Irineopolis", "num_area": 1.9198, "mod_fiscal": 0.12, "des_condic": "Aguardando analise", "ind_status": "AT", "dat_atuali": "09/09/2024"}, "geometry": {"type": "Polygon", "coordinates": [[[-50.78492403030395, -26.231511125807454], [-50.78550338745117, -26.230837448660772], [-50.78380823135376, -26.22979805340692], [-50.7832932472229, -26.2304524885389], [-50.78492403030395, -26.231511125807454]]]}}, {"type": "Feature", "properties": {"cod_imovel": "SC-4207908-3D9C3C5C182A4953A0675C50DC00617B", "municipio": "Irineopolis", "num_area": 109.8407, "mod_fiscal": 6.865, "des_condic": "Aguardando analise", "ind_status": "AT", "dat_atuali": "06/08/2024"}, "geometry": {"type": "Polygon", "coordinates": [[[-50.79082489013671, -26.241654306979694], [-50.78970909118652, -26.239845151660266], [-50.78659772872925, -26.237862747010087], [-50.785181522369385, -26.23949871445055], [-50.780954360961914, -26.236380733100457], [-50.78198432922363, -26.234956442189237], [-50.781683921813965, -26.23476396910617], [-50.78056812286377, -26.235880308552456], [-50.77400207519531, -26.244425724345465], [-50.774903297424316, -26.246658206937916], [-50.77670574188232, -26.247062358684275], [-50.77773571014404, -26.246908396279974], [-50.783271789550774, -26.24550347991723], [-50.78653335571289, -26.243540417648532], [-50.78872203826904, -26.242462643871477], [-50.79082489013671, -26.241654306979694]]]}}, {"type": "Feature", "properties": {"cod_imovel": "SC-4207908-0024C5945EF84DCCB3C88C80979A7EEC", "municipio": "Irineopolis", "num_area": 2.824, "mod_fiscal": 0.1765, "des_condic": "Aguardando analise", "ind_status": "AT", "dat_atuali": "25/07/2024"}, "geometry": {"type": "Polygon", "coordinates": [[[-50.87004436701676, -26.24981845734234], [-50.87181381029298, -26.24835203735404], [-50.87118390730159, -26.24721276686801], [-50.86967141142438, -26.24877892756079], [-50.87004436701676, -26.24981845734234]]]}}, {"type": "Feature", "properties": {"cod_imovel": "SC-4207908-E6977BFD910A42DFABE0FA005B7825D0", "municipio": "Irineopolis", "num_area": 143.3834, "mod_fiscal": 8.9615, "des_condic": "Aguardando analise", "ind_status": "AT", "dat_atuali": "21/09/2021"}, "geometry": {"type": "Polygon", "coordinates": [[[-50.82494482661768, -26.24768631480907], [-50.82459608552013, -26.24850516527083], [-50.82365373815258, -26.24808655871947], [-50.82343044398858, -26.24817717564706], [-50.82415483482789, -26.24901825770005], [-50.82497199345509, -26.25157380744253], [-50.82506240316791, -26.25245888529429], [-50.82476833810479, -26.25415553916746], [-50.82362228006167, -26.25602844244502], [-50.82434836848517, -26.25828811355404], [-50.82682167446981, -26.26220942694616], [-50.82384309140313, -26.26524003974585], [-50.82642880849182, -26.26773732335653], [-50.82693483621164, -26.26841959968932], [-50.83069912694729, -26.27608295058344], [-50.83134451216056, -26.27712264395719], [-50.83251231385556, -26.27782693780869], [-50.83416529741957, -26.2778923925056], [-50.8353408760871, -26.27732663741714], [-50.83657442176574, -26.2756935193583], [-50.83732572913822, -26.27272705487834], [-50.83561023976679, -26.2722311061789], [-50.8345056271212, -26.27161173198682], [-50.83307430093626, -26.27051343350913], [-50.83153208459706, -26.26892882430879], [-50.83060399220287, -26.26732142937313], [-50.8298414023899, -26.26480591044647], [-50.82937190359725, -26.26169935663388], [-50.82935721291974, -26.26008184703502], [-50.82770033200646, -26.25392864800485], [-50.82714695929472, -26.25086206401872], [-50.82667271217627, -26.24976489328247], [-50.82576305689432, -26.24849647223725], [-50.82494482661768, -26.24768631480907]]]}}, {"type": "Feature", "properties": {"cod_imovel": "SC-4207908-16AB574FF76F401CB47F6A0F636E2DC8", "municipio": "Irineopolis", "num_area": 3.8195, "mod_fiscal": 0.2387, "des_condic": "Aguardando analise", "ind_status": "AT", "dat_atuali": "05/02/2021"}, "geometry": {"type": "Polygon", "coordinates": [[[-50.81858965383922, -26.2465322775495], [-50.8172831901866, -26.24545959955567], [-50.8148619641256, -26.24608073097415], [-50.8160154783185, -26.2471588705452], [-50.81858965383922, -26.2465322775495]]]}}, {"type": "Feature", "properties": {"cod_imovel": "SC-4207908-36AE2C79BDC94195993EFAD841067E8C", "municipio": "Irineopolis", "num_area": 70.6306, "mod_fiscal": 4.4144, "des_condic": "Aguardando analise", "ind_status": "AT", "dat_atuali": "14/07/2021"}, "geometry": {"type": "Polygon", "coordinates": [[[-50.76026916503906, -26.2410384274792], [-50.76127767562866, -26.23990289109484], [-50.76159954071045, -26.239787412197018], [-50.76157808303832, -26.23899830332477], [-50.761985778808594, -26.23845939662626], [-50.76202869415283, -26.237997474610452], [-50.761706829071045, -26.236784920585894], [-50.76181411743164, -26.235245151216393], [-50.75342416763306, -26.239017549946368], [-50.752737522125244, -26.2397681657029], [-50.752522945404046, -26.24038405193417], [-50.75239419937134, -26.241846768654323], [-50.75213670730591, -26.242289429296516], [-50.74984073638916, -26.245099322749144], [-50.74958324432373, -26.246985377507624], [-50.7487678527832, -26.248140089802334], [-50.74863910675049, -26.24862121653837], [-50.74836015701294, -26.250661171767398], [-50.748724937438965, -26.251353978603003], [-50.749003887176514, -26.251065309590253], [-50.749197006225586, -26.25035325629213], [-50.74962615966797, -26.249872136728303], [-50.751042366027825, -26.249083096330665], [-50.7551622390747, -26.24242415176602], [-50.76026916503906, -26.2410384274792]]]}}, {"type": "Feature", "properties": {"cod_imovel": "SC-4207908-5D72766ED74A415E9B0A55CDDAA093C6", "municipio": "Irineopolis", "num_area": 16.6109, "mod_fiscal": 1.0382, "des_condic": "Aguardando analise", "ind_status": "AT", "dat_atuali": "26/09/2023"}, "geometry": {"type": "Polygon", "coordinates": [[[-50.77393980501324, -26.24453790038325], [-50.77786579527471, -26.23936057793474], [-50.78044681004486, -26.23600784872077], [-50.77907156938989, -26.23551071036227], [-50.77322139919589, -26.2428417311698], [-50.77393980501324, -26.24453790038325]]]}}, {"type": "Feature", "properties": {"cod_imovel": "SC-4207908-9E838A59DE8F4F80BCA993A53D827541", "municipio": "Irineopolis", "num_area": 110.4684, "mod_fiscal": 6.9043, "des_condic": "Aguardando analise", "ind_status": "AT", "dat_atuali": "17/08/2023"}, "geometry": {"type": "Polygon", "coordinates": [[[-50.74691482, -26.24677561], [-50.74515873, -26.248887], [-50.74287519, -26.25015822], [-50.7402576, -26.25082324], [-50.7323861, -26.25133394], [-50.72941555, -26.25104838], [-50.72588962, -26.24988679], [-50.7257923, -26.2504546], [-50.72754836, -26.25221478], [-50.72803618, -26.25311655], [-50.72798651, -26.2540516], [-50.72732558, -26.25573576], [-50.72755113, -26.256597], [-50.72840088, -26.25723836], [-50.73020295, -26.25744328], [-50.73100631, -26.25734786], [-50.73163796, -26.25698668], [-50.73207, -26.25640478], [-50.73260539, -26.25515842], [-50.73335511, -26.25447575], [-50.73867559, -26.25278338], [-50.7417255, -26.2514949], [-50.7433095, -26.25050121], [-50.74448209, -26.25056112], [-50.74518049, -26.25104419], [-50.74605832, -26.25215183], [-50.74656384, -26.25232808], [-50.74723577, -26.2522507], [-50.74789742, -26.25164877], [-50.74849785, -26.24829996], [-50.74944857, -26.24683119], [-50.74969023, -26.24516284], [-50.75198466, -26.24219688], [-50.7524829, -26.23985015], [-50.74561922, -26.23984045], [-50.74574334, -26.24048431], [-50.74682204, -26.24282495], [-50.74738699, -26.2448752], [-50.74691482, -26.24677561]]]}}, {"type": "Feature", "properties": {"cod_imovel": "SC-4207908-A551008CFFB148EB94C0ABF67DAD58CC", "municipio": "Irineopolis", "num_area": 112.6605, "mod_fiscal": 7.0413, "des_condic": "Aguardando analise", "ind_status": "AT", "dat_atuali": "19/04/2022"}, "geometry": {"type": "Polygon", "coordinates": [[[-50.77415943814813, -26.22768285620317], [-50.77318424352244, -26.23216793955157], [-50.77157956816414, -26.23198259534615], [-50.77030976483159, -26.23214917848509], [-50.76857277983652, -26.2320653865003], [-50.76845139094872, -26.23233149761194], [-50.7694227798291, -26.23441344206295], [-50.76985555760303, -26.23480594206378], [-50.76973361315962, -26.2348128865047], [-50.76979250204798, -26.23499344206205], [-50.77007055760106, -26.23517983095287], [-50.77017194648911, -26.23560399762178], [-50.77058972426315, -26.23585316428991], [-50.77061916870736, -26.23617066428486], [-50.77035805759861, -26.23630316428468], [-50.77066444648477, -26.23662705317401], [-50.77077611315039, -26.23657760873422], [-50.77068333537352, -26.23668121983957], [-50.77080250203914, -26.23691538651073], [-50.77099194648186, -26.23698955317379], [-50.77088305759395, -26.23708983095185], [-50.77101916870386, -26.23770427540414], [-50.77247416869112, -26.24118566429438], [-50.77486762823298, -26.23258286358962], [-50.77535972932179, -26.23257020396827], [-50.77835994956818, -26.23324412638934], [-50.78077740269162, -26.2339635937795], [-50.78693642448641, -26.23802352259617], [-50.7898064346321, -26.23466382842122], [-50.78907727227155, -26.23411938291205], [-50.78955308391641, -26.23349099684961], [-50.78543659955654, -26.23079085780857], [-50.78329467007484, -26.23329197254085], [-50.7816137115489, -26.23240921344496], [-50.78361564946942, -26.2297175463804], [-50.78347493411791, -26.2296543772131], [-50.78210975171697, -26.22920149870395], [-50.77804586856086, -26.22839706879596], [-50.7760669201925, -26.22849103028681], [-50.77415943814813, -26.22768285620317]]]}}, {"type": "Feature", "properties": {"cod_imovel": "SC-4207908-C91ED105E9BE4D3BB1D1F325AE1F6BF7", "municipio": "Irineopolis", "num_area": 10.5068, "mod_fiscal": 0.6567, "des_condic": "Aguardando analise", "ind_status": "AT", "dat_atuali": "19/04/2022"}, "geometry": {"type": "Polygon", "coordinates": [[[-50.77062308013095, -26.22912082064144], [-50.76946078457959, -26.23114077728388], [-50.76853302603265, -26.23169071668352], [-50.76862592582344, -26.23195956465606], [-50.77213088876757, -26.23197285733983], [-50.77312731760809, -26.22782518965453], [-50.77062308013095, -26.22912082064144]]]}}, {"type": "Feature", "properties": {"cod_imovel": "SC-4207908-4C4BD2EE02474764814B497D7F0795CA", "municipio": "Irineopolis", "num_area": 35.6468, "mod_fiscal": 2.2279, "des_condic": "Aguardando analise", "ind_status": "AT", "dat_atuali": "22/03/2016"}, "geometry": {"type": "Polygon", "coordinates": [[[-50.79291237356174, -26.22954408679915], [-50.79050486925429, -26.23354892765157], [-50.79182338329814, -26.23402629813144], [-50.79618365584046, -26.23428830087138], [-50.79803588772652, -26.23479445159123], [-50.79886983697469, -26.23528401758887], [-50.79968911384781, -26.23652011921365], [-50.8006457448884, -26.23679173299771], [-50.80057750174864, -26.23600210277779], [-50.80074564910446, -26.23607881704346], [-50.80120944693234, -26.23478211787688], [-50.80024007269213, -26.23448517021124], [-50.80001736996071, -26.23423890683854], [-50.79962131953531, -26.23259477315853], [-50.7973777000922, -26.23147723532737], [-50.79386196205981, -26.23026507064663], [-50.79291237356174, -26.22954408679915]]]}}, {"type": "Feature", "properties": {"cod_imovel": "SC-4207908-94326312DA0A4742927C0D92F4AAD9FC", "municipio": "Irineopolis", "num_area": 13.2965, "mod_fiscal": 0.831, "des_condic": "Aguardando analise", "ind_status": "AT", "dat_atuali": "31/01/2022"}, "geometry": {"type": "Polygon", "coordinates": [[[-50.78047437600392, -26.25444062259826], [-50.781463980674744, -26.255166747840708], [-50.78227766059764, -26.25417601687903], [-50.78254853263238, -26.25428903751289], [-50.78378743076519, -26.25269031367602], [-50.78277683797108, -26.2519045865181], [-50.78545677588485, -26.24929305327563], [-50.78525847688277, -26.24898145729962], [-50.78117666579376, -26.25142571332135], [-50.779644043103, -26.25329297977497], [-50.78073432903809, -26.25412170615728], [-50.78047437600392, -26.25444062259826]]]}}, {"type": "Feature", "properties": {"cod_imovel": "SC-4207908-7E79E3F9F1274BE68DC3C3E6812FEF38", "municipio": "Irineopolis", "num_area": 14.8914, "mod_fiscal": 0.9307, "des_condic": "Aguardando analise", "ind_status": "AT", "dat_atuali": "29/06/2023"}, "geometry": {"type": "Polygon", "coordinates": [[[-50.766685009002686, -26.23128015122541], [-50.76825141906738, -26.23137639069036], [-50.76797246932983, -26.230760456738352], [-50.76814413070678, -26.230356248309306], [-50.76799392700195, -26.22987504596656], [-50.768187046051025, -26.228643158895462], [-50.76805830001831, -26.227988713581226], [-50.768423080444336, -26.227161027468497], [-50.76855182647705, -26.22635258418343], [-50.767457485198975, -26.225890614068895], [-50.76711416244507, -26.22644882772634], [-50.76711416244507, -26.226853049736825], [-50.76683521270751, -26.227141778884157], [-50.76662063598633, -26.22731501602851], [-50.7663631439209, -26.22702628731124], [-50.76589107513428, -26.226853049736825], [-50.76574087142944, -26.226987790094785], [-50.765933990478516, -26.227141778884157], [-50.76582670211792, -26.227276518907612], [-50.76509714126587, -26.22744975585126], [-50.765204429626465, -26.227565247003657], [-50.765526294708245, -26.227488252914807], [-50.76574087142944, -26.227757732002797], [-50.76507568359375, -26.22841217861685], [-50.764667987823486, -26.22843142699092], [-50.764710903167725, -26.228835642110514], [-50.76438903808594, -26.22875864886272], [-50.76617002487182, -26.231472630075647], [-50.766685009002686, -26.23128015122541]]]}}, {"type": "Feature", "properties": {"cod_imovel": "SC-4207908-36B3A487F84B49B7AD4CD20A4B0DB7B6", "municipio": "Irineopolis", "num_area": 4.9242, "mod_fiscal": 0.3078, "des_condic": "Aguardando analise", "ind_status": "AT", "dat_atuali": "28/06/2023"}, "geometry": {"type": "Polygon", "coordinates": [[[-50.77410936355591, -26.227757732002797], [-50.77312231063843, -26.227776980485185], [-50.772199630737305, -26.232030816939538], [-50.773208141326904, -26.232223294547158], [-50.77410936355591, -26.227757732002797]]]}}, {"type": "Feature", "properties": {"cod_imovel": "SC-4207908-B27BEE75FDC348159A15FC21CC145CFB", "municipio": "Irineopolis", "num_area": 118.2866, "mod_fiscal": 7.3929, "des_condic": "Aguardando analise", "ind_status": "AT", "dat_atuali": "21/02/2023"}, "geometry": {"type": "Polygon", "coordinates": [[[-50.74850926756292, -26.22724351081982], [-50.74791197066216, -26.22813011704093], [-50.74724412591223, -26.22963669527468], [-50.74595858191782, -26.23487992071352], [-50.74538150561729, -26.23844774968037], [-50.74560399490525, -26.23983692930025], [-50.75248219021177, -26.2398692493832], [-50.75301179316558, -26.2392550167059], [-50.75386488429226, -26.2387070761876], [-50.75213957962988, -26.23606177831305], [-50.75499702899191, -26.23475802579992], [-50.7517475989663, -26.23037600059792], [-50.7566805157648, -26.22749319630246], [-50.75675596791795, -26.22542197637247], [-50.75368491737555, -26.22413274890822], [-50.75126983878161, -26.22497352499194], [-50.75020927138507, -26.22561528712256], [-50.74850926756292, -26.22724351081982]]]}}, {"type": "Feature", "properties": {"cod_imovel": "SC-4207908-F493A2EC4051474885126581EE1D7F84", "municipio": "Irineopolis", "num_area": 3.9937, "mod_fiscal": 0.2496, "des_condic": "Aguardando analise", "ind_status": "AT", "dat_atuali": "18/04/2016"}, "geometry": {"type": "Polygon", "coordinates": [[[-50.783915519714355, -26.238517136749167], [-50.785202980041504, -26.236958143363747], [-50.783658027648926, -26.235995791331646], [-50.7823920249939, -26.237593291340904], [-50.783915519714355, -26.238517136749167]]]}}, {"type": "Feature", "properties": {"cod_imovel": "SC-4207908-6F47B5FBE2A941B7919AA6FC1A18D344", "municipio": "Irineopolis", "num_area": 6.0144, "mod_fiscal": 0.3759, "des_condic": "Aguardando analise", "ind_status": "AT", "dat_atuali": "30/03/2016"}, "geometry": {"type": "Polygon", "coordinates": [[[-50.81507144745976, -26.24642178829193], [-50.81309795379639, -26.244579690039096], [-50.81196069717407, -26.245388006584058], [-50.81258305739031, -26.24604079834015], [-50.81187991887628, -26.24657654954868], [-50.81318878504911, -26.24782822540547], [-50.81507144745976, -26.24642178829193]]]}}, {"type": "Feature", "properties": {"cod_imovel": "SC-4207908-AA316DB094D9468498CF180923FFE765", "municipio": "Irineopolis", "num_area": 13.3736, "mod_fiscal": 0.8358, "des_condic": "Aguardando analise", "ind_status": "AT", "dat_atuali": "11/04/2016"}, "geometry": {"type": "Polygon", "coordinates": [[[-50.814921855926514, -26.249391015172154], [-50.812883377075195, -26.247408773348056], [-50.80994367599487, -26.249756667736523], [-50.810909271240234, -26.2505457035598], [-50.810630321502686, -26.250892107838308], [-50.81101655960083, -26.251450201447863], [-50.81144571304321, -26.251142288063775], [-50.812411308288574, -26.25200829237644], [-50.81331253051758, -26.251411712319484], [-50.81421375274658, -26.2502762772958], [-50.81472873687744, -26.250160808705676], [-50.814921855926514, -26.249391015172154]]]}}, {"type": "Feature", "properties": {"cod_imovel": "SC-4207908-71FD476BBCED42E588B9DEC698635804", "municipio": "Irineopolis", "num_area": 5.7284, "mod_fiscal": 0.358, "des_condic": "Aguardando analise", "ind_status": "AT", "dat_atuali": "19/12/2022"}, "geometry": {"type": "Polygon", "coordinates": [[[-50.78557679621791, -26.24850062995906], [-50.78675046982277, -26.24779358008968], [-50.78430738218753, -26.24483568129296], [-50.78311833381248, -26.24550217383277], [-50.78557679621791, -26.24850062995906]]]}}, {"type": "Feature", "properties": {"cod_imovel": "SC-4207908-4A8C2BDEE08244F1800CF7E145974381", "municipio": "Irineopolis", "num_area": 307.662, "mod_fiscal": 19.2289, "des_condic": "Aguardando analise", "ind_status": "AT", "dat_atuali": "31/01/2017"}, "geometry": {"type": "Polygon", "coordinates": [[[-50.74874779277216, -26.25147472169583], [-50.75428880877843, -26.26579338122084], [-50.74682444583565, -26.26524494009355], [-50.74664396954426, -26.2666942739671], [-50.74676567322185, -26.26700052004116], [-50.74656384636228, -26.26719196169518], [-50.746582065201, -26.26777887699601], [-50.74684969509786, -26.26825300893842], [-50.74665645977107, -26.26834955525488], [-50.7473541382057, -26.26840854784677], [-50.74921185619896, -26.27068744856954], [-50.75047992433568, -26.27010106081842], [-50.75165607041427, -26.26980389808907], [-50.75845470444652, -26.26919409725247], [-50.75914795384574, -26.26904757981372], [-50.76020475126207, -26.26854364719529], [-50.76083009435192, -26.26800347218528], [-50.76132833851959, -26.26728851605252], [-50.76393077666765, -26.26170427393954], [-50.7646697669819, -26.26067144881691], [-50.76585949589809, -26.25966187460914], [-50.76593751291816, -26.25885193863491], [-50.76576628829406, -26.25858146102082], [-50.76580739246467, -26.25828545194777], [-50.76558032670395, -26.2582710126767], [-50.76569705245321, -26.25789900028835], [-50.76555137827543, -26.25724921705257], [-50.7645742033798, -26.25656131046866], [-50.76415836013603, -26.25664572130924], [-50.76373218069218, -26.25557789285941], [-50.76386444577068, -26.25530809598689], [-50.76370428845379, -26.25486339999963], [-50.76410788523885, -26.25483473827614], [-50.76416140629274, -26.25395014510853], [-50.76497042590708, -26.25313183930311], [-50.7641611815043, -26.25290647490433], [-50.76422955577164, -26.25256044136142], [-50.76462181122374, -26.25250532025587], [-50.76424665045299, -26.25198578792307], [-50.76455705394226, -26.25183404791941], [-50.76466807877048, -26.25151513277051], [-50.76406049124143, -26.25077642514915], [-50.7635861772331, -26.24979505157315], [-50.76232274485173, -26.2489378315964], [-50.76237851086443, -26.24793924737664], [-50.76132013971737, -26.24726363560493], [-50.7611613517676, -26.24687815053992], [-50.75914312876673, -26.24752113385897], [-50.75536862659078, -26.2495071325776], [-50.75253900308735, -26.24914900456966], [-50.75119810857189, -26.24917360373127], [-50.74952075091109, -26.25008565499239], [-50.74874779277216, -26.25147472169583]]]}}, {"type": "Feature", "properties": {"cod_imovel": "SC-4207908-07BD51E481A243C4849653E187FF42CC", "municipio": "Irineopolis", "num_area": 4.3218, "mod_fiscal": 0.2701, "des_condic": "Aguardando analise", "ind_status": "AT", "dat_atuali": "06/07/2018"}, "geometry": {"type": "Polygon", "coordinates": [[[-50.810372829437256, -26.24529177871878], [-50.81080198287964, -26.244926112103965], [-50.80575942993164, -26.240268573514378], [-50.80535173416138, -26.240691993826044], [-50.810372829437256, -26.24529177871878]]]}}, {"type": "Feature", "properties": {"cod_imovel": "SC-4207908-DA90367174EE4175B60536A5F54FFA93", "municipio": "Irineopolis", "num_area": 3.0498, "mod_fiscal": 0.1906, "des_condic": "Aguardando analise", "ind_status": "AT", "dat_atuali": "03/05/2016"}, "geometry": {"type": "Polygon", "coordinates": [[[-50.78932885465137, -26.2383265506032], [-50.790202617645264, -26.237169859741726], [-50.78863161075065, -26.23612715232121], [-50.78773057556063, -26.23720466318271], [-50.78932885465137, -26.2383265506032]]]}}, {"type": "Feature", "properties": {"cod_imovel": "SC-4207908-9F152079464B404C831BB620F0B84AFF", "municipio": "Irineopolis", "num_area": 5.9156, "mod_fiscal": 0.3697, "des_condic": "Aguardando analise", "ind_status": "AT", "dat_atuali": "25/04/2015"}, "geometry": {"type": "Polygon", "coordinates": [[[-50.81702470779419, -26.248159334910035], [-50.815114974975586, -26.246446507843125], [-50.81329107284546, -26.247889903112263], [-50.814921855926514, -26.24931403553829], [-50.81567287445068, -26.248775176673146], [-50.81668138504028, -26.248486501253105], [-50.81678867340088, -26.248217070213983], [-50.81702470779419, -26.248159334910035]]]}}, {"type": "Feature", "properties": {"cod_imovel": "SC-4207908-3700E59CC23A47BE905C9F6A80B62BCC", "municipio": "Irineopolis", "num_area": 2.9924, "mod_fiscal": 0.187, "des_condic": "Aguardando analise", "ind_status": "AT", "dat_atuali": "19/04/2015"}, "geometry": {"type": "Polygon", "coordinates": [[[-50.81052303314209, -26.24527253313614], [-50.8113169670105, -26.2460231084965], [-50.81329107284546, -26.24461818143063], [-50.81275463104248, -26.244137038120098], [-50.812175273895264, -26.244002317636177], [-50.81052303314209, -26.24527253313614]]]}}, {"type": "Feature", "properties": {"cod_imovel": "SC-4207908-511DA6C1491742EE850BA12CC42E9E17", "municipio": "Irineopolis", "num_area": 0.6965, "mod_fiscal": 0.0435, "des_condic": "Aguardando analise", "ind_status": "AT", "dat_atuali": "11/04/2016"}, "geometry": {"type": "Polygon", "coordinates": [[[-50.79974034059062, -26.2456386740813], [-50.8002357945151, -26.2453860519651], [-50.79968098672575, -26.24440467338915], [-50.79917958647352, -26.24470863813483], [-50.79974034059062, -26.2456386740813]]]}}, {"type": "Feature", "properties": {"cod_imovel": "SC-4207908-8B6D74FD4AF5424B828E7715BB8D5C82", "municipio": "Irineopolis", "num_area": 3.0902, "mod_fiscal": 0.1931, "des_condic": "Aguardando analise", "ind_status": "AT", "dat_atuali": "08/06/2015"}, "geometry": {"type": "Polygon", "coordinates": [[[-50.80322742462158, -26.251142288063775], [-50.80240270251801, -26.24950272266462], [-50.8009598994953, -26.25075877195343], [-50.80230474472046, -26.251950558956437], [-50.80322742462158, -26.251142288063775]]]}}, {"type": "Feature", "properties": {"cod_imovel": "SC-4207908-B4AD99D753C74E07AC2A4DB0A872422B", "municipio": "Irineopolis", "num_area": 3.4002, "mod_fiscal": 0.2125, "des_condic": "Aguardando analise", "ind_status": "AT", "dat_atuali": "15/01/2018"}, "geometry": {"type": "Polygon", "coordinates": [[[-50.805931091308594, -26.249063851375983], [-50.8052659034729, -26.249679688344916], [-50.80775499343872, -26.251950558956437], [-50.80844163894653, -26.251334734024468], [-50.805931091308594, -26.249063851375983]]]}}, {"type": "Feature", "properties": {"cod_imovel": "SC-4207908-E33EDAFE3E1746BF9E898F42382B97FF", "municipio": "Irineopolis", "num_area": 12.6404, "mod_fiscal": 0.79, "des_condic": "Aguardando analise", "ind_status": "AT", "dat_atuali": "02/10/2014"}, "geometry": {"type": "Polygon", "coordinates": [[[-50.77156976406055, -26.22813836892093], [-50.77102974853091, -26.22648831266586], [-50.76872012037968, -26.2262981345316], [-50.7683530205853, -26.2267635859362], [-50.76798748377892, -26.22800280737431], [-50.76817198326002, -26.22862089451563], [-50.7679570987548, -26.22931221324184], [-50.7681300733963, -26.23040220114406], [-50.76783172008853, -26.23084791499352], [-50.76830548731272, -26.23145570871236], [-50.76930353545953, -26.23093635466582], [-50.77022176950768, -26.22911949607756], [-50.77156976406055, -26.22813836892093]]]}}, {"type": "Feature", "properties": {"cod_imovel": "SC-4207908-D83A0B998A164957896BAD94FF110534", "municipio": "Irineopolis", "num_area": 3.8559, "mod_fiscal": 0.241, "des_condic": "Aguardando analise", "ind_status": "AT", "dat_atuali": "08/05/2015"}, "geometry": {"type": "Polygon", "coordinates": [[[-50.81713199615478, -26.245330269874444], [-50.81578016281128, -26.244233266941567], [-50.81470727920532, -26.244425724345465], [-50.8147931098938, -26.244637427121624], [-50.81382751464844, -26.24498384901437], [-50.815114974975586, -26.246215562936225], [-50.81713199615478, -26.245330269874444]]]}}, {"type": "Feature", "properties": {"cod_imovel": "SC-4207908-94D79D0C3CF741FB8CCDF8EF2F8581A0", "municipio": "Irineopolis", "num_area": 14.0221, "mod_fiscal": 0.8764, "des_condic": "Aguardando analise", "ind_status": "AT", "dat_atuali": "18/04/2016"}, "geometry": {"type": "Polygon", "coordinates": [[[-50.78868511423205, -26.24694955443498], [-50.78570043350395, -26.24867341199423], [-50.78582412489732, -26.24900393891997], [-50.7854890701121, -26.24917483231274], [-50.7881592352477, -26.25130065225729], [-50.78900420772113, -26.25069889096771], [-50.79106092453003, -26.248698196631253], [-50.78868511423205, -26.24694955443498]]]}}, {"type": "Feature", "properties": {"cod_imovel": "SC-4207908-CE525573C540417A99D963AC18B8C60B", "municipio": "Irineopolis", "num_area": 3.206, "mod_fiscal": 0.2004, "des_condic": "Aguardando analise", "ind_status": "AT", "dat_atuali": "18/04/2016"}, "geometry": {"type": "Polygon", "coordinates": [[[-50.7832932472229, -26.23578407281551], [-50.78211307525634, -26.234898700297762], [-50.78078269958496, -26.236399980155436], [-50.78196287155151, -26.23724684741994], [-50.7832932472229, -26.23578407281551]]]}}, {"type": "Feature", "properties": {"cod_imovel": "SC-4207908-3149D297BCEA4FF0915576980D978DA4", "municipio": "Irineopolis", "num_area": 17.9731, "mod_fiscal": 1.1233, "des_condic": "Aguardando analise", "ind_status": "AT", "dat_atuali": "18/05/2017"}, "geometry": {"type": "Polygon", "coordinates": [[[-50.80835580825806, -26.246735188331304], [-50.80381323702861, -26.24254699925647], [-50.80314159293978, -26.24208647726816], [-50.80215787673978, -26.24262239329875], [-50.80211802136856, -26.24287163266366], [-50.80137480147884, -26.24339569811092], [-50.80647600789167, -26.24821823596643], [-50.80835580825806, -26.246735188331304]]]}}, {"type": "Feature", "properties": {"cod_imovel": "SC-4207908-3BE6EE6D4396492FA60F37C9FD500FC2", "municipio": "Irineopolis", "num_area": 41.3282, "mod_fiscal": 2.583, "des_condic": "Aguardando analise", "ind_status": "AT", "dat_atuali": "28/09/2016"}, "geometry": {"type": "Polygon", "coordinates": [[[-50.783360779379, -26.24977694598979], [-50.78561760998834, -26.24850646325282], [-50.78310238309075, -26.24547388685526], [-50.77692909486962, -26.24698226647116], [-50.77452335190599, -26.24649397759522], [-50.77234721423233, -26.24625530730502], [-50.77019286075923, -26.24660948718313], [-50.77476148401164, -26.24899744365494], [-50.783360779379, -26.24977694598979]]]}}, {"type": "Feature", "properties": {"cod_imovel": "SC-4207908-647B677D741C4D09A84A62882D65FB08", "municipio": "Irineopolis", "num_area": 17.4952, "mod_fiscal": 1.0934, "des_condic": "Aguardando analise", "ind_status": "AT", "dat_atuali": "04/05/2016"}, "geometry": {"type": "Polygon", "coordinates": [[[-50.805180072784424, -26.249487239642765], [-50.80378532409668, -26.250815129199005], [-50.810415744781494, -26.25658838560147], [-50.810866355895996, -26.25585712232748], [-50.810866355895996, -26.25504887861581], [-50.810630321502686, -26.254259873377418], [-50.805180072784424, -26.249487239642765]]]}}, {"type": "Feature", "properties": {"cod_imovel": "SC-4207908-E2B85C79C01646FCA9A2C4D01F718D65", "municipio": "Irineopolis", "num_area": 3.0315, "mod_fiscal": 0.1895, "des_condic": "Aguardando analise", "ind_status": "AT", "dat_atuali": "20/04/2016"}, "geometry": {"type": "Polygon", "coordinates": [[[-50.79504146978756, -26.24964000073981], [-50.79443546766198, -26.24886888449562], [-50.79354887412094, -26.24707947645767], [-50.79252801665873, -26.2480947365728], [-50.79454152222107, -26.25000374844446], [-50.79504146978756, -26.24964000073981]]]}}, {"type": "Feature", "properties": {"cod_imovel": "SC-4207908-101A7451BE1A45199ED225838E29CA76", "municipio": "Irineopolis", "num_area": 49.5623, "mod_fiscal": 3.0976, "des_condic": "Aguardando analise", "ind_status": "AT", "dat_atuali": "22/02/2021"}, "geometry": {"type": "Polygon", "coordinates": [[[-50.823912620544434, -26.249275545702222], [-50.81532955169677, -26.259975229143276], [-50.82052230834961, -26.2605525221673], [-50.82103729248047, -26.259551879101792], [-50.82172393798828, -26.25878214779988], [-50.824856758117676, -26.253817258336266], [-50.824856758117676, -26.25154642421302], [-50.824599266052246, -26.25016080870566], [-50.823912620544434, -26.249275545702222]]]}}, {"type": "Feature", "properties": {"cod_imovel": "SC-4207908-B1221AF768C7493EBAABF480DD94A84B", "municipio": "Irineopolis", "num_area": 9.5939, "mod_fiscal": 0.5996, "des_condic": "Aguardando analise", "ind_status": "AT", "dat_atuali": "20/04/2015"}, "geometry": {"type": "Polygon", "coordinates": [[[-50.790417194366455, -26.249371770268464], [-50.78970909118652, -26.25018005347867], [-50.796682834625244, -26.256453679554824], [-50.79683303833008, -26.255453001174637], [-50.790417194366455, -26.249371770268464]]]}}, {"type": "Feature", "properties": {"cod_imovel": "SC-4207908-666317BEA5BB49D0912F28E259817DEE", "municipio": "Irineopolis", "num_area": 15.8556, "mod_fiscal": 0.991, "des_condic": "Aguardando analise", "ind_status": "AT", "dat_atuali": "18/04/2016"}, "geometry": {"type": "Polygon", "coordinates": [[[-50.82339763641357, -26.24831329565681], [-50.82290410995483, -26.247947638550098], [-50.82030773162842, -26.24735103764248], [-50.81880569458008, -26.246542734752214], [-50.815908908843994, -26.24713933980991], [-50.8167028427124, -26.247812922483877], [-50.817475318908684, -26.248120844691464], [-50.81902027130127, -26.249429504969964], [-50.818891525268555, -26.249698933197603], [-50.819449424743645, -26.249872136728303], [-50.81949234008789, -26.250218543015087], [-50.82045793533325, -26.249718178047097], [-50.820865631103516, -26.249718178047097], [-50.82101583480835, -26.250045340000796], [-50.820930004119866, -26.250507214131776], [-50.82131624221802, -26.25048796941298], [-50.82256078720092, -26.249487239642765], [-50.82258224487305, -26.24917932105629], [-50.82339763641357, -26.24831329565681]]]}}, {"type": "Feature", "properties": {"cod_imovel": "SC-4207908-A7AF1625E7A0496B93408FC6A2F41ACD", "municipio": "Irineopolis", "num_area": 3.025, "mod_fiscal": 0.1891, "des_condic": "Aguardando analise", "ind_status": "AT", "dat_atuali": "05/05/2016"}, "geometry": {"type": "Polygon", "coordinates": [[[-50.8112444055556, -26.2418744409126], [-50.8097911055556, -26.2423055631348], [-50.8118315111111, -26.244022235357], [-50.8125797777778, -26.2434560131348], [-50.8120779, -26.2431012548015], [-50.8122497833333, -26.242782160357], [-50.8112444055556, -26.2418744409126]]]}}, {"type": "Feature", "properties": {"cod_imovel": "SC-4207908-5BC26EFC15014912A06CED685181E6D8", "municipio": "Irineopolis", "num_area": 0.5949, "mod_fiscal": 0.0372, "des_condic": "Aguardando analise", "ind_status": "AT", "dat_atuali": "17/05/2018"}, "geometry": {"type": "Polygon", "coordinates": [[[-50.80157518386841, -26.24785141280443], [-50.800888538360596, -26.24652348937676], [-50.800695419311516, -26.247716696626647], [-50.80157518386841, -26.24785141280443]]]}}, {"type": "Feature", "properties": {"cod_imovel": "SC-4207908-F88794929E234C8285CB44A6B7348787", "municipio": "Irineopolis", "num_area": 0.4978, "mod_fiscal": 0.0311, "des_condic": "Aguardando analise", "ind_status": "AT", "dat_atuali": "17/05/2018"}, "geometry": {"type": "Polygon", "coordinates": [[[-50.80024480819702, -26.24765896107407], [-50.80052375793456, -26.247697451445653], [-50.80080270767212, -26.246369526258487], [-50.80056667327881, -26.245984617570333], [-50.80024480819702, -26.24765896107407]]]}}, {"type": "Feature", "properties": {"cod_imovel": "SC-4207908-25345C0359B94F89B5A90D51CDFAA67A", "municipio": "Irineopolis", "num_area": 264.8364, "mod_fiscal": 16.5523, "des_condic": "Aguardando analise", "ind_status": "AT", "dat_atuali": "22/12/2022"}, "geometry": {"type": "Polygon", "coordinates": [[[-50.86562668246108, -26.24283172635401], [-50.86420441233547, -26.24333324526229], [-50.86256470622458, -26.24446059344669], [-50.86130801503383, -26.24555826674677], [-50.86048666121411, -26.2465713129185], [-50.85844390320738, -26.25008297085975], [-50.85719277877701, -26.25183332987056], [-50.85514148566505, -26.25561327997775], [-50.85171209200734, -26.26038670882271], [-50.85192616546583, -26.26051647146332], [-50.8524711973581, -26.25977411882744], [-50.85441809514191, -26.25818762506295], [-50.8563591672948, -26.2557012412724], [-50.85751478846358, -26.25383061928926], [-50.85884298526153, -26.25354870849727], [-50.86007167851961, -26.25420612655914], [-50.86058108798122, -26.25472258313629], [-50.86178039803906, -26.25665605289029], [-50.86268621103439, -26.25701302402205], [-50.86491556436353, -26.25667016208998], [-50.86639241402659, -26.25753537083738], [-50.86781950052398, -26.25901906412851], [-50.86972632118549, -26.26140313251509], [-50.87115810034344, -26.26409342900893], [-50.87153840034442, -26.26522052035908], [-50.87814216760317, -26.26385547793763], [-50.87812579020752, -26.2621424534077], [-50.87751912177248, -26.26003421444442], [-50.87693827798491, -26.25913282463099], [-50.87578881203735, -26.25612137593609], [-50.87380393124286, -26.25181270626339], [-50.8728168590362, -26.25016845959991], [-50.87058055256875, -26.25032657303316], [-50.87036173745549, -26.2500596568049], [-50.8699707726247, -26.25010603948153], [-50.86990702467135, -26.24998241218636], [-50.87179325820289, -26.2483650412827], [-50.87118671383472, -26.24683989908079], [-50.87025041768022, -26.24585234118112], [-50.86878695505325, -26.2448363230042], [-50.86636784534581, -26.24438152493692], [-50.86562668246108, -26.24283172635401]]]}}, {"type": "Feature", "properties": {"cod_imovel": "SC-4207908-2E50F6BE876640719F711D039AD2F9B1", "municipio": "Irineopolis", "num_area": 1.0107, "mod_fiscal": 0.0632, "des_condic": "Aguardando analise", "ind_status": "AT", "dat_atuali": "01/04/2019"}, "geometry": {"type": "Polygon", "coordinates": [[[-50.78600570627397, -26.23762540307388], [-50.7856443002555, -26.23732410764184], [-50.78438940555778, -26.23882105224235], [-50.78479096310048, -26.23908559337203], [-50.78600570627397, -26.23762540307388]]]}}, {"type": "Feature", "properties": {"cod_imovel": "SC-4207908-36382280630049FAAF459F586C5AB5CA", "municipio": "Irineopolis", "num_area": 33.7746, "mod_fiscal": 2.1109, "des_condic": "Aguardando analise", "ind_status": "AT", "dat_atuali": "25/01/2023"}, "geometry": {"type": "Polygon", "coordinates": [[[-50.76289333544403, -26.24661705319699], [-50.76116139101515, -26.24687816431291], [-50.7613200021248, -26.24726371986635], [-50.76237833544877, -26.24793927542068], [-50.76232277989373, -26.24893788653527], [-50.76358611321586, -26.24979510875957], [-50.76406055765609, -26.25077649765635], [-50.76466805765067, -26.25151510876217], [-50.76455694654059, -26.25183399765636], [-50.76424666876555, -26.25198566432083], [-50.76462194654006, -26.25250538654601], [-50.76422944654352, -26.25256038654425], [-50.7641611132109, -26.25290649765449], [-50.76497055764805, -26.25313177543591], [-50.76509083542476, -26.25341760876802], [-50.77011583537941, -26.24910316431753], [-50.76785916873282, -26.24712510875926], [-50.7671972242944, -26.24711649764215], [-50.76583333541767, -26.24674760875701], [-50.76435722431974, -26.2468703865334], [-50.76289333544403, -26.24661705319699]]]}}, {"type": "Feature", "properties": {"cod_imovel": "SC-4207908-96719FEA3FC641ABADAD0878531555DC", "municipio": "Irineopolis", "num_area": 261.6575, "mod_fiscal": 16.3536, "des_condic": "Aguardando analise", "ind_status": "AT", "dat_atuali": "18/12/2018"}, "geometry": {"type": "Polygon", "coordinates": [[[-50.77034250000023, -26.24660332987822], [-50.77197583000024, -26.246326939878227], [-50.774771670000234, -26.24655582987822], [-50.77101917000024, -26.237704169878437], [-50.77088306000023, -26.237089719878444], [-50.77099194000023, -26.236989439878446], [-50.77080250000023, -26.236915279878446], [-50.77068333000023, -26.236681109878454], [-50.77077611000023, -26.236577499878464], [-50.770664440000225, -26.23662693987845], [-50.770358060000234, -26.23630305987846], [-50.770619170000245, -26.236170559878474], [-50.770589720000224, -26.235853059878476], [-50.77017194000023, -26.23560388987848], [-50.770070560000235, -26.235179719878488], [-50.769792500000236, -26.234993329878495], [-50.76973361000024, -26.23481277987849], [-50.76985556000024, -26.234805829878496], [-50.769422780000234, -26.2344133298785], [-50.76881583000024, -26.232885829878544], [-50.76847083000024, -26.232413059878553], [-50.768572780000234, -26.232065279878565], [-50.767853330000236, -26.231869439878565], [-50.76647306000024, -26.231798329878565], [-50.76279750000024, -26.233964999878523], [-50.762218060000244, -26.23500471987848], [-50.76188111000024, -26.23531110987848], [-50.761614440000244, -26.236306389878454], [-50.76162833000024, -26.237401669878437], [-50.76135361000024, -26.23735193987843], [-50.76184306000024, -26.23794499987842], [-50.761913890000244, -26.238255559878404], [-50.76168167000024, -26.23849832987841], [-50.76172083000024, -26.23906055987839], [-50.76153250000024, -26.239107779878395], [-50.761020000000244, -26.24096332987835], [-50.76071694000024, -26.24078443987836], [-50.76085250000024, -26.241075559878343], [-50.76028306000024, -26.241239439878342], [-50.760732500000245, -26.24175888987833], [-50.76165500000024, -26.242276109878315], [-50.76209722000025, -26.242853059878307], [-50.762041940000245, -26.243116939878295], [-50.76279333000024, -26.243900559878277], [-50.76278611000024, -26.24405638987828], [-50.76258028000024, -26.243977779878275], [-50.76172278000024, -26.24417471987828], [-50.76179611000024, -26.244443609878264], [-50.76229000000024, -26.244829169878262], [-50.76223444000025, -26.24519416987825], [-50.76199250000024, -26.245908609878242], [-50.76172194000024, -26.245840279878237], [-50.761744720000245, -26.246294169878233], [-50.76138694000025, -26.24613193987823], [-50.76108972000024, -26.24642832987822], [-50.76120333000024, -26.246782499878208], [-50.76304500000024, -26.246481109878225], [-50.76412722000024, -26.246708609878205], [-50.766163610000234, -26.24669305987821], [-50.76714472000023, -26.247005279878202], [-50.76780972000024, -26.2470194398782], [-50.770699849200376, -26.24962799439705], [-50.76949096546884, -26.249676827271585], [-50.76493828005163, -26.253574415973244], [-50.76665234288332, -26.25564064097657], [-50.7666201504853, -26.255839836209734], [-50.76714759357052, -26.256012704092296], [-50.76839258798026, -26.258283002485637], [-50.775307605223524, -26.25438820380349], [-50.77578091674748, -26.254192860583352], [-50.77622248254172, -26.254334264890332], [-50.778322525792575, -26.254170287551748], [-50.779536191689225, -26.253365847067613], [-50.78136550984336, -26.25103918881886], [-50.78316285613448, -26.249912364976637], [-50.77463673159142, -26.249031770541396], [-50.77024097916714, -26.24682293026856], [-50.77034250000023, -26.24660332987822]]]}}, {"type": "Feature", "properties": {"cod_imovel": "SC-4207908-1BED4C29B41A46018F73ACFD1FB54FD2", "municipio": "Irineopolis", "num_area": 5.5302, "mod_fiscal": 0.3456, "des_condic": "Aguardando analise", "ind_status": "AT", "dat_atuali": "29/08/2019"}, "geometry": {"type": "Polygon", "coordinates": [[[-50.80943995816264, -26.24596872882001], [-50.80847368201951, -26.24670975481813], [-50.81085095882474, -26.24888240305056], [-50.81272801954186, -26.24736787935511], [-50.81201590085266, -26.24671288281987], [-50.81108280318341, -26.24744213283131], [-50.80943995816264, -26.24596872882001]]]}}, {"type": "Feature", "properties": {"cod_imovel": "SC-4207908-9D2721892C3443D1906F04070632C874", "municipio": "Irineopolis", "num_area": 13.2469, "mod_fiscal": 0.8279, "des_condic": "Aguardando analise", "ind_status": "AT", "dat_atuali": "21/12/2018"}, "geometry": {"type": "Polygon", "coordinates": [[[-50.78553027147051, -26.24922156669792], [-50.78281096826728, -26.25190560695089], [-50.78506281003401, -26.25374329605389], [-50.78800888277081, -26.25131850361068], [-50.78553027147051, -26.24922156669792]]]}}, {"type": "Feature", "properties": {"cod_imovel": "SC-4207908-7415F358862C4B279E8C6D30CE398EDE", "municipio": "Irineopolis", "num_area": 4.609, "mod_fiscal": 0.2881, "des_condic": "Aguardando analise", "ind_status": "AT", "dat_atuali": "17/05/2018"}, "geometry": {"type": "Polygon", "coordinates": [[[-50.800652503967285, -26.247832167645736], [-50.800201892852776, -26.25016080870566], [-50.80099582672119, -26.250892107838308], [-50.802412033081055, -26.249660443489038], [-50.801510810852044, -26.247928393407335], [-50.800652503967285, -26.247832167645736]]]}}, {"type": "Feature", "properties": {"cod_imovel": "SC-4207908-4AB376FC956A47BE83A1BC463830BB3F", "municipio": "Irineopolis", "num_area": 4.1747, "mod_fiscal": 0.2609, "des_condic": "Aguardando analise", "ind_status": "AT", "dat_atuali": "23/10/2020"}, "geometry": {"type": "Polygon", "coordinates": [[[-50.79671875994532, -26.25532889238648], [-50.7967969124397, -26.25454452015653], [-50.79650131980013, -26.25451825815329], [-50.79066760241053, -26.24912061101754], [-50.79039326789218, -26.24946050441665], [-50.79671875994532, -26.25532889238648]]]}}, {"type": "Feature", "properties": {"cod_imovel": "SC-4207908-270B3E7A7DDE421F87329FBEF76D9F3B", "municipio": "Irineopolis", "num_area": 30.9738, "mod_fiscal": 1.9359, "des_condic": "Aguardando analise", "ind_status": "AT", "dat_atuali": "22/11/2017"}, "geometry": {"type": "Polygon", "coordinates": [[[-50.78554721316369, -26.23051189132195], [-50.78680910867334, -26.22853592298677], [-50.78409365060686, -26.22798293599618], [-50.77929757709681, -26.22594795736739], [-50.77750068290103, -26.22583823020253], [-50.77101495051656, -26.22653029527155], [-50.77163262683794, -26.22830185212512], [-50.77315175026696, -26.22752058386815], [-50.77427706482291, -26.22746262650899], [-50.77597029436898, -26.22823730392699], [-50.77800882841831, -26.22811589404233], [-50.78277449192836, -26.22909382363539], [-50.78392693267347, -26.22953143615087], [-50.78554721316369, -26.23051189132195]]]}}, {"type": "Feature", "properties": {"cod_imovel": "SC-4207908-589B2A0132D14F88AC6F7AAF45556D65", "municipio": "Irineopolis", "num_area": 0.5047, "mod_fiscal": 0.0315, "des_condic": "Aguardando analise", "ind_status": "AT", "dat_atuali": "17/05/2018"}, "geometry": {"type": "Polygon", "coordinates": [[[-50.80007314682007, -26.24840952101996], [-50.79979419708252, -26.249814402246745], [-50.80007314682007, -26.25004534000078], [-50.80035209655762, -26.248428766083034], [-50.80007314682007, -26.24840952101996]]]}}, {"type": "Feature", "properties": {"cod_imovel": "SC-4213609-6F621088AB4A4119B6EB0731B751C7A1", "municipio": "Porto Uniao", "num_area": 24.4207, "mod_fiscal": 1.5263, "des_condic": "Aguardando analise", "ind_status": "AT", "dat_atuali": "30/04/2015"}, "geometry": {"type": "Polygon", "coordinates": [[[-50.90860350495646, -26.25238776039984], [-50.91460385977135, -26.25877309524543], [-50.91588390172609, -26.25760510038239], [-50.91030346348397, -26.24971882262038], [-50.90954850710837, -26.2506297153712], [-50.90860350495646, -26.25238776039984]]]}}, {"type": "Feature", "properties": {"cod_imovel": "SC-4213609-211E7BC4F3454029BF7380F05EE4C5EC", "municipio": "Porto Uniao", "num_area": 24.2, "mod_fiscal": 1.5125, "des_condic": "Aguardando analise", "ind_status": "AT", "dat_atuali": "18/04/2016"}, "geometry": {"type": "Polygon", "coordinates": [[[-50.9962496028339, -26.2501856947329], [-50.9961897883477, -26.251060451342], [-50.9994750011455, -26.2515672246397], [-51.0034271406552, -26.25037386237], [-51.0031467263584, -26.2496201718836], [-51.0033451775563, -26.2488009761267], [-50.9974339481433, -26.2470778231198], [-50.9968875442307, -26.2474392528994], [-50.9971278972224, -26.247824861078], [-50.9962496028339, -26.2501856947329]]]}}, {"type": "Feature", "properties": {"cod_imovel": "SC-4213609-79D9275C588040D48A57F3BD4BBE17C6", "municipio": "Porto Uniao", "num_area": 448.3627, "mod_fiscal": 28.0227, "des_condic": "Aguardando analise", "ind_status": "AT", "dat_atuali": "17/08/2022"}, "geometry": {"type": "Polygon", "coordinates": [[[-50.91845304992042, -26.24399193930696], [-50.9187063337283, -26.25518119407642], [-50.92303008974131, -26.25454167350104], [-50.92471044093844, -26.25815619478704], [-50.92380268217732, -26.25949055174674], [-50.92778037398535, -26.26225117611272], [-50.9286324326885, -26.2607606210927], [-50.93012429232349, -26.26013791760107], [-50.93077875188241, -26.25953061570792], [-50.93092758362175, -26.2589415774258], [-50.93087002231334, -26.25709640311114], [-50.93073913220956, -26.25649225623522], [-50.93029398920148, -26.25564684105607], [-50.93307757041062, -26.25444750564752], [-50.93473365286467, -26.25464521814199], [-50.93756071650402, -26.2500298644347], [-50.94191734894586, -26.24435481484893], [-50.94268306243928, -26.24275416724513], [-50.9430338308102, -26.24088241673309], [-50.94288183389998, -26.23917067465646], [-50.94187629456582, -26.23657581067518], [-50.94126171001259, -26.23553760087153], [-50.94042927580047, -26.23486118052069], [-50.93983118264201, -26.23456683666947], [-50.93812539007128, -26.23427272291316], [-50.93631607046657, -26.23430202721169], [-50.9345059003461, -26.23464693673743], [-50.93265358591637, -26.23523020400591], [-50.92997481109417, -26.23653869141904], [-50.92893011248632, -26.23719870533776], [-50.92482985385123, -26.24049357310667], [-50.92163407171183, -26.24238657308509], [-50.91845304992042, -26.24399193930696]]]}}, {"type": "Feature", "properties": {"cod_imovel": "SC-4213609-F6D0456C939B4106845E1DECEA20D921", "municipio": "Porto Uniao", "num_area": 44.5948, "mod_fiscal": 2.7872, "des_condic": "Aguardando analise", "ind_status": "AT", "dat_atuali": "30/08/2023"}, "geometry": {"type": "Polygon", "coordinates": [[[-50.910301208496094, -26.249795157413196], [-50.916008949279785, -26.25756981065446], [-50.916523933410645, -26.25708872097841], [-50.91684579849243, -26.256126535648264], [-50.91744661331176, -26.25547224507094], [-50.915300846099846, -26.245984617570333], [-50.91171741485596, -26.24852499135055], [-50.910301208496094, -26.249795157413196]]]}}, {"type": "Feature", "properties": {"cod_imovel": "SC-4213609-EF449740C85E4E95AD83D5DBB0D26CFB", "municipio": "Porto Uniao", "num_area": 27.798, "mod_fiscal": 1.7374, "des_condic": "Aguardando analise", "ind_status": "AT", "dat_atuali": "12/05/2015"}, "geometry": {"type": "Polygon", "coordinates": [[[-50.91875553131103, -26.255222074170327], [-50.91841220855713, -26.24409854656919], [-50.91731786727905, -26.24465667280942], [-50.91512918472289, -26.246177072073767], [-50.91746807098389, -26.25552997674072], [-50.91789722442627, -26.25529904988945], [-50.91875553131103, -26.255222074170327]]]}}, {"type": "Feature", "properties": {"cod_imovel": "SC-4213609-5C33B497B93047F380C4F4BBC0B88AA7", "municipio": "Porto Uniao", "num_area": 26.6477, "mod_fiscal": 1.6655, "des_condic": "Aguardando analise", "ind_status": "AT", "dat_atuali": "22/12/2022"}, "geometry": {"type": "Polygon", "coordinates": [[[-51.00347828857421, -26.24888960187949], [-51.00325275872095, -26.24840824829194], [-51.00182947793584, -26.24767060944641], [-51.00194284972296, -26.2448170412839], [-51.0029337957494, -26.24485469577285], [-51.00289502021973, -26.24247439443855], [-51.00198663216251, -26.24256471306401], [-50.99964817043322, -26.24238647306013], [-50.99814605129806, -26.24321233973007], [-50.99781864276578, -26.24388305312221], [-50.9979513063104, -26.24619918892465], [-50.99744862686928, -26.24710390386923], [-51.00347828857421, -26.24888960187949]]]}}, {"type": "Feature", "properties": {"cod_imovel": "SC-4213609-7F6A2A8882814A13A21ADC3D7C923D18", "municipio": "Porto Uniao", "num_area": 303.74, "mod_fiscal": 18.9838, "des_condic": "Aguardando analise", "ind_status": "AT", "dat_atuali": "15/05/2019"}, "geometry": {"type": "Polygon", "coordinates": [[[-50.97304601826032, -26.253522568074505], [-50.97219976363235, -26.25477990139357], [-50.97282611200195, -26.25633436067], [-50.981348898371046, -26.264542562046746], [-50.991954861282906, -26.256656530947392], [-50.992013748789816, -26.25512181590786], [-50.99243349986262, -26.25362130570429], [-50.99292177630708, -26.253069826130123], [-50.99380355860655, -26.25248553106085], [-50.99440839647736, -26.252485555877414], [-50.995129834059746, -26.25224266118341], [-50.99572740232585, -26.251651779862968], [-50.996158180255385, -26.24947875812841], [-50.996585246230104, -26.24871124197563], [-50.9968565474582, -26.24727336972348], [-50.99617686246615, -26.24742506721311], [-50.995254295550396, -26.247278716355236], [-50.99374673770351, -26.24637105654014], [-50.99318434708193, -26.24620365075485], [-50.991684280904806, -26.246534566864273], [-50.99100862140988, -26.24652236340636], [-50.989560682814826, -26.245856148790423], [-50.9888841852079, -26.24585609804453], [-50.9869473649022, -26.246295898500804], [-50.9852201834335, -26.245811532233514], [-50.98214911088186, -26.246364042930207], [-50.980456007079106, -26.247112378738787], [-50.978863848457536, -26.248676165065397], [-50.97719877095295, -26.248844058100662], [-50.97517453865173, -26.25009152934381], [-50.9736411680434, -26.25157047108081], [-50.97315895092932, -26.252620143810063], [-50.97304601826032, -26.253522568074505]]]}}, {"type": "Feature", "properties": {"cod_imovel": "SC-4213609-B3E99E1130D14CADAE821BA3375B0D0C", "municipio": "Porto Uniao", "num_area": 309.2037, "mod_fiscal": 19.3252, "des_condic": "Aguardando analise", "ind_status": "AT", "dat_atuali": "06/08/2019"}, "geometry": {"type": "Polygon", "coordinates": [[[-51.00541528880706, -26.23211570367773], [-51.00171153887865, -26.23129816788139], [-51.00063415612299, -26.23142395859791], [-50.99861223542802, -26.23225891767903], [-50.98811341334352, -26.23845379864221], [-50.98454463024326, -26.24007128557105], [-50.98370515959808, -26.24084475518646], [-50.98275486300043, -26.24143544829755], [-50.97990713731229, -26.24194055295789], [-50.97684445300135, -26.24374690624839], [-50.97447898943159, -26.24647081208218], [-50.9727471229268, -26.24938523263199], [-50.97174653482279, -26.25328318433887], [-50.97185520224445, -26.25445686555586], [-50.97237054435192, -26.25349920208408], [-50.97302750808883, -26.25151959944684], [-50.97435452951935, -26.2500994948793], [-50.97664591835621, -26.24864116217493], [-50.97814325118441, -26.24849520937682], [-50.97868862015375, -26.24828020744732], [-50.98011538292718, -26.24677338003985], [-50.98170418752574, -26.24612201868793], [-50.98485612358428, -26.24548778851963], [-50.98541675939561, -26.24548793681323], [-50.98708899892952, -26.24598878551984], [-50.98934480475342, -26.24559988708992], [-50.99130282660777, -26.24627154679007], [-50.99334443590683, -26.24599038531085], [-50.99528144508181, -26.24701901825412], [-50.99609912418743, -26.24716324471615], [-50.99698841318102, -26.24681147478549], [-50.9973730345305, -26.24626916743992], [-50.99729398771387, -26.24378486480872], [-50.99750627631129, -26.24317230358136], [-50.99802375421974, -26.24264218636452], [-50.9997118306224, -26.24189536497565], [-51.00200347119466, -26.24207819984144], [-51.00475579087061, -26.24176905334356], [-51.00995337905578, -26.24213954095447], [-51.00623960665819, -26.2345565432305], [-51.00541528880706, -26.23211570367773]]]}}]}