{"type": "FeatureCollection", "features": [{"type": "Feature", "properties": {"cod_imovel": "SC-4212239-DABD40A51AD7462183F2FAD0E200A9A0", "municipio": "Paraiso", "num_area": 4.6085, "mod_fiscal": 0.2304, "des_condic": "Aguardando analise", "ind_status": "AT", "dat_atuali": "05/11/2024"}, "geometry": {"type": "Polygon", "coordinates": [[[-53.757675425, -26.720222404792], [-53.7575605055556, -26.7191329853476], [-53.75558775555561, -26.7173368603476], [-53.7553736, -26.7164944492365], [-53.754511925, -26.7167455464587], [-53.7554720861111, -26.7189297909031], [-53.757675425, -26.720222404792]]]}}, {"type": "Feature", "properties": {"cod_imovel": "SC-4212239-5830CF4F4C9848A8A5742CE2F8E05D0A", "municipio": "Paraiso", "num_area": 3.0719, "mod_fiscal": 0.1536, "des_condic": "Aguardando analise", "ind_status": "AT", "dat_atuali": "08/02/2026"}, "geometry": {"type": "Polygon", "coordinates": [[[-53.75541613855082, -26.71885017390745], [-53.75473207334621, -26.71717543832481], [-53.75353504737047, -26.71752539003331], [-53.7534499592609, -26.71809282019296], [-53.75410623384442, -26.71946490733303], [-53.75541613855082, -26.71885017390745]]]}}, {"type": "Feature", "properties": {"cod_imovel": "SC-4212239-971F9B693D784B12A40FE374A960E845", "municipio": "Paraiso", "num_area": 18.6157, "mod_fiscal": 0.9304, "des_condic": "Aguardando analise", "ind_status": "AT", "dat_atuali": "02/08/2024"}, "geometry": {"type": "Polygon", "coordinates": [[[-53.75320527724871, -26.71978828794905], [-53.75082458599039, -26.71407132477761], [-53.7495459485236, -26.7177122487614], [-53.74909205683262, -26.71848707843791], [-53.74830542940376, -26.71931780113216], [-53.74928256271946, -26.72132906072572], [-53.75320527724871, -26.71978828794905]]]}}, {"type": "Feature", "properties": {"cod_imovel": "SC-4212239-A6FA4CD3409243C1A67AD66DB24BD197", "municipio": "Paraiso", "num_area": 12.1387, "mod_fiscal": 0.6069, "des_condic": "Aguardando analise", "ind_status": "AT", "dat_atuali": "18/05/2015"}, "geometry": {"type": "Polygon", "coordinates": [[[-53.75415312392826, -26.72277413871737], [-53.75271623525306, -26.7200431208762], [-53.74935844207204, -26.72137772010307], [-53.75066543073258, -26.7240525131571], [-53.75415312392826, -26.72277413871737]]]}}, {"type": "Feature", "properties": {"cod_imovel": "SC-4212239-68C0B528D6034C20A49FED94439D9165", "municipio": "Paraiso", "num_area": 5.4565, "mod_fiscal": 0.2728, "des_condic": "Aguardando analise", "ind_status": "AT", "dat_atuali": "11/12/2017"}, "geometry": {"type": "Polygon", "coordinates": [[[-53.75648851755128, -26.721556933365], [-53.75455199330124, -26.71922655486899], [-53.75323915142182, -26.71985235340226], [-53.75494515594763, -26.72242746243235], [-53.75648851755128, -26.721556933365]]]}}, {"type": "Feature", "properties": {"cod_imovel": "SC-4212239-770BEABF138F4C0384612A836DE686BF", "municipio": "Paraiso", "num_area": 113.4261, "mod_fiscal": 5.6713, "des_condic": "Aguardando analise", "ind_status": "AT", "dat_atuali": "06/08/2015"}, "geometry": {"type": "Polygon", "coordinates": [[[-53.73337854432401, -26.64347375395763], [-53.73368070190157, -26.64695360538368], [-53.734002113342285, -26.645924412066556], [-53.73499164160668, -26.6451394715813], [-53.73546123504638, -26.644888754262016], [-53.736491203308105, -26.644888754262016], [-53.73979568481445, -26.646538130777625], [-53.74202728271484, -26.647266917462716], [-53.74541759490967, -26.646576488087533], [-53.75391483306885, -26.643200995492094], [-53.758807182312005, -26.64151321177886], [-53.75648975372314, -26.640017200817653], [-53.750996589660645, -26.63598938160663], [-53.74786376953125, -26.63840609017644], [-53.744816780090325, -26.6428941275813], [-53.74318599700927, -26.643929803475462], [-53.741040229797356, -26.64454353290654], [-53.73992443084717, -26.644236668603295], [-53.739280700683594, -26.643622937523038], [-53.73919486999512, -26.642663976107098], [-53.73337854432401, -26.64347375395763]]]}}, {"type": "Feature", "properties": {"cod_imovel": "SC-4212239-5A12FE960BCC490E8C9B64B6D2CD84CC", "municipio": "Paraiso", "num_area": 4.86, "mod_fiscal": 0.17, "des_condic": "Aguardando analise", "ind_status": "AT", "dat_atuali": "24/02/2015"}, "geometry": {"type": "Polygon", "coordinates": [[[-53.75780648795648, -26.7204474431168], [-53.75566647942208, -26.71877408071477], [-53.75451803252762, -26.71931167017433], [-53.75653172720826, -26.72158660719967], [-53.75726398716651, -26.72126245741743], [-53.75762243499837, -26.72089911552237], [-53.75780648795648, -26.7204474431168]]]}}, {"type": "Feature", "properties": {"cod_imovel": "SC-4212239-B63F622FCB7341E3AD0AB100B87E2174", "municipio": "Paraiso", "num_area": 11.2073, "mod_fiscal": 0.5604, "des_condic": "Aguardando analise", "ind_status": "AT", "dat_atuali": "04/05/2015"}, "geometry": {"type": "Polygon", "coordinates": [[[-53.74943017959594, -26.721387048396927], [-53.746490478515625, -26.721942863073522], [-53.74852895736694, -26.725488513498313], [-53.750975131988525, -26.724070266584697], [-53.74943017959594, -26.721387048396927]]]}}, {"type": "Feature", "properties": {"cod_imovel": "SC-4212239-BE21CF1F1EE64D149FD71871E4D6C3E0", "municipio": "Paraiso", "num_area": 11.9191, "mod_fiscal": 0.596, "des_condic": "Aguardando analise", "ind_status": "AT", "dat_atuali": "18/03/2016"}, "geometry": {"type": "Polygon", "coordinates": [[[-53.75254676978835, -26.71153257786627], [-53.75082656080659, -26.71464631114148], [-53.75214543857747, -26.71717296849896], [-53.7545057924652, -26.71675743630981], [-53.75254676978835, -26.71153257786627]]]}}, {"type": "Feature", "properties": {"cod_imovel": "SC-4212239-289368E3C706403C994C791E867F5CEC", "municipio": "Paraiso", "num_area": 19.306, "mod_fiscal": 0.5973, "des_condic": "Aguardando analise", "ind_status": "AT", "dat_atuali": "24/02/2015"}, "geometry": {"type": "Polygon", "coordinates": [[[-53.75313752733948, -26.71075695102948], [-53.75256041864361, -26.71158512730105], [-53.75451514292729, -26.71675111085774], [-53.75675294484068, -26.71606221831071], [-53.7563282276388, -26.7149664695418], [-53.75673058453532, -26.71392527141209], [-53.75664183280667, -26.71306900254279], [-53.75628241987376, -26.71227188090441], [-53.75546196132333, -26.71113151336694], [-53.75530829605827, -26.71116766575754], [-53.75495188293986, -26.71087863593422], [-53.75436251491165, -26.71001066635227], [-53.75313752733948, -26.71075695102948]]]}}, {"type": "Feature", "properties": {"cod_imovel": "SC-4212239-151311D9013647F9B94693699968EEC8", "municipio": "Paraiso", "num_area": 24.6767, "mod_fiscal": 1.2338, "des_condic": "Aguardando analise", "ind_status": "AT", "dat_atuali": "27/07/2022"}, "geometry": {"type": "Polygon", "coordinates": [[[-53.75144017463213, -26.71304454316386], [-53.75065548656787, -26.71476253242236], [-53.75011800334655, -26.71665742713506], [-53.74953530007346, -26.71805539062542], [-53.74904874922925, -26.71875677682115], [-53.74834475790117, -26.71933754174049], [-53.749315416414, -26.72134303456984], [-53.75413597090034, -26.7194099813239], [-53.75144017463213, -26.71304454316386]]]}}]}