{"type": "FeatureCollection", "features": [{"type": "Feature", "properties": {"cod_imovel": "SC-4204202-3A6149BA276C440D8AAA67220C0665EE", "municipio": "Chapeco", "num_area": 1570.9976, "mod_fiscal": 78.5499, "des_condic": "Aguardando analise", "ind_status": "PE", "dat_atuali": "05/05/2016"}, "geometry": {"type": "Polygon", "coordinates": [[[-52.52492635008206, -27.18353605365491], [-52.52476052346517, -27.18385795695604], [-52.52456179235812, -27.18382405342516], [-52.52411266545816, -27.18442288298737], [-52.52294870029072, -27.18760850355109], [-52.52245860716602, -27.18849680322338], [-52.5203450765281, -27.19094728550242], [-52.51908920787807, -27.19177432427651], [-52.51823153806618, -27.19183559000664], [-52.51691440250717, -27.1915599165429], [-52.51587294441024, -27.19091667038836], [-52.51413866404818, -27.19062147052282], [-52.51368771369444, -27.19102496364567], [-52.51379329559161, -27.19189069902981], [-52.51470127237596, -27.19336878161332], [-52.51658056262095, -27.19427674198843], [-52.5193044746991, -27.19499465918879], [-52.52008575321015, -27.19535361983903], [-52.52099372769107, -27.19651496846708], [-52.52124711916301, -27.19740572066238], [-52.52124712382743, -27.19845759445234], [-52.52027581845902, -27.20105480424801], [-52.52036029213025, -27.20350420227557], [-52.52076149050128, -27.20422212857432], [-52.52356987803259, -27.20779063755769], [-52.52506908993669, -27.20905756357661], [-52.52944001194965, -27.20846631418478], [-52.53047467614623, -27.20861411856912], [-52.53408544604615, -27.21017665320612], [-52.53495118777615, -27.21083122963258], [-52.53611255015556, -27.21207704076603], [-52.53642928751867, -27.21279496736057], [-52.53655598523412, -27.21378739462672], [-52.53577471609508, -27.21553998496597], [-52.53588030202706, -27.21731368644976], [-52.53642931226096, -27.21836945955319], [-52.53752732418146, -27.21896068962602], [-52.53968111588632, -27.21957303114568], [-52.54375642454947, -27.22003755873775], [-52.5448966673099, -27.22050209579962], [-52.54531898052114, -27.22092440414432], [-52.54559348620063, -27.22157898355619], [-52.54540344904671, -27.22221244943221], [-52.54404726199495, -27.22353321084257], [-52.54260411612194, -27.22658930934447], [-52.53831710127005, -27.23125835518188], [-52.53738329875684, -27.23265906750834], [-52.53755308704101, -27.2337202108999], [-52.53827467189893, -27.23507847208271], [-52.54022718347532, -27.23499357369763], [-52.54230702934869, -27.2346540004127], [-52.54476889389625, -27.23507844912721], [-52.54540558334195, -27.23541801280978], [-52.54591493669152, -27.23601225049276], [-52.54599983243696, -27.23690361121628], [-52.54464157760414, -27.23978992644705], [-52.54505363751155, -27.24099887971558], [-52.54619803329163, -27.24003223961173], [-52.54791748842095, -27.23914595637643], [-52.55031531189803, -27.23873067885536], [-52.55124002411549, -27.23876585615685], [-52.55222076277677, -27.23906961302366], [-52.55338957772271, -27.23967573471106], [-52.55549318546349, -27.2417434057326], [-52.55841028278596, -27.24557425365587], [-52.56040702891128, -27.24738989101099], [-52.56291423215018, -27.24885401223875], [-52.56410240259622, -27.24930908915864], [-52.56534764421179, -27.24956289315755], [-52.56697060376102, -27.24973342491594], [-52.57025574131088, -27.24942006979505], [-52.57684543471993, -27.2480042036941], [-52.58324592489217, -27.24707448735677], [-52.58800182807039, -27.24728305744879], [-52.58928457655216, -27.2476541310816], [-52.59407320520685, -27.25068160999405], [-52.60369738539705, -27.2597024824107], [-52.60586514430861, -27.26148415625884], [-52.61178744115982, -27.26446222060624], [-52.61520248787967, -27.2655407031233], [-52.61839201574454, -27.26609867606148], [-52.62709530985078, -27.26648627636994], [-52.63145664546721, -27.26620621213922], [-52.63372246095687, -27.26587327519563], [-52.64018089765159, -27.26421949309111], [-52.6428627591064, -27.26333315250838], [-52.64422276440641, -27.26276412431133], [-52.64539419054762, -27.26206062568802], [-52.6466982754517, -27.26100485235201], [-52.64766270643681, -27.25984799734483], [-52.64900388342881, -27.25643974821947], [-52.65044586492042, -27.25081977863109], [-52.65337881830608, -27.24536923060615], [-52.65421117352886, -27.24401082455891], [-52.65581849623462, -27.2418979585224], [-52.6579600006362, -27.23992719603591], [-52.65928235779991, -27.23902236660837], [-52.6606611740608, -27.23820149676634], [-52.66198284622782, -27.2377665090269], [-52.66313444771429, -27.23748236873223], [-52.66428572836064, -27.23744991713641], [-52.66807818090538, -27.23824215139945], [-52.66909673518303, -27.23872971062408], [-52.67252913386138, -27.24091424290321], [-52.6744332231587, -27.24287926241945], [-52.67690217700179, -27.24612854385273], [-52.6772409826893, -27.24700141540676], [-52.6778989892902, -27.24946871684273], [-52.67806616281609, -27.25205310991138], [-52.67779213468638, -27.26090304266813], [-52.67794063164122, -27.26321887132826], [-52.68041920386509, -27.2719428569141], [-52.6814926277325, -27.2744440100402], [-52.68398070374789, -27.27825510849925], [-52.68663936118817, -27.28169722001279], [-52.68771462914414, -27.28268815731782], [-52.68992236655293, -27.28425060872222], [-52.69245904168162, -27.28494053065907], [-52.69389410979483, -27.28492476856823], [-52.69653802501935, -27.28442320025991], [-52.69791683271461, -27.28390396295251], [-52.70058030496994, -27.28246269502855], [-52.70398112241486, -27.2796795275597], [-52.70658949088125, -27.27614069066536], [-52.70710023345684, -27.27506878900851], [-52.70776299164698, -27.27258568903569], [-52.70774524079073, -27.2711761289843], [-52.70631795933944, -27.26216647823416], [-52.7064149527191, -27.25899510050379], [-52.70681342448377, -27.25651191692311], [-52.70984113157109, -27.24720809575051], [-52.7127909951853, -27.24039591694553], [-52.71428391474758, -27.23808109153307], [-52.71673880297162, -27.23643809478314], [-52.71960816675845, -27.23561756053353], [-52.72111814601811, -27.23541706759777], [-52.72419430836401, -27.23553623936572], [-52.72751529903005, -27.23639376965641], [-52.72976036139728, -27.23761983412543], [-52.73081671233571, -27.23847612864351], [-52.73451792712312, -27.24304576210188], [-52.73804323169649, -27.25054806747019], [-52.73911753784925, -27.25346929919643], [-52.74026778413952, -27.25563445642902], [-52.74083363131474, -27.25644013614477], [-52.74192794853167, -27.25738026170389], [-52.74387157979463, -27.25863952748948], [-52.74928516416669, -27.26036495616814], [-52.75098428307448, -27.26034870032437], [-52.75283441790986, -27.26021501410494], [-52.75400496987643, -27.25991331179237], [-52.75681810387305, -27.25880663063609], [-52.75806429979841, -27.25788408215556], [-52.76133114120067, -27.25409272958938], [-52.76350327605791, -27.24957981993736], [-52.76407018374283, -27.24739849583594], [-52.76441115382712, -27.24335458895885], [-52.76361992450605, -27.23879023865696], [-52.76096140744821, -27.23130443998291], [-52.75881194516615, -27.22603494612884], [-52.75837855158205, -27.22423933117627], [-52.75809605565846, -27.22262830418836], [-52.75809748772346, -27.21885615015665], [-52.75823004533779, -27.21759768462817], [-52.75909875735765, -27.21558434107433], [-52.75979725148632, -27.21459452345567], [-52.76102405490342, -27.21358806652185], [-52.76406251098589, -27.21162557736597], [-52.76808202067376, -27.21001553076671], [-52.77526542901707, -27.20791431921414], [-52.78601755849276, -27.20641204431396], [-52.7844536069785, -27.2027202861744], [-52.78361813743332, -27.20185655887711], [-52.78319045504933, -27.20057353484428], [-52.78380630366162, -27.19932472183419], [-52.78459322573027, -27.19874308178992], [-52.78580405005903, -27.19715503890475], [-52.78918645551541, -27.1949538658446], [-52.78954570020842, -27.19421826341451], [-52.78953362060978, -27.19364007238491], [-52.78913512653124, -27.19332870070175], [-52.78631245864922, -27.19278128716411], [-52.78546566217184, -27.1931490902786], [-52.78425106053796, -27.19328595064841], [-52.78301935094722, -27.19299513589839], [-52.78224953484066, -27.19314910160163], [-52.77952057231853, -27.19305167418935], [-52.77689502251138, -27.19260169607931], [-52.77644633994091, -27.19211862605419], [-52.77688645389202, -27.18898356622142], [-52.7767838084282, -27.18835060771092], [-52.77577448701863, -27.18713601511733], [-52.77493623665855, -27.18645173759874], [-52.7739876846172, -27.18629245126168], [-52.77065623643122, -27.18843284618193], [-52.76947054336649, -27.18892371728338], [-52.76588246322452, -27.18910793980018], [-52.76398773333958, -27.18939417991709], [-52.76157564291648, -27.19059167765956], [-52.75729837181915, -27.19229687544689], [-52.75816673255874, -27.19273107272661], [-52.76127189409096, -27.19193806644673], [-52.76189246075393, -27.19170286222717], [-52.76184399157345, -27.19097337164714], [-52.763554573658, -27.19021785409668], [-52.76576017918471, -27.18984407807099], [-52.76704719248387, -27.18989631206454], [-52.76750982373983, -27.19014223156347], [-52.76797551277241, -27.18976456410328], [-52.76912515072771, -27.18954884149454], [-52.77080907725164, -27.18886968433501], [-52.77346786183149, -27.18749083667457], [-52.77454374303585, -27.18797914180272], [-52.77475927227567, -27.18831187661403], [-52.77482379027674, -27.18891167795888], [-52.77434784759152, -27.18929500914728], [-52.77467691628768, -27.18967921064076], [-52.77436124363624, -27.19014372898785], [-52.774643954114, -27.19102709036886], [-52.77512187793611, -27.19105216344223], [-52.77511918248439, -27.19164873762981], [-52.77553791008423, -27.19274151022453], [-52.77647565732348, -27.19372708961424], [-52.77688046324559, -27.19384451882675], [-52.77727531216426, -27.19333400470204], [-52.77789958177021, -27.19358286255125], [-52.7777947311504, -27.1941398097731], [-52.77862521187347, -27.19421890966501], [-52.77919818550167, -27.19470882156298], [-52.77934292451768, -27.19437413007427], [-52.78082856554929, -27.19477757770528], [-52.78184174146903, -27.19474673325655], [-52.78193054183324, -27.19420936074455], [-52.78298284628118, -27.19445820174181], [-52.78408425285138, -27.19442203983916], [-52.78532068447324, -27.1946473979303], [-52.785576655093, -27.19494041456509], [-52.78557417255728, -27.19536825885606], [-52.78487667117338, -27.19623534907417], [-52.78412299323678, -27.19614887214009], [-52.78297759217243, -27.19696219439092], [-52.7818722698461, -27.19956788920282], [-52.7815922774131, -27.20154650695809], [-52.78253901913061, -27.20237370571808], [-52.78271244689, -27.20267987503341], [-52.78273480020347, -27.20322410562448], [-52.78260630986183, -27.20437918521179], [-52.78207014934986, -27.20476796482929], [-52.78171035278565, -27.20444179971034], [-52.78131111083188, -27.20458661259776], [-52.77978460148729, -27.20445225375589], [-52.77847412303096, -27.20468313839989], [-52.77829240195201, -27.20516126144421], [-52.77613402415131, -27.20540220574857], [-52.7754146108563, -27.2051028231379], [-52.7741069583389, -27.20530168756083], [-52.77328754855711, -27.20574702467398], [-52.77251446769768, -27.2058882272104], [-52.7711910394114, -27.2057961976445], [-52.77023260461026, -27.20641047499539], [-52.76876709992865, -27.20653444602988], [-52.76809427627338, -27.20642595234867], [-52.76752295056081, -27.20563303656566], [-52.76786566094948, -27.20240720952692], [-52.7663596263622, -27.20224570891331], [-52.76516913685258, -27.20119666607552], [-52.76500898195177, -27.20084408836824], [-52.7619693318083, -27.19948836266755], [-52.76150194568226, -27.19907015101272], [-52.76112022040019, -27.19912865669731], [-52.76098090953691, -27.19977334578086], [-52.76019018149066, -27.19960280783397], [-52.75886447877645, -27.1996663252909], [-52.75874755136806, -27.19795622508904], [-52.75820086310773, -27.19786272695384], [-52.75794182360128, -27.19901494804866], [-52.75808318085676, -27.19958403353229], [-52.75712441405439, -27.19926043972913], [-52.7571819025965, -27.1985320629659], [-52.75457985613166, -27.19902573685433], [-52.75468991440894, -27.1995650375578], [-52.75427475979443, -27.20032646643135], [-52.7539290767351, -27.20043935625393], [-52.75321771521411, -27.20032120494888], [-52.75309790864307, -27.20047871571972], [-52.75354738307295, -27.200739324432], [-52.75333450475902, -27.20078782039344], [-52.75291303599408, -27.20042370412465], [-52.75169514177179, -27.20076124070467], [-52.75115349110991, -27.20137079166442], [-52.75114363041365, -27.20155553624009], [-52.75138072148932, -27.2015946582631], [-52.7524362048507, -27.20125296522093], [-52.75431783537323, -27.201570923162], [-52.75424989800036, -27.20213960103277], [-52.7545156460333, -27.20255320986976], [-52.75460946361031, -27.20405595892458], [-52.75670014841311, -27.20377004348113], [-52.75729490342245, -27.20135453195895], [-52.75780201527557, -27.20114409487557], [-52.75770272810404, -27.2029714592415], [-52.75893825589397, -27.20321883393443], [-52.7601039835086, -27.2038665289225], [-52.7595327844588, -27.20449470078607], [-52.76025547498485, -27.20502798942549], [-52.7617936856425, -27.20384083986165], [-52.76150132820423, -27.20347288743452], [-52.76278349043225, -27.20254471577248], [-52.76415602119576, -27.20437603459141], [-52.764422927633, -27.20501193071195], [-52.76446566924165, -27.20547437569505], [-52.76430343278938, -27.20591801050931], [-52.76394764771024, -27.20606734347243], [-52.7639113685376, -27.20658342288061], [-52.76432674573328, -27.20704927971231], [-52.76428772022541, -27.20757489516497], [-52.76355008609208, -27.20889864599023], [-52.7622880872298, -27.2099158542771], [-52.7615817362815, -27.21001974651045], [-52.759949330442, -27.21118403344694], [-52.75896461395411, -27.21233267697709], [-52.75824625369948, -27.21165595843283], [-52.75779404661124, -27.21188662518863], [-52.75803918837135, -27.21223873023719], [-52.75757299102092, -27.21310707284866], [-52.75746359880425, -27.21368618514065], [-52.75675397691911, -27.21451465374574], [-52.75643542186644, -27.21526400507031], [-52.75589910872724, -27.21510464483723], [-52.75515001898925, -27.21514615676613], [-52.75452592121115, -27.21554105217343], [-52.75435314872699, -27.21599857132936], [-52.7550091492801, -27.216140372005], [-52.75557314934125, -27.21653510632438], [-52.75529683709985, -27.21689213519618], [-52.75501633416281, -27.21816700357986], [-52.75507933141418, -27.21848121860308], [-52.75491992471402, -27.2184685144884], [-52.75516487113902, -27.21890786301367], [-52.75527510594895, -27.219791601768], [-52.75476612250828, -27.22061225620047], [-52.75484282521171, -27.22137085780519], [-52.75436549959065, -27.22174659934429], [-52.7547183475197, -27.22178340307952], [-52.7550691638381, -27.22208458438904], [-52.75485142113089, -27.22245817765072], [-52.75535555969238, -27.22269956346018], [-52.75540147445185, -27.22314191246552], [-52.75492562022666, -27.22380496219173], [-52.75382975083274, -27.22351911353424], [-52.75310486260383, -27.22424247414448], [-52.75205711548621, -27.22465020341504], [-52.75199436574559, -27.22494322957528], [-52.75231181750847, -27.22561619565056], [-52.75276533228814, -27.22530751082848], [-52.75461187740478, -27.22500799322719], [-52.75482717193485, -27.2254518567491], [-52.7555195409324, -27.22600520711691], [-52.75567185579082, -27.22631857160746], [-52.75517642109369, -27.22661295800471], [-52.75548637771433, -27.22711854742666], [-52.75634261386056, -27.22784253084866], [-52.75646777099322, -27.22854911515558], [-52.75691244508777, -27.22857406881795], [-52.75712281908697, -27.22893723940936], [-52.7575142974165, -27.22987669966205], [-52.75701285528659, -27.2305900499358], [-52.75751927934071, -27.2309194353441], [-52.7573952100844, -27.23136059372814], [-52.7570064094408, -27.23162997764787], [-52.75526887741536, -27.23205957788233], [-52.75358086495505, -27.23277935423671], [-52.7536382236672, -27.2335556182801], [-52.75379764380424, -27.23389065840025], [-52.75575890174067, -27.23343973215026], [-52.75596290564767, -27.23392635868712], [-52.75737347667837, -27.23354929620286], [-52.75795132259777, -27.23364488107071], [-52.75841285998272, -27.23404005827016], [-52.75862783465233, -27.2348512387749], [-52.7584065942077, -27.23526132844092], [-52.75788274577962, -27.23538527859622], [-52.75798852804415, -27.235936324384], [-52.75874161423133, -27.23592237030816], [-52.75896177245829, -27.23644075366177], [-52.75893715423922, -27.23693201599355], [-52.75868570446445, -27.23742805471542], [-52.75910487003553, -27.23785323297336], [-52.75946577059062, -27.23897543362354], [-52.75935820026052, -27.23927769107238], [-52.75991946887487, -27.24045045899928], [-52.7597720636557, -27.24081704608089], [-52.75769444481464, -27.24196103361779], [-52.75769829252013, -27.24247271289242], [-52.75808351027087, -27.24273104544391], [-52.75996359618091, -27.24357143038903], [-52.76047520460996, -27.24361273850896], [-52.76053196645611, -27.24524005751828], [-52.76022461527137, -27.24713913477974], [-52.75758871198552, -27.25219681279613], [-52.75755385468248, -27.25274380796005], [-52.75814223100272, -27.25309995865824], [-52.75793333570949, -27.25352312826238], [-52.75782403685505, -27.25363882257612], [-52.75441989357736, -27.25266929204107], [-52.75319817975354, -27.25448301400183], [-52.75437252006368, -27.2564117091408], [-52.75083186957135, -27.25682516749234], [-52.74991963966686, -27.25708572377574], [-52.74444193332041, -27.25514321997492], [-52.74406574566677, -27.25447222463073], [-52.74222855335236, -27.25318062345412], [-52.74166221736591, -27.25224463706588], [-52.7423738407241, -27.25183366832383], [-52.74213216503962, -27.25144091475011], [-52.74206251838362, -27.2508389832967], [-52.74092127288377, -27.25124088951672], [-52.74055546468408, -27.24950938423918], [-52.73950402201282, -27.24778858359372], [-52.73866511007235, -27.2451412075066], [-52.73818748021469, -27.24412331868985], [-52.73760121606818, -27.24332511614225], [-52.73790260963562, -27.24269366740105], [-52.7385736087021, -27.24206677264735], [-52.73761672444311, -27.24106056404555], [-52.73649377018455, -27.24124842813332], [-52.73623590958941, -27.24057010973192], [-52.73388077188374, -27.23787455157376], [-52.73351901089057, -27.23733002611665], [-52.73344586016985, -27.23679820581603], [-52.72928143003051, -27.23429899028658], [-52.7280742063962, -27.23330427505994], [-52.72696204133803, -27.23312532814358], [-52.72596951864871, -27.23330103609807], [-52.72354263979527, -27.23307371822892], [-52.72002242429699, -27.23245487853439], [-52.72010765771373, -27.23305114496104], [-52.71982183953523, -27.2329130760353], [-52.71971085896951, -27.23350112896046], [-52.71942894465249, -27.23341069252512], [-52.71923225123679, -27.23352808606698], [-52.71858221184363, -27.2325954619987], [-52.71868173571639, -27.233134676427], [-52.71826208988877, -27.23345943424195], [-52.71671999452848, -27.23386197561865], [-52.71635470618983, -27.23335008224569], [-52.71598487736126, -27.23328002277292], [-52.71635031511579, -27.23400451376892], [-52.71413398562751, -27.23472248560348], [-52.71231126164312, -27.23649096125392], [-52.71082665250058, -27.23628740048753], [-52.7100399565687, -27.23690294349399], [-52.70972187918435, -27.23754084497378], [-52.71042515621942, -27.23788869414896], [-52.71035683415679, -27.23845830441073], [-52.7109102709949, -27.23895283028644], [-52.71032868770598, -27.24002901729465], [-52.70986033295813, -27.24031510069008], [-52.7098681385075, -27.24084103498843], [-52.70943732915059, -27.24254574200682], [-52.70845546556274, -27.24481056204467], [-52.70827309593557, -27.24571149974261], [-52.7075877329839, -27.24703346806151], [-52.70665091168062, -27.24824608144991], [-52.70570110532823, -27.25064017240644], [-52.7052063848978, -27.25138927123903], [-52.70378150829497, -27.25136555163346], [-52.70315282867044, -27.25115548561622], [-52.70321935166467, -27.25017844035131], [-52.70198614000666, -27.249995647528], [-52.70116232883506, -27.25106459170322], [-52.70036584221154, -27.2515529592465], [-52.699159891078, -27.25186160585976], [-52.69825791712596, -27.25186277773819], [-52.69959688900549, -27.25361903427252], [-52.70206367563786, -27.25263756753838], [-52.70261938934183, -27.25196694604344], [-52.70287747619473, -27.2519906277432], [-52.70392677706949, -27.25296889262207], [-52.70402529851022, -27.25322171095415], [-52.70432198479958, -27.25321148605115], [-52.70397083832672, -27.25461672472949], [-52.70351147624379, -27.25471423960365], [-52.70322062109539, -27.25525485249235], [-52.7035226615828, -27.25594609561519], [-52.70351040674809, -27.25641467446435], [-52.70330318895379, -27.25673040284716], [-52.70225105637782, -27.25703464555216], [-52.70217650678904, -27.25745546050225], [-52.70302074161546, -27.25769130129617], [-52.7028734828519, -27.25890404663041], [-52.70338270500713, -27.25918096192457], [-52.70335797532831, -27.26006122787848], [-52.7036506934746, -27.26064689330004], [-52.70354258464267, -27.26126343922196], [-52.70381735686918, -27.26159911936689], [-52.70377094408751, -27.26209859072538], [-52.70357149495649, -27.26210786523537], [-52.70348386855155, -27.26249316929753], [-52.70376347743803, -27.26403391923078], [-52.70360380489643, -27.26430483230022], [-52.70295776734317, -27.26421939290756], [-52.70223843307885, -27.26492143818911], [-52.70244809770965, -27.26521205656172], [-52.70305001186291, -27.26520474684892], [-52.70356609273401, -27.26540288427522], [-52.70389356574227, -27.26575242852769], [-52.70439586669914, -27.26679132789335], [-52.70483502779124, -27.26895081439952], [-52.70484882133782, -27.26952863967492], [-52.7046443612104, -27.26995804415684], [-52.70491473275318, -27.27028606912599], [-52.70473060619853, -27.27209035698818], [-52.7045797052709, -27.27277376125775], [-52.70434833222322, -27.27297414941313], [-52.704408926652, -27.27383591541241], [-52.70394658479622, -27.27482767461176], [-52.7035547820351, -27.27528028434951], [-52.70328950192648, -27.27522795669223], [-52.70304042175762, -27.27544003673074], [-52.70267867319522, -27.27611756322069], [-52.70037684710172, -27.27854722044042], [-52.70017591549911, -27.27920802766692], [-52.69760164577331, -27.280636382441], [-52.6971012065593, -27.28074796410304], [-52.69709722861303, -27.28088741321652], [-52.69684833577339, -27.28089119572537], [-52.69632128783004, -27.28054591096816], [-52.69611877740676, -27.28083490571765], [-52.6955761070472, -27.28086478238024], [-52.69499918245002, -27.28132076186425], [-52.69382837934368, -27.28137197843348], [-52.69360316487387, -27.28178935697938], [-52.69386760409489, -27.28228687250965], [-52.6945916607696, -27.28231227810338], [-52.69574124552845, -27.28202150954352], [-52.69617610963163, -27.28225776280787], [-52.69588862387625, -27.28261738760796], [-52.69397361546469, -27.28292202206814], [-52.69369090933889, -27.28273113487351], [-52.69356475003688, -27.28193031074559], [-52.69308485001318, -27.28150109908737], [-52.6925291513046, -27.28144050590459], [-52.69170282521705, -27.28161696486713], [-52.69122692089744, -27.28150482990272], [-52.6908115106917, -27.28104924078734], [-52.69001692901261, -27.28055625816199], [-52.68887353977161, -27.27922210391071], [-52.68833798521333, -27.27881713068423], [-52.68812604165733, -27.27834581026536], [-52.68770883522071, -27.27844949220438], [-52.68713580459433, -27.27825906271864], [-52.68577577363491, -27.2772660166388], [-52.68503370316349, -27.27576680409954], [-52.68522472453688, -27.27523335314264], [-52.68546498528238, -27.27521977622572], [-52.6853885863871, -27.27502524949736], [-52.68517203713305, -27.27486920818167], [-52.68467409621114, -27.27494349721777], [-52.68394492420363, -27.27376272875846], [-52.68416089994807, -27.2732911305622], [-52.68444654933605, -27.27316444447041], [-52.68438897705016, -27.27272193661751], [-52.68320220515044, -27.27234732174695], [-52.68280890529362, -27.2709793782515], [-52.68235487708975, -27.27033185483959], [-52.68225006355934, -27.2694045084875], [-52.68166193366794, -27.26812796862136], [-52.68198052934915, -27.2678070408997], [-52.6812166873351, -27.2672203137568], [-52.68076105094229, -27.26534024935776], [-52.68156422015988, -27.26507931300999], [-52.68146186090267, -27.26462557222241], [-52.68071915501056, -27.26447097172415], [-52.68099985375539, -27.26400013946726], [-52.68038195094495, -27.26402081607057], [-52.68033451066155, -27.26268052838868], [-52.68072699838435, -27.26217306079396], [-52.68062083295245, -27.26201991841854], [-52.68121547664683, -27.26209433134803], [-52.68094286905374, -27.26138598575793], [-52.68001751103398, -27.26091476225826], [-52.67987079522995, -27.26013933153133], [-52.6798409086942, -27.25890716290959], [-52.6803176915022, -27.25851553882047], [-52.67978810621866, -27.25809452571788], [-52.67973245463498, -27.25653857849593], [-52.67992789368609, -27.25546100706407], [-52.67976129497491, -27.25511679379355], [-52.68008573644171, -27.25429176821327], [-52.67990427638481, -27.25399859131487], [-52.68011161459061, -27.25183583848323], [-52.6796971750485, -27.24982871689884], [-52.67956085199593, -27.24826357608439], [-52.68030295041211, -27.24824498135733], [-52.68036554054975, -27.24863982266512], [-52.68093010971209, -27.24860843830974], [-52.68081819265592, -27.24669164698843], [-52.68015793512741, -27.24677904189648], [-52.67982950984376, -27.24600551643698], [-52.67973906485737, -27.24530323907595], [-52.67908621932405, -27.24479240305271], [-52.67558224028331, -27.24059863243333], [-52.67473751931468, -27.24015479882168], [-52.67516257203864, -27.2395049528896], [-52.6753540804981, -27.23818443952185], [-52.67438348434375, -27.23888775190956], [-52.67436594787163, -27.23873040861497], [-52.6729484904776, -27.23876859075932], [-52.67236716873838, -27.2383385408214], [-52.67130242837589, -27.23826543753685], [-52.67223304040709, -27.23747974825683], [-52.67135478645435, -27.23786087100088], [-52.67082025042769, -27.23790642105717], [-52.67045754061719, -27.2377069859213], [-52.67063984834396, -27.23720708941542], [-52.66908594532301, -27.23631414485716], [-52.66734900912851, -27.23571097517086], [-52.66600266979894, -27.23552430234841], [-52.66448935234258, -27.23508642033352], [-52.66394323287843, -27.23510226025395], [-52.66344912919499, -27.23537452985489], [-52.66219605087109, -27.23528305093926], [-52.66203214150715, -27.23568652670471], [-52.66107459801532, -27.23574356656072], [-52.66047774000192, -27.23544276097136], [-52.65969539229047, -27.23322201211536], [-52.65936009842566, -27.23279285845179], [-52.65902834449419, -27.23265696535039], [-52.65884098181078, -27.23296886171233], [-52.65901541642605, -27.23336180449285], [-52.6584607985904, -27.23452435616734], [-52.65773424521424, -27.23548880169305], [-52.65475091822801, -27.23757195261743], [-52.6545558675754, -27.23806717044267], [-52.65415091447587, -27.23842977367161], [-52.65005404522005, -27.2416212084779], [-52.65028374317799, -27.24179596673457], [-52.64964929176074, -27.24215996657101], [-52.64940204158933, -27.24302781431399], [-52.64740459217778, -27.24273848865858], [-52.64717877533346, -27.24236508496462], [-52.64743801579421, -27.24217670259757], [-52.6463292895733, -27.24173714814666], [-52.64592424680418, -27.24131840751653], [-52.64472808747926, -27.24103397587761], [-52.64436664098675, -27.2405857435447], [-52.6437915671821, -27.24093004156504], [-52.64388579169123, -27.24136040503296], [-52.64371493498046, -27.24097592110079], [-52.64282716912493, -27.24100205727419], [-52.64303839218316, -27.24171515804179], [-52.64344450401551, -27.24211688957174], [-52.64348534776245, -27.24280246673894], [-52.64330473248345, -27.2435812900347], [-52.64355275310408, -27.24366188444706], [-52.6446634093326, -27.24336491661948], [-52.64479275757067, -27.24339935700128], [-52.6447594235225, -27.243634828152], [-52.64497390586867, -27.24356992779608], [-52.64499628358933, -27.24384630414959], [-52.64607966915531, -27.24424135009609], [-52.64647820078701, -27.24418039478448], [-52.64722518812736, -27.2443575748387], [-52.64785058849185, -27.24470993172579], [-52.64883019334683, -27.24572385721805], [-52.64926673671466, -27.24714384245175], [-52.6492525769238, -27.24752740868889], [-52.64870187423647, -27.24893826799239], [-52.64839782529789, -27.24917415965509], [-52.64790642131576, -27.25014999679188], [-52.64791794854508, -27.25055920959386], [-52.64738375028169, -27.25142701286431], [-52.64734294446303, -27.25180612315192], [-52.64710398558866, -27.25214960888774], [-52.64656551839054, -27.25241366102621], [-52.64653968748807, -27.25295909564297], [-52.64620703480957, -27.2533263159798], [-52.64579180525642, -27.25433579413923], [-52.64571487191087, -27.25488266172888], [-52.64541694869646, -27.25536818132335], [-52.64569316290361, -27.25590091278338], [-52.64566438469206, -27.25630111052744], [-52.64442437755761, -27.25738382192583], [-52.64466511039795, -27.25801713920948], [-52.64412839241773, -27.2586001344133], [-52.6439475148581, -27.25961681620196], [-52.64321885222283, -27.25992828445445], [-52.64296202716314, -27.25993136855039], [-52.64280349504788, -27.25964824710161], [-52.64234455526861, -27.26031193583579], [-52.64196678138497, -27.2605580471315], [-52.64168892584284, -27.26019248373709], [-52.64011970259312, -27.2615881314205], [-52.64021130633456, -27.26169729525593], [-52.63856015438797, -27.26230214618391], [-52.63822274647194, -27.26272728078123], [-52.63644840864222, -27.26265815242987], [-52.6357813735407, -27.26289109976295], [-52.63503438102999, -27.263534337589], [-52.63330809694259, -27.26359655374615], [-52.6315921772382, -27.26429767955715], [-52.63080485907129, -27.26414311505034], [-52.6303462623582, -27.26428218383166], [-52.62846507477101, -27.26426374954254], [-52.62748675566622, -27.26397834835017], [-52.62708206994951, -27.26433708741276], [-52.62534899312094, -27.26458383400841], [-52.62422139235033, -27.26435477715535], [-52.62270939032754, -27.26463458351612], [-52.62111473337808, -27.26428876000519], [-52.62044936178687, -27.26437718614785], [-52.62000691855547, -27.26464464342244], [-52.6187541051986, -27.26435140955341], [-52.61809607617385, -27.26440971593449], [-52.61768630660474, -27.26420257130846], [-52.61753837406181, -27.26374015487664], [-52.61655500161817, -27.26371620692655], [-52.61609318856625, -27.26393317319662], [-52.61563499371362, -27.26389306101714], [-52.61380670531363, -27.26337317319187], [-52.6114267479985, -27.26238753445729], [-52.61153432773366, -27.26214324694743], [-52.61037441725207, -27.26152887490266], [-52.60886847767539, -27.26020658213065], [-52.60789658122754, -27.25956847567908], [-52.60733438389713, -27.25832966611418], [-52.60638723269671, -27.25842962523599], [-52.60582057983914, -27.25819702559029], [-52.603178750679, -27.25598260428748], [-52.60267246772509, -27.25597141100219], [-52.60187621167698, -27.25543149907663], [-52.60079945016546, -27.25420711395239], [-52.60065057600788, -27.25347155766768], [-52.59997796099974, -27.25307119213532], [-52.59684533824763, -27.25003132976355], [-52.59575284158692, -27.24834274746408], [-52.59353834325705, -27.2466746267817], [-52.59300314189252, -27.24688962231352], [-52.5926768136294, -27.24619406464168], [-52.59274494202567, -27.24582167024875], [-52.59313245313, -27.24553308052809], [-52.59335909910496, -27.24433853845677], [-52.59369313864283, -27.2437044312465], [-52.59360247120712, -27.24327014767642], [-52.59316483457475, -27.24268775315104], [-52.59147747905655, -27.24166115451662], [-52.59104162276229, -27.24154424134925], [-52.59047798207943, -27.24166673119454], [-52.58994862510585, -27.24145798848703], [-52.58957310138332, -27.24174782149138], [-52.58925013294516, -27.24148330720051], [-52.5892318926227, -27.24085980104437], [-52.58954333935978, -27.2403315052754], [-52.58902589279, -27.23994755934287], [-52.58818706903961, -27.2398947343152], [-52.58679465459274, -27.23901022994318], [-52.58697162508435, -27.23846847089161], [-52.5865825167287, -27.23825548031011], [-52.58606828314566, -27.23853465230696], [-52.58566078816143, -27.23821699391655], [-52.58532361168912, -27.23752611611557], [-52.58592810880149, -27.23726133151143], [-52.58575343563794, -27.23672503017529], [-52.58523214127341, -27.23615001841388], [-52.58442093390729, -27.23616985984794], [-52.58421703011916, -27.23655107087341], [-52.58443702568073, -27.23676520406098], [-52.58373454633591, -27.23627034634109], [-52.58352593339967, -27.23654390820251], [-52.58349145382553, -27.23708343201274], [-52.58370137374506, -27.2373649404669], [-52.58360264490189, -27.23764698357727], [-52.58380422086232, -27.23861763363583], [-52.5862656385549, -27.24101536541416], [-52.58746985597208, -27.24338192336757], [-52.58823993701542, -27.2439511167155], [-52.58923003825214, -27.24403481250791], [-52.58974289221392, -27.24442253414158], [-52.58954184617533, -27.24537862426008], [-52.58748782491974, -27.24487588964946], [-52.58425412453327, -27.2447297585503], [-52.58237943679846, -27.24512993775574], [-52.57796850958208, -27.24563644027088], [-52.57653387727528, -27.24602283300774], [-52.57583085958089, -27.24601702125105], [-52.57452084682719, -27.24645319965285], [-52.57296970322012, -27.24680265592331], [-52.57248306292466, -27.2467791885136], [-52.57173946812743, -27.24715930515757], [-52.57075708358931, -27.24736524274902], [-52.57003819720322, -27.24718120074412], [-52.56784209731125, -27.24754565611311], [-52.56540028927846, -27.24740470746286], [-52.56293543733357, -27.24666088647506], [-52.56204415466129, -27.24615932042803], [-52.56013111044636, -27.24429278552446], [-52.55684462929359, -27.24018336504025], [-52.55393823635017, -27.23739133483569], [-52.55456737402739, -27.23703191407194], [-52.55494827094818, -27.23625648281286], [-52.55586588098018, -27.23548903206221], [-52.55585952307679, -27.23477737630228], [-52.55539205141941, -27.23433509560161], [-52.5549386662391, -27.23423724937506], [-52.5541161057743, -27.23436769852681], [-52.55135749292781, -27.23616229263099], [-52.55100626118029, -27.23661478616346], [-52.54856121126996, -27.23679394202857], [-52.54666214877753, -27.23731618169901], [-52.54691511799717, -27.23611590624635], [-52.54683596761308, -27.23517083180885], [-52.54643571374677, -27.23445208342353], [-52.5454901082609, -27.23358808321545], [-52.54376991966826, -27.23287717187786], [-52.54309129589899, -27.23296561977611], [-52.5410584170243, -27.2327830172724], [-52.54061013674742, -27.2325025109811], [-52.53957649803944, -27.23270063087545], [-52.53873119940704, -27.23232419853367], [-52.5390153484261, -27.23197484810297], [-52.53915792580212, -27.23141512614795], [-52.5417166690428, -27.22853837493667], [-52.54320476319354, -27.227126242307], [-52.54334849905888, -27.22668003136181], [-52.54386323323171, -27.22614834311973], [-52.54452049304142, -27.22503473999602], [-52.54465145228306, -27.2241663123922], [-52.54496668685477, -27.22406926816399], [-52.54521592644867, -27.22337870554514], [-52.54649938913954, -27.22169703301466], [-52.54630740970762, -27.21993709264287], [-52.5450209527794, -27.21871385216476], [-52.54662095026154, -27.21758607453456], [-52.54685793282613, -27.21702322346065], [-52.54672525027757, -27.21655721802527], [-52.54585702535782, -27.21596430558828], [-52.54395880046129, -27.2155130420112], [-52.5422148643564, -27.21594469277101], [-52.54195673260791, -27.2163160460058], [-52.54185948902902, -27.21708574780667], [-52.54335159317652, -27.21701069404631], [-52.54334803234753, -27.21728708185756], [-52.54174887772213, -27.21768644096346], [-52.54162451476116, -27.21800406758548], [-52.53976265105298, -27.21796467113796], [-52.5374040536163, -27.21736636091228], [-52.53652193436708, -27.21679854314688], [-52.53645338989202, -27.21643056944877], [-52.53668602148109, -27.21451502065252], [-52.5371018078539, -27.21393086701457], [-52.53725310466002, -27.21293652769202], [-52.53693281695557, -27.21147660615307], [-52.53612535379765, -27.21035097782123], [-52.53438499843817, -27.20866844402256], [-52.53300119432728, -27.20826055561843], [-52.53149897198754, -27.20757500799237], [-52.53078793205069, -27.20702395319852], [-52.52983518301548, -27.20692342748251], [-52.52847386068709, -27.2068519503501], [-52.52777613648591, -27.20716734114785], [-52.52658509227082, -27.20740379225386], [-52.52604606666553, -27.20779984001868], [-52.52552612651649, -27.20792007785619], [-52.52465979339043, -27.20777086235731], [-52.52425515168697, -27.20732743043237], [-52.52485974725206, -27.20715202174886], [-52.52461251749344, -27.2066660673523], [-52.52425044023696, -27.20619069144412], [-52.52380791196407, -27.20607257019127], [-52.52259263636804, -27.20459731886462], [-52.52245315026237, -27.20339458471848], [-52.52155377540572, -27.20297051863085], [-52.52138903054615, -27.20236667082005], [-52.52170594575852, -27.20136334369175], [-52.5214501272173, -27.20086993597414], [-52.52195316465287, -27.20071413470354], [-52.52234554066389, -27.19796598668979], [-52.52282308596568, -27.19762388418196], [-52.52263637082903, -27.19586022165605], [-52.52093994129445, -27.19396776818182], [-52.52063098450412, -27.19422054979123], [-52.51972957334314, -27.19391556938842], [-52.51985918563899, -27.19367067110446], [-52.51923075048297, -27.19348621049868], [-52.5185128417065, -27.19333204966374], [-52.51851982162509, -27.19360622130364], [-52.51693385069214, -27.19320787753026], [-52.5158563567589, -27.19268539884458], [-52.51490257302647, -27.19141191767962], [-52.51518837421133, -27.19105902497626], [-52.51591207580291, -27.19143362745287], [-52.51604823707872, -27.19174962494646], [-52.51910759377098, -27.19255336254113], [-52.51973870382967, -27.19240281569406], [-52.52071212340357, -27.19174373336737], [-52.52126986927477, -27.19161454790653], [-52.52172845028902, -27.19113726535383], [-52.52171968259213, -27.19077529026123], [-52.52209868198647, -27.19010866800607], [-52.52281183221183, -27.19007076474218], [-52.52248658633614, -27.18957340436854], [-52.52365007712232, -27.1877590033748], [-52.52477950545817, -27.18450678986859], [-52.52534576121677, -27.18387961948143], [-52.52492635008206, -27.18353605365491]]]}}, {"type": "Feature", "properties": {"cod_imovel": "SC-4204202-B2C466E3752344E3ABCC4D66C0415AD4", "municipio": "Chapeco", "num_area": 1.4393, "mod_fiscal": 0.072, "des_condic": "Aguardando analise", "ind_status": "AT", "dat_atuali": "11/12/2025"}, "geometry": {"type": "Polygon", "coordinates": [[[-52.75033771333309, -27.25649531306021], [-52.75117051937397, -27.25650738295169], [-52.75129024787363, -27.25617443549349], [-52.75119005097869, -27.25576177094792], [-52.75007143632061, -27.25587081965941], [-52.74922601866232, -27.25617601799657], [-52.74940911611971, -27.25675276936381], [-52.75033771333309, -27.25649531306021]]]}}, {"type": "Feature", "properties": {"cod_imovel": "SC-4204202-198F9B989FC440C6995F7E00C7FC3A51", "municipio": "Chapeco", "num_area": 34.8972, "mod_fiscal": 1.7449, "des_condic": "Aguardando analise", "ind_status": "AT", "dat_atuali": "04/08/2016"}, "geometry": {"type": "Polygon", "coordinates": [[[-52.75972666030535, -27.24437944478447], [-52.75951385332721, -27.24333373841369], [-52.75912387509202, -27.24326785661454], [-52.75721659668638, -27.24365895493341], [-52.75454848736339, -27.24503667735469], [-52.75540263106668, -27.24651390285757], [-52.75410727683977, -27.24950097606447], [-52.75427843432154, -27.25123056833619], [-52.75676324308522, -27.25174071321438], [-52.75889657627395, -27.24869383331369], [-52.75972666030535, -27.24437944478447]]]}}, {"type": "Feature", "properties": {"cod_imovel": "SC-4204202-676D5716AE6A44E5BF57236131A76357", "municipio": "Chapeco", "num_area": 14.8776, "mod_fiscal": 0.7439, "des_condic": "Aguardando analise", "ind_status": "AT", "dat_atuali": "22/04/2015"}, "geometry": {"type": "Polygon", "coordinates": [[[-52.74880215132625, -27.24849883812876], [-52.74686719397329, -27.24832899779383], [-52.74891197915815, -27.25179626472427], [-52.75239910606427, -27.25325018566391], [-52.7534659762145, -27.2534005130121], [-52.75415160865443, -27.25214102882662], [-52.75032110409789, -27.2505546938368], [-52.7501227077411, -27.24961214420791], [-52.74880215132625, -27.24849883812876]]]}}, {"type": "Feature", "properties": {"cod_imovel": "SC-4204202-EC8ED32D573D48649CE3EED258973FFB", "municipio": "Chapeco", "num_area": 12.5467, "mod_fiscal": 0.6273, "des_condic": "Aguardando analise", "ind_status": "AT", "dat_atuali": "27/01/2016"}, "geometry": {"type": "Polygon", "coordinates": [[[-52.75214452934252, -27.25334009978565], [-52.74997154930059, -27.25409287144579], [-52.74919082742926, -27.253804203415], [-52.7482510878672, -27.25585057817259], [-52.74766892456045, -27.25616590033271], [-52.74941219198592, -27.25676275719519], [-52.74930311149338, -27.25617248819957], [-52.75009043076004, -27.25585416077542], [-52.75031412644175, -27.25595064706138], [-52.75113984616928, -27.2557959046177], [-52.75125184728667, -27.25649851557425], [-52.75386753099951, -27.25608657647792], [-52.75214452934252, -27.25334009978565]]]}}, {"type": "Feature", "properties": {"cod_imovel": "SC-4204202-40B96EA1D5214E288BE03F45C328C987", "municipio": "Chapeco", "num_area": 30.9598, "mod_fiscal": 1.548, "des_condic": "Aguardando analise", "ind_status": "AT", "dat_atuali": "25/03/2015"}, "geometry": {"type": "Polygon", "coordinates": [[[-52.75480489371196, -27.24665198916412], [-52.75463026103754, -27.24796958383044], [-52.75238418623727, -27.24715353118172], [-52.75227850922956, -27.24681092787496], [-52.75186075902602, -27.24698785795828], [-52.75015511500733, -27.24678437790764], [-52.74803998542921, -27.24817313466798], [-52.74965206330958, -27.24916641045207], [-52.75020820444503, -27.24992938182074], [-52.75027158789887, -27.2505202297716], [-52.75201747148513, -27.25127513484559], [-52.75536767301048, -27.25125855654282], [-52.75634305845852, -27.24981261327761], [-52.75678198974102, -27.24840553439762], [-52.75650616716415, -27.24667340656845], [-52.75480489371196, -27.24665198916412]]]}}, {"type": "Feature", "properties": {"cod_imovel": "SC-4204202-97CE6F905A8749E5BC14FE7B64856FE3", "municipio": "Chapeco", "num_area": 3.999, "mod_fiscal": 0.2, "des_condic": "Aguardando analise", "ind_status": "AT", "dat_atuali": "19/03/2020"}, "geometry": {"type": "Polygon", "coordinates": [[[-52.75716304779053, -27.251825452126752], [-52.754459381103516, -27.251443932966534], [-52.75397319094596, -27.25225470223287], [-52.757313251495354, -27.253275213001782], [-52.75763166060914, -27.25273114074589], [-52.75703430175781, -27.252359576752728], [-52.75716304779053, -27.251825452126752]]]}}]}