{"type": "FeatureCollection", "features": [{"type": "Feature", "properties": {"cod_imovel": "SC-4205407-D57C38F8ABBA42EEB98FC85BF83A804D", "municipio": "Florianopolis", "num_area": 24.6004, "mod_fiscal": 3.5143, "des_condic": "Aguardando analise", "ind_status": "AT", "dat_atuali": "04/05/2016"}, "geometry": {"type": "Polygon", "coordinates": [[[-48.44273674535148, -27.48689205574386], [-48.44263855401668, -27.48509198490993], [-48.43884770605024, -27.48573494967891], [-48.43878643037304, -27.48537012345124], [-48.43850553737683, -27.48506154271702], [-48.4381323781776, -27.48504975466216], [-48.43811087429081, -27.48588463976979], [-48.43045043140238, -27.48684201850278], [-48.43045751223804, -27.48875324404967], [-48.44273674535148, -27.48689205574386]]]}}, {"type": "Feature", "properties": {"cod_imovel": "SC-4205407-1FEF8297EA474A26998F52C3F7436E67", "municipio": "Florianopolis", "num_area": 1.103, "mod_fiscal": 0.1576, "des_condic": "Aguardando analise", "ind_status": "AT", "dat_atuali": "24/11/2025"}, "geometry": {"type": "Polygon", "coordinates": [[[-48.41328117509219, -27.44667646554921], [-48.41505707566829, -27.44669077280106], [-48.4150426073111, -27.44610857727949], [-48.41330815111324, -27.44611226483038], [-48.41328117509219, -27.44667646554921]]]}}, {"type": "Feature", "properties": {"cod_imovel": "SC-4205407-FFB043D0A9BF40A685AA4F38E8AAF408", "municipio": "Florianopolis", "num_area": 1400.822, "mod_fiscal": 199.6666, "des_condic": "Aguardando analise", "ind_status": "AT", "dat_atuali": "28/07/2016"}, "geometry": {"type": "Polygon", "coordinates": [[[-48.39376908938811, -27.491266492304394], [-48.40124898773923, -27.500185434685918], [-48.417787545985355, -27.524674033183533], [-48.41998984837831, -27.528748026892277], [-48.424303478063464, -27.537778457506626], [-48.42596495000209, -27.542058891662126], [-48.42758865241744, -27.54709650991755], [-48.42891004017489, -27.552949575527773], [-48.42941612213736, -27.556865729728578], [-48.42946785472563, -27.560295275416696], [-48.42902247466775, -27.564202837246878], [-48.42863236473038, -27.56617156135431], [-48.42744217417882, -27.5694517814877], [-48.428475486605095, -27.56899272595294], [-48.429127641918264, -27.569248412515215], [-48.43069880097441, -27.568736139300118], [-48.43150772140672, -27.57008644994379], [-48.432546198683625, -27.570710171230854], [-48.434074359730786, -27.572046699374315], [-48.433616180072924, -27.57389688701918], [-48.43378382954223, -27.574089460685304], [-48.43207578108161, -27.574824798287004], [-48.43229256437529, -27.575081440673706], [-48.43271403530329, -27.574809534938165], [-48.4331508001645, -27.575620622455997], [-48.434072191109315, -27.575186525612974], [-48.43431355674001, -27.57830378428673], [-48.43521367619061, -27.579655763300607], [-48.43611254556551, -27.57932048694877], [-48.43726983751998, -27.581371944911098], [-48.44034696927195, -27.58229489485001], [-48.44143039888644, -27.58098854397654], [-48.443035515649186, -27.5820737692517], [-48.4466144156697, -27.57838622934524], [-48.4484219836669, -27.576849523019906], [-48.44891959285589, -27.57591128860505], [-48.449052614780186, -27.574100177177602], [-48.447629401933916, -27.57434469901753], [-48.447125944871395, -27.575535455632128], [-48.44592892826172, -27.57563073305876], [-48.44363420585661, -27.57372080944068], [-48.443384597319856, -27.57182145779464], [-48.44310112813254, -27.571383150710485], [-48.44376334236192, -27.569022387947534], [-48.443562305130584, -27.568522440958937], [-48.443135274372096, -27.568162694790757], [-48.44217796754905, -27.56665632692111], [-48.440929998340984, -27.56546038970611], [-48.44011122950192, -27.564967098368367], [-48.44004986083697, -27.56368475229017], [-48.44038269911039, -27.5633029140259], [-48.440329719754885, -27.56296809976709], [-48.44073213951473, -27.56264167884175], [-48.44097059385431, -27.561527265122756], [-48.440305114126836, -27.560973642208932], [-48.43954926658943, -27.560824369196492], [-48.43995523684044, -27.56034463069709], [-48.43990916360316, -27.559712196382122], [-48.441366444683865, -27.55886385477416], [-48.445317534937764, -27.55524631718271], [-48.44569581439571, -27.55464875516457], [-48.446755625020785, -27.553910335724932], [-48.446855667831585, -27.553524199458526], [-48.44794716585525, -27.552290104637105], [-48.44836328186948, -27.55136841227307], [-48.44893599043093, -27.551117273102342], [-48.44944908780667, -27.54950261025484], [-48.44930501443557, -27.549166125306243], [-48.44943664924861, -27.54872643017466], [-48.44989416561725, -27.548202490275987], [-48.44998761309181, -27.547662843735914], [-48.45024870271834, -27.547315750638475], [-48.45037196408302, -27.546361606596086], [-48.4510080171306, -27.545119122145092], [-48.45094101805797, -27.54451337166517], [-48.45043780478802, -27.54438684308569], [-48.45041057301453, -27.54425100281093], [-48.450727032702744, -27.543697402043254], [-48.45250012593184, -27.541871244978974], [-48.45272342450084, -27.54140615768857], [-48.44940185230209, -27.541029429469283], [-48.44824515034837, -27.54071044247685], [-48.44608134459219, -27.53973232802108], [-48.44513630831926, -27.538578096563462], [-48.44522778378101, -27.537686532305393], [-48.44357685293627, -27.53466966172404], [-48.44034754375738, -27.53381622378751], [-48.439215781136376, -27.533299127040447], [-48.43784657520225, -27.532109967183196], [-48.43748387569162, -27.531164923183557], [-48.435653662541874, -27.53196124998278], [-48.43495202059472, -27.53210168693051], [-48.43393123620029, -27.532037729707298], [-48.43313904593715, -27.53128324367544], [-48.43266237890577, -27.530453378649263], [-48.432857774235046, -27.529013364755915], [-48.43271293579724, -27.52871294218484], [-48.43057336220003, -27.528014752771103], [-48.42909890796017, -27.526570934627006], [-48.42606326754082, -27.52610873567325], [-48.425626122943626, -27.525757780497358], [-48.42540643651463, -27.52476122355721], [-48.425803042766134, -27.524245256942198], [-48.426479122448356, -27.52389687059541], [-48.42571465801971, -27.52326015445065], [-48.425974670148236, -27.52252511431607], [-48.4238968834199, -27.523091139855406], [-48.423679791448045, -27.52285252857768], [-48.42367532416475, -27.522175749767534], [-48.423076455612836, -27.52008042601578], [-48.422783279061754, -27.519632883197854], [-48.42171517887084, -27.518999540736928], [-48.41885220336776, -27.5198216066469], [-48.41834154385441, -27.518720390428452], [-48.41796557425132, -27.518785588884317], [-48.41762921625017, -27.518021443619684], [-48.41692047947986, -27.517169176242998], [-48.41625853726312, -27.51691326618709], [-48.41564822741629, -27.517046284073267], [-48.41522464502382, -27.516118106030333], [-48.41491970291389, -27.516175594505384], [-48.41382367691179, -27.514576259834453], [-48.4134724016133, -27.51358626431853], [-48.4121772971443, -27.511414792900972], [-48.41165623232931, -27.50946524071796], [-48.41113973895802, -27.50948269352924], [-48.41115303811609, -27.508914518951457], [-48.411527709826046, -27.508903448653484], [-48.41084235072938, -27.505759855844452], [-48.41041863344782, -27.504840686336966], [-48.40989629162979, -27.504244491730397], [-48.40820298704883, -27.503960313244104], [-48.40789538668992, -27.503268865383717], [-48.408068441746686, -27.50236081135154], [-48.40662572171653, -27.499157963031106], [-48.40609535733424, -27.499337548541536], [-48.40540303280499, -27.498656960340817], [-48.40559234664565, -27.49748754877185], [-48.40486600537411, -27.495669471778886], [-48.40424200737642, -27.49466533884279], [-48.40305386122913, -27.49485068274997], [-48.40213954353916, -27.49199148215592], [-48.40058592548097, -27.490076731837163], [-48.39865854091671, -27.4825429070346], [-48.39650699358817, -27.479389863183595], [-48.39629957416062, -27.477455141650246], [-48.39654932093435, -27.476728981777708], [-48.39668075600057, -27.475441205358685], [-48.39559214301621, -27.472262919462747], [-48.38823281706199, -27.472909977073837], [-48.383739568822165, -27.481550409065193], [-48.38327791557069, -27.48182142762691], [-48.39376908938811, -27.491266492304394]]]}}, {"type": "Feature", "properties": {"cod_imovel": "SC-4205407-6474F9EFB62A4C50A1DEE64A40076886", "municipio": "Florianopolis", "num_area": 3.3498, "mod_fiscal": 0.4785, "des_condic": "Aguardando analise", "ind_status": "AT", "dat_atuali": "20/05/2016"}, "geometry": {"type": "Polygon", "coordinates": [[[-48.41468373564888, -27.43494959536192], [-48.41487265598296, -27.43573792036301], [-48.41866558184587, -27.43507798368439], [-48.41841622268392, -27.43431766086863], [-48.41468373564888, -27.43494959536192]]]}}, {"type": "Feature", "properties": {"cod_imovel": "SC-4205407-CAD1C8915ED94A5CB04959F512E45A4A", "municipio": "Florianopolis", "num_area": 3.0001, "mod_fiscal": 0.4286, "des_condic": "Aguardando analise", "ind_status": "AT", "dat_atuali": "16/09/2024"}, "geometry": {"type": "Polygon", "coordinates": [[[-48.46442564786295, -27.49336149797123], [-48.46431450132258, -27.49198192383546], [-48.4621115589845, -27.49284176637849], [-48.46286040230813, -27.49398119373611], [-48.46442564786295, -27.49336149797123]]]}}, {"type": "Feature", "properties": {"cod_imovel": "SC-4205407-3B08F26E8E584B408CB68451E513CEF5", "municipio": "Florianopolis", "num_area": 25.5182, "mod_fiscal": 3.6455, "des_condic": "Aguardando analise", "ind_status": "AT", "dat_atuali": "18/06/2024"}, "geometry": {"type": "Polygon", "coordinates": [[[-48.40971797596431, -27.46864571119946], [-48.40934449680804, -27.46707161945503], [-48.39500322754897, -27.466999682297], [-48.39517442033446, -27.46864311430113], [-48.40971797596431, -27.46864571119946]]]}}, {"type": "Feature", "properties": {"cod_imovel": "SC-4205407-27A27D22A40E4824A3453C02C37D7AE4", "municipio": "Florianopolis", "num_area": 23.7401, "mod_fiscal": 3.3914, "des_condic": "Aguardando analise", "ind_status": "AT", "dat_atuali": "15/05/2024"}, "geometry": {"type": "Polygon", "coordinates": [[[-48.394029353947, -27.47641851090757], [-48.39405494011067, -27.4775236442907], [-48.39609503746033, -27.477535593368525], [-48.39612185955047, -27.477711686133507], [-48.41125120484291, -27.47771842884552], [-48.41121568341557, -27.47644683144647], [-48.394029353947, -27.47641851090757]]]}}, {"type": "Feature", "properties": {"cod_imovel": "SC-4205407-B164E8F3DE64415AAD8DB09E86B0D18C", "municipio": "Florianopolis", "num_area": 3.233, "mod_fiscal": 0.4619, "des_condic": "Aguardando analise", "ind_status": "AT", "dat_atuali": "01/02/2024"}, "geometry": {"type": "Polygon", "coordinates": [[[-48.44219392303421, -27.48723303747796], [-48.4310333933106, -27.48921229204239], [-48.43110117430901, -27.48948057341528], [-48.44212785084564, -27.4874962953477], [-48.44219392303421, -27.48723303747796]]]}}, {"type": "Feature", "properties": {"cod_imovel": "SC-4205407-4F0A677437C84EEB8B7007F81CB565E7", "municipio": "Florianopolis", "num_area": 129.719, "mod_fiscal": 18.5313, "des_condic": "Aguardando analise", "ind_status": "AT", "dat_atuali": "08/02/2021"}, "geometry": {"type": "Polygon", "coordinates": [[[-48.42910366675216, -27.49627907484552], [-48.44167903720574, -27.49771128449532], [-48.44270167667077, -27.49322858265853], [-48.44401187050168, -27.49337715956875], [-48.44508129599463, -27.48906272276272], [-48.43148648050366, -27.4874605554911], [-48.42910366675216, -27.49627907484552]]]}}, {"type": "Feature", "properties": {"cod_imovel": "SC-4205407-69DEB4876D3248DA900F7510272C865E", "municipio": "Florianopolis", "num_area": 6.3003, "mod_fiscal": 0.9, "des_condic": "Aguardando analise", "ind_status": "AT", "dat_atuali": "14/12/2022"}, "geometry": {"type": "Polygon", "coordinates": [[[-48.4618267423062, -27.46992515464494], [-48.46250742554793, -27.469709029578162], [-48.46252885650885, -27.469571254573815], [-48.454944482394275, -27.465286989170966], [-48.454207572131224, -27.46562892838808], [-48.4618267423062, -27.46992515464494]]]}}, {"type": "Feature", "properties": {"cod_imovel": "SC-4205407-2962AA4A4CD94DC6A9DF261727B517D6", "municipio": "Florianopolis", "num_area": 2.0412, "mod_fiscal": 0.2916, "des_condic": "Aguardando analise", "ind_status": "AT", "dat_atuali": "11/07/2023"}, "geometry": {"type": "Polygon", "coordinates": [[[-48.38658392429351, -27.455388495421495], [-48.38125936353492, -27.456471163528], [-48.38129674081491, -27.45660122801926], [-48.3819628210077, -27.45668110720345], [-48.386669754981995, -27.455745511651752], [-48.38658392429351, -27.455388495421495]]]}}, {"type": "Feature", "properties": {"cod_imovel": "SC-4205407-2B9F973F84C342D6817E118FA592FEF6", "municipio": "Florianopolis", "num_area": 24.6004, "mod_fiscal": 3.5143, "des_condic": "Cancelado por duplicidade", "ind_status": "CA", "dat_atuali": null}, "geometry": {"type": "Polygon", "coordinates": [[[-48.44273674535148, -27.48689205574386], [-48.44263855401668, -27.48509198490993], [-48.43884770605024, -27.48573494967891], [-48.43878643037304, -27.48537012345124], [-48.43850553737683, -27.48506154271702], [-48.4381323781776, -27.48504975466216], [-48.43811087429081, -27.48588463976979], [-48.43045043140238, -27.48684201850278], [-48.43045751223804, -27.48875324404967], [-48.44273674535148, -27.48689205574386]]]}}, {"type": "Feature", "properties": {"cod_imovel": "SC-4205407-9E3F7F29E2044A72B07046FDD44F1F87", "municipio": "Florianopolis", "num_area": 7.631, "mod_fiscal": 1.0901, "des_condic": "Aguardando analise", "ind_status": "AT", "dat_atuali": "25/09/2015"}, "geometry": {"type": "Polygon", "coordinates": [[[-48.45307168281408, -27.46263239113965], [-48.45282523021454, -27.46323737663623], [-48.452222225206484, -27.463414920012355], [-48.45905419942815, -27.466700865116298], [-48.45913337087452, -27.46658762937388], [-48.45917399225829, -27.46640863492588], [-48.45748498736442, -27.46539502369014], [-48.45594653420502, -27.46357488292428], [-48.45307168281408, -27.46263239113965]]]}}, {"type": "Feature", "properties": {"cod_imovel": "SC-4205407-B636111798604F4287F741359D64D5D1", "municipio": "Florianopolis", "num_area": 0.6963, "mod_fiscal": 0.0995, "des_condic": "Analisado, aguardando atendimento a notificacao", "ind_status": "AT", "dat_atuali": "24/10/2018"}, "geometry": {"type": "Polygon", "coordinates": [[[-48.42169087243469, -27.41219725426127], [-48.4248067863226, -27.41217429612376], [-48.42475934171394, -27.41196530469304], [-48.4216857079722, -27.41199639389787], [-48.42169087243469, -27.41219725426127]]]}}, {"type": "Feature", "properties": {"cod_imovel": "SC-4205407-1BD1124D20C04894AFC9805F1F07EE39", "municipio": "Florianopolis", "num_area": 7.6448, "mod_fiscal": 1.0921, "des_condic": "Aguardando analise", "ind_status": "AT", "dat_atuali": "13/07/2022"}, "geometry": {"type": "Polygon", "coordinates": [[[-48.47248143588702, -27.44541794050834], [-48.46651222226754, -27.44429971106264], [-48.46846556625533, -27.4459174008259], [-48.46849504368596, -27.44574023868763], [-48.4695293118962, -27.44586760030962], [-48.46945935333232, -27.44665298672409], [-48.47171939101022, -27.44699736200694], [-48.47248143588702, -27.44541794050834]]]}}, {"type": "Feature", "properties": {"cod_imovel": "SC-4205407-FD5130413790435790BE0812A582E86A", "municipio": "Florianopolis", "num_area": 12.9084, "mod_fiscal": 1.8441, "des_condic": "Aguardando analise", "ind_status": "AT", "dat_atuali": "28/06/2019"}, "geometry": {"type": "Polygon", "coordinates": [[[-48.45739761125653, -27.49687078728432], [-48.45906899975069, -27.49798544459577], [-48.45207525844715, -27.48745427356417], [-48.45117178547221, -27.48804994294019], [-48.45727613446052, -27.49703204187107], [-48.45739761125653, -27.49687078728432]]]}}, {"type": "Feature", "properties": {"cod_imovel": "SC-4205407-3C33F62E91DA453C95B2C679F9D7EE79", "municipio": "Florianopolis", "num_area": 2.904, "mod_fiscal": 0.4149, "des_condic": "Aguardando analise", "ind_status": "AT", "dat_atuali": "06/05/2019"}, "geometry": {"type": "Polygon", "coordinates": [[[-48.37635409443391, -27.45377477605931], [-48.37693767040171, -27.45604133012822], [-48.37758962830671, -27.45584611416129], [-48.37786071658682, -27.45464229670743], [-48.37785650693597, -27.4535414866731], [-48.37635409443391, -27.45377477605931]]]}}, {"type": "Feature", "properties": {"cod_imovel": "SC-4205407-4F4B838886D0413DBB5142222E4E7DCD", "municipio": "Florianopolis", "num_area": 7.0781, "mod_fiscal": 1.0112, "des_condic": "Aguardando analise", "ind_status": "AT", "dat_atuali": "14/08/2020"}, "geometry": {"type": "Polygon", "coordinates": [[[-48.41787732358246, -27.47445907255148], [-48.417993646139756, -27.474821866090885], [-48.42230055070504, -27.47481985897974], [-48.42231186920929, -27.475135423972205], [-48.429460528236625, -27.474998641871288], [-48.4289988970398, -27.474346578170618], [-48.41787732358246, -27.47445907255148]]]}}]}