{"type": "FeatureCollection", "features": [{"type": "Feature", "properties": {"cod_imovel": "SC-4205407-030EB186D1F2441696DBD29B3AA73895", "municipio": "Florianopolis", "num_area": 6.7946, "mod_fiscal": 0.9707, "des_condic": "Aguardando analise", "ind_status": "AT", "dat_atuali": "08/04/2026"}, "geometry": {"type": "Polygon", "coordinates": [[[-48.47862013076592, -27.50126831491692], [-48.47777168440647, -27.50137317809786], [-48.47946388567459, -27.50908726344428], [-48.48023474218995, -27.50943398775982], [-48.47862013076592, -27.50126831491692]]]}}, {"type": "Feature", "properties": {"cod_imovel": "SC-4205407-5012E7DFA36B4BEEB9702C7E1AADD4A1", "municipio": "Florianopolis", "num_area": 0.5593, "mod_fiscal": 0.0799, "des_condic": "Aguardando analise", "ind_status": "AT", "dat_atuali": "08/04/2026"}, "geometry": {"type": "Polygon", "coordinates": [[[-48.47876535348531, -27.50553152712889], [-48.47861441404614, -27.50555709993628], [-48.47931646881821, -27.50904519229245], [-48.47946444034324, -27.50908756764954], [-48.47876535348531, -27.50553152712889]]]}}, {"type": "Feature", "properties": {"cod_imovel": "SC-4205407-DB7ABFE27EE54BB7BD9F352E4131D41A", "municipio": "Florianopolis", "num_area": 985.6065, "mod_fiscal": 140.6153, "des_condic": "Aguardando analise", "ind_status": "AT", "dat_atuali": "09/02/2026"}, "geometry": {"type": "Polygon", "coordinates": [[[-48.43404577693452, -27.57204313887376], [-48.43427353215708, -27.57482928582121], [-48.43554812089194, -27.57963755589029], [-48.43593491246661, -27.57934208790957], [-48.43719448399049, -27.58125540976614], [-48.44035442611707, -27.58223420655831], [-48.44172181172263, -27.58080427156765], [-48.44326598680207, -27.58180112906213], [-48.44827001224839, -27.5768768627217], [-48.44897412005394, -27.5758650165694], [-48.44902672198238, -27.57403130224243], [-48.44760420095541, -27.57421864158916], [-48.44709427356553, -27.57546354022667], [-48.44593318384019, -27.5756770802076], [-48.44363381686733, -27.57367296608034], [-48.44307172476386, -27.57121327453424], [-48.44377264989192, -27.56857343407768], [-48.44301661827488, -27.56821507095201], [-48.44273593744561, -27.56739008019566], [-48.44126061330096, -27.5657765949632], [-48.44013627565428, -27.56490460087866], [-48.44001330748449, -27.56404785369994], [-48.44034702531078, -27.56303606991639], [-48.44092676682757, -27.56210871304854], [-48.4409618024624, -27.56134523066889], [-48.44031170004779, -27.56100196158917], [-48.43950374678673, -27.56081485677075], [-48.43999549500172, -27.56034765050592], [-48.43985495799541, -27.55972484862904], [-48.44061021630443, -27.55916455641735], [-48.44129533917821, -27.55889995292895], [-48.44319206681406, -27.55699984079094], [-48.4451560542831, -27.55546376693755], [-48.44547213301317, -27.55476298767714], [-48.44668393924645, -27.55392204535864], [-48.44682451631654, -27.55348590588945], [-48.44807140883861, -27.55208688260245], [-48.44835224655998, -27.55146368258579], [-48.44898448986581, -27.55094979171292], [-48.44945848408429, -27.54880074664214], [-48.4506875787977, -27.54584319323371], [-48.45096811845932, -27.54459715187463], [-48.45040681172487, -27.54441083054942], [-48.45268913210823, -27.54132680770085], [-48.44982293320257, -27.54112038948012], [-48.44836596432501, -27.54076251539923], [-48.44604705178264, -27.53965654539752], [-48.44522402845462, -27.53855303643489], [-48.44520870162669, -27.53762010212662], [-48.44359478333986, -27.53467933889103], [-48.44095501423255, -27.53398833875148], [-48.43925541788973, -27.53330500269577], [-48.43783650977856, -27.53209395784936], [-48.43749578679432, -27.53117741612578], [-48.43486338080617, -27.53215697362876], [-48.43396362260417, -27.53204574084113], [-48.43289612039768, -27.53084981476851], [-48.43265090721117, -27.53015049626531], [-48.43265118712224, -27.52952883567414], [-48.43288237409234, -27.52899984297435], [-48.43269069464969, -27.52882838792917], [-48.43093647633658, -27.53000308263301], [-48.43653605300376, -27.54854526615131], [-48.43666456148103, -27.55154418209396], [-48.43703164255551, -27.55365729864281], [-48.43797231701122, -27.55332109204453], [-48.43810682537091, -27.55519726930305], [-48.43733902969191, -27.55562870454127], [-48.43683783393288, -27.55370237241808], [-48.43555580069637, -27.54642169819741], [-48.43306719661626, -27.53934684177775], [-48.4320465409406, -27.5345146394754], [-48.43020881407576, -27.53025495761137], [-48.42700138927864, -27.52698888477105], [-48.42617636083902, -27.52673931616697], [-48.4265686147903, -27.52615199657097], [-48.42611208173697, -27.52615180144155], [-48.42544276847961, -27.52529502242811], [-48.42554947987174, -27.52451767145324], [-48.42642681348299, -27.52378650348505], [-48.42570868815756, -27.52322598825209], [-48.42588425585926, -27.52249449986765], [-48.42391792837662, -27.52299322191404], [-48.42335659225273, -27.52258905009692], [-48.42358429067135, -27.52190527752279], [-48.4229358384414, -27.51972700129265], [-48.4216727213599, -27.51893000782991], [-48.41550054725317, -27.52072210040513], [-48.41936330005825, -27.52765969880652], [-48.4245553036095, -27.53839511186994], [-48.4277864436902, -27.54795610065236], [-48.42938512876717, -27.55632035898573], [-48.42940264058894, -27.56095454956722], [-48.42854132378621, -27.56636100116326], [-48.4274164742723, -27.56949534125762], [-48.42848757576649, -27.56899662194498], [-48.42911986882327, -27.56926129334405], [-48.43068222301832, -27.56874779622587], [-48.43148871842898, -27.57013251204426], [-48.43255550988129, -27.57069089190058], [-48.43404577693452, -27.57204313887376]]]}}, {"type": "Feature", "properties": {"cod_imovel": "SC-4205407-398650358C1B47FEB618B7043E8AB2A4", "municipio": "Florianopolis", "num_area": 0.4583, "mod_fiscal": 0.0655, "des_condic": "Aguardando analise", "ind_status": "AT", "dat_atuali": "18/09/2025"}, "geometry": {"type": "Polygon", "coordinates": [[[-48.453093, -27.508951], [-48.4533, -27.508852], [-48.451708, -27.507602], [-48.451378, -27.507584], [-48.453093, -27.508951]]]}}, {"type": "Feature", "properties": {"cod_imovel": "SC-4205407-47EA5F32B744450591B06284DD496C8C", "municipio": "Florianopolis", "num_area": 30.6632, "mod_fiscal": 4.2966, "des_condic": "Aguardando analise", "ind_status": "AT", "dat_atuali": "27/04/2018"}, "geometry": {"type": "Polygon", "coordinates": [[[-48.43595245943922, -27.594940458898677], [-48.43522714575442, -27.5937085927742], [-48.42681359503549, -27.59461778695637], [-48.42838919952587, -27.5957510644581], [-48.42904632327034, -27.597552657476978], [-48.42819874711054, -27.597615545237826], [-48.42814566560537, -27.597767101100743], [-48.42901396340273, -27.597708780781563], [-48.42857727480628, -27.59821070686301], [-48.435032449081405, -27.597704683665118], [-48.43554309173025, -27.597078648446367], [-48.435360095469235, -27.595760543377697], [-48.43595245943922, -27.594940458898677]]]}}, {"type": "Feature", "properties": {"cod_imovel": "SC-4205407-AEEE3A2799134BB7B3C1C7EEFEFF9123", "municipio": "Florianopolis", "num_area": 1.0842, "mod_fiscal": 0.1549, "des_condic": "Aguardando analise", "ind_status": "AT", "dat_atuali": "23/04/2018"}, "geometry": {"type": "Polygon", "coordinates": [[[-48.42857727480628, -27.59821070686303], [-48.43496323862525, -27.597840748635218], [-48.43503244908129, -27.59770468366528], [-48.42857727480628, -27.59821070686303]]]}}, {"type": "Feature", "properties": {"cod_imovel": "SC-4205407-FFB043D0A9BF40A685AA4F38E8AAF408", "municipio": "Florianopolis", "num_area": 1400.822, "mod_fiscal": 199.6666, "des_condic": "Aguardando analise", "ind_status": "AT", "dat_atuali": "28/07/2016"}, "geometry": {"type": "Polygon", "coordinates": [[[-48.39376908938811, -27.491266492304394], [-48.40124898773923, -27.500185434685918], [-48.417787545985355, -27.524674033183533], [-48.41998984837831, -27.528748026892277], [-48.424303478063464, -27.537778457506626], [-48.42596495000209, -27.542058891662126], [-48.42758865241744, -27.54709650991755], [-48.42891004017489, -27.552949575527773], [-48.42941612213736, -27.556865729728578], [-48.42946785472563, -27.560295275416696], [-48.42902247466775, -27.564202837246878], [-48.42863236473038, -27.56617156135431], [-48.42744217417882, -27.5694517814877], [-48.428475486605095, -27.56899272595294], [-48.429127641918264, -27.569248412515215], [-48.43069880097441, -27.568736139300118], [-48.43150772140672, -27.57008644994379], [-48.432546198683625, -27.570710171230854], [-48.434074359730786, -27.572046699374315], [-48.433616180072924, -27.57389688701918], [-48.43378382954223, -27.574089460685304], [-48.43207578108161, -27.574824798287004], [-48.43229256437529, -27.575081440673706], [-48.43271403530329, -27.574809534938165], [-48.4331508001645, -27.575620622455997], [-48.434072191109315, -27.575186525612974], [-48.43431355674001, -27.57830378428673], [-48.43521367619061, -27.579655763300607], [-48.43611254556551, -27.57932048694877], [-48.43726983751998, -27.581371944911098], [-48.44034696927195, -27.58229489485001], [-48.44143039888644, -27.58098854397654], [-48.443035515649186, -27.5820737692517], [-48.4466144156697, -27.57838622934524], [-48.4484219836669, -27.576849523019906], [-48.44891959285589, -27.57591128860505], [-48.449052614780186, -27.574100177177602], [-48.447629401933916, -27.57434469901753], [-48.447125944871395, -27.575535455632128], [-48.44592892826172, -27.57563073305876], [-48.44363420585661, -27.57372080944068], [-48.443384597319856, -27.57182145779464], [-48.44310112813254, -27.571383150710485], [-48.44376334236192, -27.569022387947534], [-48.443562305130584, -27.568522440958937], [-48.443135274372096, -27.568162694790757], [-48.44217796754905, -27.56665632692111], [-48.440929998340984, -27.56546038970611], [-48.44011122950192, -27.564967098368367], [-48.44004986083697, -27.56368475229017], [-48.44038269911039, -27.5633029140259], [-48.440329719754885, -27.56296809976709], [-48.44073213951473, -27.56264167884175], [-48.44097059385431, -27.561527265122756], [-48.440305114126836, -27.560973642208932], [-48.43954926658943, -27.560824369196492], [-48.43995523684044, -27.56034463069709], [-48.43990916360316, -27.559712196382122], [-48.441366444683865, -27.55886385477416], [-48.445317534937764, -27.55524631718271], [-48.44569581439571, -27.55464875516457], [-48.446755625020785, -27.553910335724932], [-48.446855667831585, -27.553524199458526], [-48.44794716585525, -27.552290104637105], [-48.44836328186948, -27.55136841227307], [-48.44893599043093, -27.551117273102342], [-48.44944908780667, -27.54950261025484], [-48.44930501443557, -27.549166125306243], [-48.44943664924861, -27.54872643017466], [-48.44989416561725, -27.548202490275987], [-48.44998761309181, -27.547662843735914], [-48.45024870271834, -27.547315750638475], [-48.45037196408302, -27.546361606596086], [-48.4510080171306, -27.545119122145092], [-48.45094101805797, -27.54451337166517], [-48.45043780478802, -27.54438684308569], [-48.45041057301453, -27.54425100281093], [-48.450727032702744, -27.543697402043254], [-48.45250012593184, -27.541871244978974], [-48.45272342450084, -27.54140615768857], [-48.44940185230209, -27.541029429469283], [-48.44824515034837, -27.54071044247685], [-48.44608134459219, -27.53973232802108], [-48.44513630831926, -27.538578096563462], [-48.44522778378101, -27.537686532305393], [-48.44357685293627, -27.53466966172404], [-48.44034754375738, -27.53381622378751], [-48.439215781136376, -27.533299127040447], [-48.43784657520225, -27.532109967183196], [-48.43748387569162, -27.531164923183557], [-48.435653662541874, -27.53196124998278], [-48.43495202059472, -27.53210168693051], [-48.43393123620029, -27.532037729707298], [-48.43313904593715, -27.53128324367544], [-48.43266237890577, -27.530453378649263], [-48.432857774235046, -27.529013364755915], [-48.43271293579724, -27.52871294218484], [-48.43057336220003, -27.528014752771103], [-48.42909890796017, -27.526570934627006], [-48.42606326754082, -27.52610873567325], [-48.425626122943626, -27.525757780497358], [-48.42540643651463, -27.52476122355721], [-48.425803042766134, -27.524245256942198], [-48.426479122448356, -27.52389687059541], [-48.42571465801971, -27.52326015445065], [-48.425974670148236, -27.52252511431607], [-48.4238968834199, -27.523091139855406], [-48.423679791448045, -27.52285252857768], [-48.42367532416475, -27.522175749767534], [-48.423076455612836, -27.52008042601578], [-48.422783279061754, -27.519632883197854], [-48.42171517887084, -27.518999540736928], [-48.41885220336776, -27.5198216066469], [-48.41834154385441, -27.518720390428452], [-48.41796557425132, -27.518785588884317], [-48.41762921625017, -27.518021443619684], [-48.41692047947986, -27.517169176242998], [-48.41625853726312, -27.51691326618709], [-48.41564822741629, -27.517046284073267], [-48.41522464502382, -27.516118106030333], [-48.41491970291389, -27.516175594505384], [-48.41382367691179, -27.514576259834453], [-48.4134724016133, -27.51358626431853], [-48.4121772971443, -27.511414792900972], [-48.41165623232931, -27.50946524071796], [-48.41113973895802, -27.50948269352924], [-48.41115303811609, -27.508914518951457], [-48.411527709826046, -27.508903448653484], [-48.41084235072938, -27.505759855844452], [-48.41041863344782, -27.504840686336966], [-48.40989629162979, -27.504244491730397], [-48.40820298704883, -27.503960313244104], [-48.40789538668992, -27.503268865383717], [-48.408068441746686, -27.50236081135154], [-48.40662572171653, -27.499157963031106], [-48.40609535733424, -27.499337548541536], [-48.40540303280499, -27.498656960340817], [-48.40559234664565, -27.49748754877185], [-48.40486600537411, -27.495669471778886], [-48.40424200737642, -27.49466533884279], [-48.40305386122913, -27.49485068274997], [-48.40213954353916, -27.49199148215592], [-48.40058592548097, -27.490076731837163], [-48.39865854091671, -27.4825429070346], [-48.39650699358817, -27.479389863183595], [-48.39629957416062, -27.477455141650246], [-48.39654932093435, -27.476728981777708], [-48.39668075600057, -27.475441205358685], [-48.39559214301621, -27.472262919462747], [-48.38823281706199, -27.472909977073837], [-48.383739568822165, -27.481550409065193], [-48.38327791557069, -27.48182142762691], [-48.39376908938811, -27.491266492304394]]]}}, {"type": "Feature", "properties": {"cod_imovel": "SC-4205407-9FE832856B24402F91E90F0DFF36FE88", "municipio": "Florianopolis", "num_area": 7.6886, "mod_fiscal": 1.0984, "des_condic": "Aguardando analise", "ind_status": "AT", "dat_atuali": "04/05/2015"}, "geometry": {"type": "Polygon", "coordinates": [[[-48.5007982580614, -27.6116040980412], [-48.50264390619067, -27.6099974659285], [-48.50147084809713, -27.60816566777672], [-48.49883569151306, -27.61135691171187], [-48.4994029657062, -27.61229303792458], [-48.5007982580614, -27.6116040980412]]]}}, {"type": "Feature", "properties": {"cod_imovel": "SC-4205407-165CD273EABB48B88E5F2FE373D455C8", "municipio": "Florianopolis", "num_area": 2.7179, "mod_fiscal": 0.3883, "des_condic": "Aguardando analise", "ind_status": "AT", "dat_atuali": "25/03/2025"}, "geometry": {"type": "Polygon", "coordinates": [[[-48.47631653434922, -27.50445791290126], [-48.47737067948142, -27.50862814434193], [-48.47801636997909, -27.50877607615303], [-48.47690768271206, -27.50456247970669], [-48.47631653434922, -27.50445791290126]]]}}, {"type": "Feature", "properties": {"cod_imovel": "SC-4205407-83DC8405494543B18F08A7C56A8D8816", "municipio": "Florianopolis", "num_area": 240.2917, "mod_fiscal": 34.3274, "des_condic": "Aguardando analise", "ind_status": "AT", "dat_atuali": "29/05/2018"}, "geometry": {"type": "Polygon", "coordinates": [[[-48.4925156571, -27.559016831], [-48.4927520916, -27.5584372353], [-48.476956723, -27.5488562817], [-48.4726703227, -27.5551486809], [-48.4724334206, -27.5562781145], [-48.4726390654, -27.5571145863], [-48.4725135179, -27.5572339223], [-48.473836986, -27.5596428758], [-48.473613455, -27.559757942], [-48.4751419312, -27.5625044141], [-48.4749246093, -27.5626042222], [-48.4750896844, -27.562898368], [-48.4761158719, -27.5623797841], [-48.4790517243, -27.5676404327], [-48.4821049157, -27.5661246037], [-48.4823500184, -27.5665720962], [-48.4831638806, -27.5661620032], [-48.4836702364, -27.567049506], [-48.4881577825, -27.5646812976], [-48.4889190037, -27.5623731151], [-48.4896362855, -27.5622979087], [-48.4903970954, -27.5619549278], [-48.4912085374, -27.561995484], [-48.4920529611, -27.561461176], [-48.4922231228, -27.5610129436], [-48.4920582641, -27.5605817488], [-48.4931311936, -27.5606106385], [-48.4925156571, -27.559016831]]]}}, {"type": "Feature", "properties": {"cod_imovel": "SC-4205407-71BB1BCBBD2A4207BA6438F54716115A", "municipio": "Florianopolis", "num_area": 158.8376, "mod_fiscal": 22.6911, "des_condic": "Aguardando analise", "ind_status": "AT", "dat_atuali": "28/07/2016"}, "geometry": {"type": "Polygon", "coordinates": [[[-48.43434805045481, -27.51015645186084], [-48.43350200522563, -27.510420541787063], [-48.43149537271305, -27.51011281110933], [-48.43092715808077, -27.51104969321634], [-48.42995306450088, -27.512033206918062], [-48.42935233159885, -27.512626619508172], [-48.42856296522614, -27.51306315573986], [-48.42801144473429, -27.51284543417371], [-48.42562107700541, -27.51293653685456], [-48.4268849058196, -27.51559454042089], [-48.42786725711173, -27.5164337774488], [-48.428955974941026, -27.516616322439976], [-48.42962832687881, -27.517296430055804], [-48.43043549965239, -27.51914294804939], [-48.43081525944092, -27.52239811906344], [-48.43127490562069, -27.523958508377913], [-48.43237331140142, -27.525034451688082], [-48.43318721696738, -27.526159269716924], [-48.43538775572787, -27.527282607756714], [-48.43604436927635, -27.527772922554114], [-48.43654938580114, -27.52912661413889], [-48.43742963364623, -27.52957593430437], [-48.439245250341294, -27.529843987527713], [-48.43984432888416, -27.530197885654292], [-48.440543447706666, -27.530165648625783], [-48.44094075270456, -27.529180469929557], [-48.440613450809884, -27.526269140416467], [-48.441750130809915, -27.52263587709511], [-48.441449997495965, -27.521610789499796], [-48.441608435559345, -27.520449778359605], [-48.441352320520075, -27.519272114967396], [-48.436555263878404, -27.520582258383058], [-48.43434805045481, -27.51015645186084]]]}}, {"type": "Feature", "properties": {"cod_imovel": "SC-4205407-7D0EB466235E450ABC76F78F880684A0", "municipio": "Florianopolis", "num_area": 2.1972, "mod_fiscal": 0.3139, "des_condic": "Aguardando analise", "ind_status": "AT", "dat_atuali": "17/08/2015"}, "geometry": {"type": "Polygon", "coordinates": [[[-48.48048400759633, -27.60383579201266], [-48.48303844071859, -27.60282489896133], [-48.48274079885177, -27.60208776085558], [-48.48060515092693, -27.60318842176096], [-48.48075170852648, -27.60289723297771], [-48.4798786134676, -27.60340441837206], [-48.48048400759633, -27.60383579201266]]]}}, {"type": "Feature", "properties": {"cod_imovel": "SC-4205407-BE3F421D323E42FEBA645D248636CBCE", "municipio": "Florianopolis", "num_area": 6.075, "mod_fiscal": 0.8679, "des_condic": "Aguardando analise", "ind_status": "AT", "dat_atuali": "03/12/2024"}, "geometry": {"type": "Polygon", "coordinates": [[[-48.47164945933075, -27.522848532446403], [-48.470502753995184, -27.515689423867606], [-48.47020329655816, -27.515733644784284], [-48.47025603120418, -27.51613855102773], [-48.46982472698748, -27.516416311906703], [-48.470939794335, -27.523340904136834], [-48.47164945933075, -27.522848532446403]]]}}, {"type": "Feature", "properties": {"cod_imovel": "SC-4205407-48B260DE24A44A678606538C24A146AB", "municipio": "Florianopolis", "num_area": 1.0007, "mod_fiscal": 0.143, "des_condic": "Aguardando analise", "ind_status": "AT", "dat_atuali": "07/10/2021"}, "geometry": {"type": "Polygon", "coordinates": [[[-48.467011382, -27.5216651912], [-48.4686579605, -27.5214463859], [-48.46857538490001, -27.520952487], [-48.4668994266, -27.5210781572], [-48.467011382, -27.5216651912]]]}}, {"type": "Feature", "properties": {"cod_imovel": "SC-4205407-A3B7DD93376748478CC616D985096DE3", "municipio": "Florianopolis", "num_area": 1.5627, "mod_fiscal": 0.2232, "des_condic": "Aguardando analise", "ind_status": "AT", "dat_atuali": "09/03/2024"}, "geometry": {"type": "Polygon", "coordinates": [[[-48.46776726248253, -27.52810175426586], [-48.46493534843588, -27.52845283798126], [-48.46489515774894, -27.52849029838646], [-48.46494311675596, -27.52862412450732], [-48.46622011642148, -27.52889361103644], [-48.46786231552747, -27.52868112785343], [-48.46776726248253, -27.52810175426586]]]}}, {"type": "Feature", "properties": {"cod_imovel": "SC-4205407-8FF0D88DA4D548A3AFBA3EA2FB90C6F3", "municipio": "Florianopolis", "num_area": 8.49, "mod_fiscal": 1.2129, "des_condic": "Aguardando analise", "ind_status": "AT", "dat_atuali": "01/02/2024"}, "geometry": {"type": "Polygon", "coordinates": [[[-48.47918669834, -27.509574498482], [-48.481590026369, -27.52110456169], [-48.48225556404, -27.521148299187], [-48.479843019213, -27.509465745527], [-48.47918669834, -27.509574498482]]]}}, {"type": "Feature", "properties": {"cod_imovel": "SC-4205407-3C4FFD49E87147BF929B01369EEB1874", "municipio": "Florianopolis", "num_area": 5.9682, "mod_fiscal": 0.8526, "des_condic": "Aguardando analise", "ind_status": "AT", "dat_atuali": "15/12/2023"}, "geometry": {"type": "Polygon", "coordinates": [[[-48.45079258333334, -27.508484], [-48.44984119444444, -27.509538194444445], [-48.45323838888889, -27.51149911111111], [-48.45418977777778, -27.510444888888888], [-48.45079258333334, -27.508484]]]}}, {"type": "Feature", "properties": {"cod_imovel": "SC-4205407-3916293B5B3A4DC2AF75F6E06B375834", "municipio": "Florianopolis", "num_area": 10.8472, "mod_fiscal": 1.5496, "des_condic": "Aguardando analise", "ind_status": "AT", "dat_atuali": "14/02/2023"}, "geometry": {"type": "Polygon", "coordinates": [[[-48.49334236634785, -27.52068810448845], [-48.491192538620126, -27.509758294535015], [-48.490535034445074, -27.509798246967897], [-48.49066063856381, -27.51059409697185], [-48.49042380046015, -27.510633911686206], [-48.49044098793134, -27.51076502026103], [-48.49245138688258, -27.52083512828991], [-48.49334236634785, -27.52068810448845]]]}}, {"type": "Feature", "properties": {"cod_imovel": "SC-4205407-1DE338CD7AF24DCA9BD510AF73D467EC", "municipio": "Florianopolis", "num_area": 7.948, "mod_fiscal": 1.1354, "des_condic": "Aguardando analise", "ind_status": "AT", "dat_atuali": "11/05/2022"}, "geometry": {"type": "Polygon", "coordinates": [[[-48.50126737347081, -27.50810289977091], [-48.495240211486816, -27.50758626848841], [-48.49518439807609, -27.50875952854461], [-48.50130270226692, -27.50931692363616], [-48.50126737347081, -27.50810289977091]]]}}, {"type": "Feature", "properties": {"cod_imovel": "SC-4205407-0B7D7E8FE5D547489B3CE737F252DD52", "municipio": "Florianopolis", "num_area": 7.3046, "mod_fiscal": 1.0435, "des_condic": "Aguardando analise", "ind_status": "AT", "dat_atuali": "25/03/2023"}, "geometry": {"type": "Polygon", "coordinates": [[[-48.47167948010774, -27.57469656508018], [-48.47163759814828, -27.57669251308583], [-48.47498059624656, -27.57675755909797], [-48.47502556393398, -27.57476620049656], [-48.47167948010774, -27.57469656508018]]]}}, {"type": "Feature", "properties": {"cod_imovel": "SC-4205407-493EE3C053004C5DA92BF766B3F4149E", "municipio": "Florianopolis", "num_area": 2.0062, "mod_fiscal": 0.2866, "des_condic": "Aguardando analise", "ind_status": "AT", "dat_atuali": "18/10/2023"}, "geometry": {"type": "Polygon", "coordinates": [[[-48.4737249110966, -27.50651975317796], [-48.47348422190432, -27.50538102429901], [-48.47226212414629, -27.50559557496934], [-48.47260236540648, -27.50670164772173], [-48.47360744788915, -27.50738295745776], [-48.47344860877931, -27.5065198078425], [-48.4737249110966, -27.50651975317796]]]}}, {"type": "Feature", "properties": {"cod_imovel": "SC-4205407-9509D566B91141B4BAAFA1BB66A21BAD", "municipio": "Florianopolis", "num_area": 7.92, "mod_fiscal": 1.1314, "des_condic": "Aguardando analise", "ind_status": "AT", "dat_atuali": "29/08/2023"}, "geometry": {"type": "Polygon", "coordinates": [[[-48.46052494576052, -27.538976657454068], [-48.46070779396812, -27.539377813519618], [-48.476176952409624, -27.533774123190675], [-48.47599405378543, -27.53337298405389], [-48.46052494576052, -27.538976657454068]]]}}, {"type": "Feature", "properties": {"cod_imovel": "SC-4205407-88D64141731A4AAA9A39FE18732AC2BB", "municipio": "Florianopolis", "num_area": 2.2072, "mod_fiscal": 0.3153, "des_condic": "Aguardando analise", "ind_status": "AT", "dat_atuali": "19/07/2023"}, "geometry": {"type": "Polygon", "coordinates": [[[-48.47347623685806, -27.50539366310011], [-48.47311690570801, -27.50379195383391], [-48.47190868456018, -27.50400377216224], [-48.47225944300911, -27.50559244567559], [-48.47347623685806, -27.50539366310011]]]}}, {"type": "Feature", "properties": {"cod_imovel": "SC-4205407-74A3EB35F9C646BA97EC9DEF5061ACC1", "municipio": "Florianopolis", "num_area": 2.0191, "mod_fiscal": 0.2884, "des_condic": "Aguardando analise", "ind_status": "AT", "dat_atuali": "04/05/2016"}, "geometry": {"type": "Polygon", "coordinates": [[[-48.45221380189291, -27.52758753150568], [-48.45834208388021, -27.52274898403844], [-48.45810873407613, -27.52263193541964], [-48.45207413634851, -27.52739288521762], [-48.45221380189291, -27.52758753150568]]]}}, {"type": "Feature", "properties": {"cod_imovel": "SC-4205407-6F357392B2C84FB49BD471454EC2E7D8", "municipio": "Florianopolis", "num_area": 2.0678, "mod_fiscal": 0.2954, "des_condic": "Aguardando analise", "ind_status": "AT", "dat_atuali": "04/05/2016"}, "geometry": {"type": "Polygon", "coordinates": [[[-48.45234741132854, -27.52777277871086], [-48.45854614856412, -27.52288554827995], [-48.458333015441895, -27.522734598393757], [-48.45221208628635, -27.52758636171876], [-48.45234741132854, -27.52777277871086]]]}}, {"type": "Feature", "properties": {"cod_imovel": "SC-4205407-1FEDCF0DC8754222B500BAECED6C9BFB", "municipio": "Florianopolis", "num_area": 2.0198, "mod_fiscal": 0.2885, "des_condic": "Aguardando analise", "ind_status": "AT", "dat_atuali": "04/05/2016"}, "geometry": {"type": "Polygon", "coordinates": [[[-48.45249603869665, -27.52796202562503], [-48.4587290311492, -27.52303202854879], [-48.45854518451065, -27.52288711021642], [-48.45234762832845, -27.52777613171051], [-48.45249603869665, -27.52796202562503]]]}}, {"type": "Feature", "properties": {"cod_imovel": "SC-4205407-B2063C5F57524236B73E25EE4E18971E", "municipio": "Florianopolis", "num_area": 219.2776, "mod_fiscal": 31.3254, "des_condic": "Aguardando analise", "ind_status": "AT", "dat_atuali": "10/05/2022"}, "geometry": {"type": "Polygon", "coordinates": [[[-48.49223135321073, -27.51057470382256], [-48.49236488342285, -27.524789738692423], [-48.50420951843262, -27.524637507395028], [-48.50410223007202, -27.50692015082682], [-48.49315881729126, -27.50693918281597], [-48.49221467971802, -27.507148534479366], [-48.49224688887319, -27.507784451762], [-48.49518173037103, -27.50866618136099], [-48.49512540790538, -27.50754461314488], [-48.501291275024414, -27.508043032554188], [-48.50131273269653, -27.509375250248603], [-48.49517583847046, -27.50889946006668], [-48.49513292312622, -27.5099461957509], [-48.49372401101988, -27.50987171898557], [-48.49356328014035, -27.50830353069541], [-48.49222853924808, -27.507915558563], [-48.49245071411133, -27.50897558663406], [-48.49223135321073, -27.51057470382256]]]}}, {"type": "Feature", "properties": {"cod_imovel": "SC-4205407-01D50FEE14B541D1A0E099B553472671", "municipio": "Florianopolis", "num_area": 12.0139, "mod_fiscal": 1.7163, "des_condic": "Aguardando analise", "ind_status": "AT", "dat_atuali": "24/08/2020"}, "geometry": {"type": "Polygon", "coordinates": [[[-48.45421753888536, -27.517858184323625], [-48.44853791761587, -27.521635520236124], [-48.44867999790859, -27.52258216583751], [-48.44929741196719, -27.52251871424422], [-48.44969880956383, -27.52284866192272], [-48.45540617328518, -27.518911732272947], [-48.4545687546495, -27.518613895716555], [-48.45421753888536, -27.517858184323625]]]}}, {"type": "Feature", "properties": {"cod_imovel": "SC-4205407-670B296816AF47F099ECDEA56759765A", "municipio": "Florianopolis", "num_area": 109.6806, "mod_fiscal": 15.6687, "des_condic": "Aguardando analise", "ind_status": "AT", "dat_atuali": "23/12/2020"}, "geometry": {"type": "Polygon", "coordinates": [[[-48.4752341299472, -27.50977900540467], [-48.47503850942647, -27.50836678047103], [-48.47439615843125, -27.50786888700043], [-48.47400359316933, -27.50800139534406], [-48.47359009305314, -27.50777645471142], [-48.47322350875496, -27.50733648719789], [-48.48097033420739, -27.55369419381191], [-48.48324871353108, -27.55303288223475], [-48.47604896152085, -27.51177612217543], [-48.4753107357663, -27.5117322072721], [-48.47506735556755, -27.51010385992216], [-48.4752341299472, -27.50977900540467]]]}}, {"type": "Feature", "properties": {"cod_imovel": "SC-4205407-BA146722E334474EAC00585A22E94999", "municipio": "Florianopolis", "num_area": 6.2652, "mod_fiscal": 0.895, "des_condic": "Aguardando analise", "ind_status": "AT", "dat_atuali": "18/11/2020"}, "geometry": {"type": "Polygon", "coordinates": [[[-48.45887348660288, -27.52627624466714], [-48.45995776342851, -27.52673334678809], [-48.46627549687593, -27.52486412385593], [-48.46627780635367, -27.52398379345783], [-48.45887348660288, -27.52627624466714]]]}}]}