{"type": "FeatureCollection", "features": [{"type": "Feature", "properties": {"cod_imovel": "SC-4205407-A702C8FCCC404D619A1AF5B1B765CD0E", "municipio": "Florianopolis", "num_area": 112.4521, "mod_fiscal": 16.0646, "des_condic": "Aguardando analise", "ind_status": "PE", "dat_atuali": "03/05/2015"}, "geometry": {"type": "Polygon", "coordinates": [[[-48.500497341156006, -27.751019011637855], [-48.49968194961548, -27.753696511877045], [-48.49841594696045, -27.755443497815687], [-48.4961199760437, -27.7576841561385], [-48.495755195617676, -27.757798086685597], [-48.49441208813944, -27.75768500613729], [-48.490798473358154, -27.75608911596008], [-48.49004663759084, -27.75590367002781], [-48.4878091605521, -27.75764259280783], [-48.4969454103598, -27.76578914132615], [-48.49827329181156, -27.76679594198922], [-48.50474907206751, -27.76062631207418], [-48.50390523945119, -27.75976732969954], [-48.50294441784203, -27.76043247773178], [-48.49888351674991, -27.75694911779495], [-48.50394919334961, -27.7540108816142], [-48.500497341156006, -27.751019011637855]]]}}, {"type": "Feature", "properties": {"cod_imovel": "SC-4205407-8C3698ED3EE146C4B9E2CCF84FF48011", "municipio": "Florianopolis", "num_area": 95.8505, "mod_fiscal": 13.6929, "des_condic": "Aguardando analise", "ind_status": "AT", "dat_atuali": "11/11/2016"}, "geometry": {"type": "Polygon", "coordinates": [[[-48.4839840387844, -27.7698013914414], [-48.4841680644896, -27.770002558982], [-48.4863411692252, -27.7699932912402], [-48.4875022970281, -27.7702479614324], [-48.488087822157, -27.7707221490732], [-48.4887130514558, -27.7718022387661], [-48.4896360356799, -27.774190720932], [-48.4905491119416, -27.774928339519], [-48.4909560277419, -27.7750512734694], [-48.491293462333, -27.774831736637], [-48.4912537566973, -27.774585861389], [-48.4903108973816, -27.7734794379993], [-48.4898742085285, -27.7724169195507], [-48.4901322179657, -27.7703621186327], [-48.4905291828714, -27.7700898979492], [-48.4913429710684, -27.7701689158459], [-48.4917300303864, -27.7706694359268], [-48.4919567502578, -27.7717363184341], [-48.4917033944496, -27.7731616238907], [-48.4919266721527, -27.7745178147651], [-48.4917423058017, -27.7752807729036], [-48.4915468423856, -27.7752438833677], [-48.4896707071461, -27.7761246482395], [-48.4877734056223, -27.7721105392969], [-48.4862241321699, -27.7713290937725], [-48.4855252013049, -27.7718042575799], [-48.4877689231126, -27.774767066448], [-48.4888977847977, -27.776718408793], [-48.4897632174716, -27.777616579091], [-48.4906651323737, -27.7811592922991], [-48.4936562471032, -27.7803338506762], [-48.4918524952147, -27.7787552564104], [-48.4980260569108, -27.7753518748514], [-48.4990397260653, -27.7720247768517], [-48.4993943300277, -27.771753423573], [-48.4969500828561, -27.7702345921138], [-48.4959898963254, -27.7700415438862], [-48.4956552675983, -27.7693078269502], [-48.4923509831212, -27.767760744258], [-48.4839840387844, -27.7698013914414]]]}}]}