{"type": "FeatureCollection", "features": [{"type": "Feature", "properties": {"cod_imovel": "SC-4207205-95C5EFF711994A7C8D106A17A206BA76", "municipio": "Imarui", "num_area": 0.1237, "mod_fiscal": 0.0077, "des_condic": "Aguardando analise", "ind_status": "AT", "dat_atuali": "02/10/2025"}, "geometry": {"type": "Polygon", "coordinates": [[[-48.74979877040941, -28.26823295324859], [-48.74955099684016, -28.26824811173953], [-48.74928013931203, -28.26858446713412], [-48.74975025050774, -28.26853878398105], [-48.74979877040941, -28.26823295324859]]]}}, {"type": "Feature", "properties": {"cod_imovel": "SC-4207205-FE0CCDCA514A44B0BA471CA61516028B", "municipio": "Imarui", "num_area": 4.817, "mod_fiscal": 0.3011, "des_condic": "Aguardando analise", "ind_status": "AT", "dat_atuali": "26/11/2024"}, "geometry": {"type": "Polygon", "coordinates": [[[-48.74858558177948, -28.270534619493898], [-48.754920959472656, -28.273940969808134], [-48.7548565864563, -28.27314726684617], [-48.74875724315643, -28.270024366239678], [-48.74868578858226, -28.2702279570808], [-48.74814033508301, -28.269948772957147], [-48.74813497066498, -28.270241696628197], [-48.74858558177948, -28.270534619493898]]]}}, {"type": "Feature", "properties": {"cod_imovel": "SC-4207205-1927ED83A6614D35B119DBE1C75214ED", "municipio": "Imarui", "num_area": 0.0378, "mod_fiscal": 0.0024, "des_condic": "Aguardando analise", "ind_status": "AT", "dat_atuali": "06/12/2025"}, "geometry": {"type": "Polygon", "coordinates": [[[-48.74359828303373, -28.25505392531606], [-48.74376555982186, -28.25488050844141], [-48.74365114046245, -28.2547959244306], [-48.74348026141119, -28.25495874283264], [-48.74359828303373, -28.25505392531606]]]}}, {"type": "Feature", "properties": {"cod_imovel": "SC-4207205-26F6AD6278C5471C9033242C51132B48", "municipio": "Imarui", "num_area": 1.3286, "mod_fiscal": 0.083, "des_condic": "Aguardando analise", "ind_status": "AT", "dat_atuali": "06/12/2025"}, "geometry": {"type": "Polygon", "coordinates": [[[-48.74304288964018, -28.25488404232099], [-48.75394799848445, -28.252848016437], [-48.75396147281343, -28.25271837808706], [-48.74304288964018, -28.25488404232099]]]}}, {"type": "Feature", "properties": {"cod_imovel": "SC-4207205-6455069FE46B478DA7D03AF21104C1AD", "municipio": "Imarui", "num_area": 0.7118, "mod_fiscal": 0.0445, "des_condic": "Aguardando analise", "ind_status": "AT", "dat_atuali": "14/04/2021"}, "geometry": {"type": "Polygon", "coordinates": [[[-48.74874616175855, -28.27362773192589], [-48.74851385187743, -28.27339525684641], [-48.74845682557852, -28.27286721215902], [-48.74757589575439, -28.2728936287133], [-48.74784542058716, -28.27365160506619], [-48.74874616175855, -28.27362773192589]]]}}, {"type": "Feature", "properties": {"cod_imovel": "SC-4207205-C2A87E06E5F94FB2A5BC05824327CAA0", "municipio": "Imarui", "num_area": 2.2792, "mod_fiscal": 0.1425, "des_condic": "Aguardando analise", "ind_status": "AT", "dat_atuali": "05/05/2015"}, "geometry": {"type": "Polygon", "coordinates": [[[-48.7483093188877, -28.26964738773699], [-48.74810404009988, -28.26994781992845], [-48.7505055281724, -28.26977609457758], [-48.75338134876112, -28.26935481788735], [-48.75368329394795, -28.26917680787995], [-48.75468158432292, -28.26924532977036], [-48.75498471161949, -28.26902649645259], [-48.75533660024615, -28.26901689975445], [-48.75531514386397, -28.2687121599155], [-48.74998633468682, -28.26953849737683], [-48.7483093188877, -28.26964738773699]]]}}, {"type": "Feature", "properties": {"cod_imovel": "SC-4207205-36CADBB3920D4B1694D75880599F045F", "municipio": "Imarui", "num_area": 15.8346, "mod_fiscal": 0.9897, "des_condic": "Aguardando analise", "ind_status": "AT", "dat_atuali": "14/05/2015"}, "geometry": {"type": "Polygon", "coordinates": [[[-48.7454933254173, -28.24479844742176], [-48.74244624228852, -28.245545771198014], [-48.742950707185635, -28.245965747249027], [-48.74276353028304, -28.246514862449278], [-48.74421970999257, -28.246364269421328], [-48.7446155383093, -28.248393521347463], [-48.74191414506276, -28.24889466512469], [-48.74183322502269, -28.250052675307337], [-48.74484761031915, -28.24949718448042], [-48.74517813578157, -28.251060068689405], [-48.745729595106205, -28.25199904232383], [-48.747389997491744, -28.251828163794748], [-48.74708606997191, -28.251264145116732], [-48.74730282872466, -28.25088094441798], [-48.74631198695557, -28.250989582989735], [-48.74568430186412, -28.2469271944585], [-48.74551325714608, -28.246926041754524], [-48.745462455956364, -28.246673387205107], [-48.745840761635726, -28.246587223071526], [-48.7454933254173, -28.24479844742176]]]}}, {"type": "Feature", "properties": {"cod_imovel": "SC-4207205-556C46FBEC364D78B0B14004B164917A", "municipio": "Imarui", "num_area": 1.7647, "mod_fiscal": 0.1103, "des_condic": "Aguardando analise", "ind_status": "AT", "dat_atuali": "19/02/2022"}, "geometry": {"type": "Polygon", "coordinates": [[[-48.74984558693299, -28.24587893876077], [-48.74956147745823, -28.24573817548865], [-48.75055051405299, -28.2516769026351], [-48.75083724175305, -28.25162950720887], [-48.74984558693299, -28.24587893876077]]]}}, {"type": "Feature", "properties": {"cod_imovel": "SC-4207205-6FEF71853D014B328EB8216865E13B45", "municipio": "Imarui", "num_area": 7.6204, "mod_fiscal": 0.4763, "des_condic": "Aguardando analise", "ind_status": "AT", "dat_atuali": "06/04/2021"}, "geometry": {"type": "Polygon", "coordinates": [[[-48.74979950229675, -28.26604540407803], [-48.75733394290313, -28.26500846598092], [-48.75715940778059, -28.26407485669514], [-48.74988448226097, -28.26510747008075], [-48.74979950229675, -28.26604540407803]]]}}, {"type": "Feature", "properties": {"cod_imovel": "SC-4207205-0A9154CCF1824B7B863AA7F93222D4DA", "municipio": "Imarui", "num_area": 3.4044, "mod_fiscal": 0.2128, "des_condic": "Aguardando analise", "ind_status": "AT", "dat_atuali": "26/11/2014"}, "geometry": {"type": "Polygon", "coordinates": [[[-48.74775585339433, -28.26193558823704], [-48.74792151089072, -28.26217817291268], [-48.74986271781892, -28.26188020217975], [-48.74983841975086, -28.26169233910199], [-48.75156437085168, -28.26147652715882], [-48.75158424590479, -28.2616836750601], [-48.75699834641806, -28.26050116172377], [-48.75687810155851, -28.26020093461428], [-48.74775585339433, -28.26193558823704]]]}}, {"type": "Feature", "properties": {"cod_imovel": "SC-4207205-A6E71A7F36D1420891CD438F01E9B4AD", "municipio": "Imarui", "num_area": 0.815, "mod_fiscal": 0.0509, "des_condic": "Aguardando analise", "ind_status": "AT", "dat_atuali": "05/10/2015"}, "geometry": {"type": "Polygon", "coordinates": [[[-48.75002861022949, -28.264567338354343], [-48.75161647796631, -28.264529539784053], [-48.75163793563843, -28.26394366023017], [-48.75069379806518, -28.263981459008264], [-48.75069379806518, -28.26422715073909], [-48.749964237213135, -28.264302748080773], [-48.75002861022949, -28.264567338354343]]]}}, {"type": "Feature", "properties": {"cod_imovel": "SC-4207205-74F6CD57CF5C423D9436C204169B7A7D", "municipio": "Imarui", "num_area": 2.0021, "mod_fiscal": 0.1251, "des_condic": "Aguardando analise", "ind_status": "AT", "dat_atuali": "21/12/2022"}, "geometry": {"type": "Polygon", "coordinates": [[[-48.74420225737381, -28.25778903945188], [-48.74422335949571, -28.25801454159421], [-48.75388077903467, -28.25675763566954], [-48.75387420135063, -28.25660581166768], [-48.74420225737381, -28.25778903945188]]]}}, {"type": "Feature", "properties": {"cod_imovel": "SC-4207205-CE2BBFB4099642D9881231F7DFF38BE2", "municipio": "Imarui", "num_area": 2.0523, "mod_fiscal": 0.1283, "des_condic": "Aguardando analise", "ind_status": "AT", "dat_atuali": "26/01/2016"}, "geometry": {"type": "Polygon", "coordinates": [[[-48.7527569418646, -28.25554636206224], [-48.7527149945225, -28.25533356413998], [-48.74393622354588, -28.25715556379222], [-48.74398433737085, -28.25735405935635], [-48.7527569418646, -28.25554636206224]]]}}, {"type": "Feature", "properties": {"cod_imovel": "SC-4207205-C4940C60F98647A8ACB63FF21232FD15", "municipio": "Imarui", "num_area": 2.5514, "mod_fiscal": 0.1595, "des_condic": "Aguardando analise", "ind_status": "AT", "dat_atuali": "30/04/2015"}, "geometry": {"type": "Polygon", "coordinates": [[[-48.7493634223938, -28.25982351304779], [-48.74702453613281, -28.260428315268676], [-48.74760389328003, -28.261184313218784], [-48.75000715255737, -28.26078741496359], [-48.7493634223938, -28.25982351304779]]]}}, {"type": "Feature", "properties": {"cod_imovel": "SC-4207205-01EC97F360B34185A7E062E6284B24F9", "municipio": "Imarui", "num_area": 0.6818, "mod_fiscal": 0.0426, "des_condic": "Aguardando analise", "ind_status": "AT", "dat_atuali": "12/11/2014"}, "geometry": {"type": "Polygon", "coordinates": [[[-48.75025896141452, -28.27586080971595], [-48.74967585952818, -28.27527732644946], [-48.74899772654455, -28.27581518331185], [-48.74991393031822, -28.2762081764166], [-48.75025896141452, -28.27586080971595]]]}}, {"type": "Feature", "properties": {"cod_imovel": "SC-4207205-04656FC723DC41C99BC00BE056FBC2AD", "municipio": "Imarui", "num_area": 4.416, "mod_fiscal": 0.276, "des_condic": "Aguardando analise", "ind_status": "AT", "dat_atuali": "02/09/2015"}, "geometry": {"type": "Polygon", "coordinates": [[[-48.74219809426722, -28.25443817931256], [-48.75077056917041, -28.2528538378796], [-48.75069565307194, -28.25242620513886], [-48.74191164085165, -28.25399603911122], [-48.74219809426722, -28.25443817931256]]]}}, {"type": "Feature", "properties": {"cod_imovel": "SC-4207205-4F75FAB619B44E58B60FD0FB3F32E37B", "municipio": "Imarui", "num_area": 1.8531, "mod_fiscal": 0.1158, "des_condic": "Aguardando analise", "ind_status": "AT", "dat_atuali": "26/01/2016"}, "geometry": {"type": "Polygon", "coordinates": [[[-48.74414013778798, -28.25769091660431], [-48.74412848479466, -28.25787104214899], [-48.75412380456255, -28.25587678870619], [-48.75412409316508, -28.25571351200712], [-48.74414013778798, -28.25769091660431]]]}}, {"type": "Feature", "properties": {"cod_imovel": "SC-4207205-A84673316B1941E08442424DC1F42B44", "municipio": "Imarui", "num_area": 5.3763, "mod_fiscal": 0.336, "des_condic": "Aguardando analise", "ind_status": "AT", "dat_atuali": "02/03/2015"}, "geometry": {"type": "Polygon", "coordinates": [[[-48.74471876523911, -28.25034281243316], [-48.74456595895697, -28.24906941634576], [-48.74146286987396, -28.24958295367919], [-48.74121850670052, -28.25044838346403], [-48.74084475041744, -28.25090506400586], [-48.74086718414725, -28.25125224528021], [-48.74471876523911, -28.25034281243316]]]}}, {"type": "Feature", "properties": {"cod_imovel": "SC-4207205-B10DD4B776A64D5587EA88CB5138B0F5", "municipio": "Imarui", "num_area": 2.4492, "mod_fiscal": 0.1531, "des_condic": "Aguardando analise", "ind_status": "AT", "dat_atuali": "26/11/2014"}, "geometry": {"type": "Polygon", "coordinates": [[[-48.74775187755107, -28.26192401987466], [-48.75688201682582, -28.26020088032125], [-48.75678245913579, -28.25999458832039], [-48.74758624760644, -28.26168836707281], [-48.74775187755107, -28.26192401987466]]]}}, {"type": "Feature", "properties": {"cod_imovel": "SC-4207205-F3556CEB55B14B0297D5C9B64BE774A3", "municipio": "Imarui", "num_area": 1.7869, "mod_fiscal": 0.1117, "des_condic": "Aguardando analise", "ind_status": "AT", "dat_atuali": "30/04/2016"}, "geometry": {"type": "Polygon", "coordinates": [[[-48.74052286148071, -28.253246067315636], [-48.74093055725098, -28.253472882544767], [-48.74616622924805, -28.253019251603977], [-48.74603748321533, -28.252754632663862], [-48.74052286148071, -28.253246067315636]]]}}, {"type": "Feature", "properties": {"cod_imovel": "SC-4207205-F9E5E9CC784445E0B28D18302DE22763", "municipio": "Imarui", "num_area": 6.1034, "mod_fiscal": 0.3815, "des_condic": "Aguardando analise", "ind_status": "AT", "dat_atuali": "08/04/2015"}, "geometry": {"type": "Polygon", "coordinates": [[[-48.75172718687134, -28.25518837027354], [-48.7505329767786, -28.24626282105751], [-48.74987197643387, -28.24584301457938], [-48.75112807526831, -28.25530818487945], [-48.75172718687134, -28.25518837027354]]]}}, {"type": "Feature", "properties": {"cod_imovel": "SC-4207205-FFBC8EC805DC46CCB81D68047BE58E6D", "municipio": "Imarui", "num_area": 10.1916, "mod_fiscal": 0.637, "des_condic": "Aguardando analise", "ind_status": "AT", "dat_atuali": "23/09/2015"}, "geometry": {"type": "Polygon", "coordinates": [[[-48.74828722997931, -28.27098489658261], [-48.74807769877296, -28.27153033576141], [-48.75118112093244, -28.27113414722117], [-48.7512098928158, -28.27128984012608], [-48.76215121049258, -28.26993922727718], [-48.76204958659852, -28.26920235038232], [-48.74828722997931, -28.27098489658261]]]}}, {"type": "Feature", "properties": {"cod_imovel": "SC-4207205-CD96D94ADDDD4D7CAFDA53CF5517C28A", "municipio": "Imarui", "num_area": 0.8978, "mod_fiscal": 0.0561, "des_condic": "Aguardando analise", "ind_status": "AT", "dat_atuali": "06/05/2015"}, "geometry": {"type": "Polygon", "coordinates": [[[-48.74877749531998, -28.27358952345414], [-48.74903127814402, -28.27393947767712], [-48.75105053436703, -28.27369780715047], [-48.75096886097871, -28.2732580633719], [-48.74877749531998, -28.27358952345414]]]}}, {"type": "Feature", "properties": {"cod_imovel": "SC-4207205-AF9A9DC3DB864B25A527C9416C5A5D23", "municipio": "Imarui", "num_area": 3.0558, "mod_fiscal": 0.191, "des_condic": "Aguardando analise", "ind_status": "AT", "dat_atuali": "12/05/2015"}, "geometry": {"type": "Polygon", "coordinates": [[[-48.74761172681421, -28.27260032601355], [-48.74746678246959, -28.2729755794102], [-48.75542595624638, -28.27185315322597], [-48.75547447680368, -28.27149090794899], [-48.74761172681421, -28.27260032601355]]]}}, {"type": "Feature", "properties": {"cod_imovel": "SC-4207205-CF8FFD3F0F3D46A3B503A08E3BF51A53", "municipio": "Imarui", "num_area": 3.5511, "mod_fiscal": 0.2219, "des_condic": "Aguardando analise", "ind_status": "AT", "dat_atuali": "28/04/2016"}, "geometry": {"type": "Polygon", "coordinates": [[[-48.74914884567261, -28.274904744025946], [-48.75427722930908, -28.270898409673674], [-48.753955364227295, -28.270520445825404], [-48.749685287475586, -28.273903174563088], [-48.74953508377075, -28.273714198136727], [-48.748741149902344, -28.27460238442572], [-48.74914884567261, -28.274904744025946]]]}}, {"type": "Feature", "properties": {"cod_imovel": "SC-4207205-35F652CD80D4429AA202DCCB21BCAE8A", "municipio": "Imarui", "num_area": 2.2455, "mod_fiscal": 0.1403, "des_condic": "Aguardando analise", "ind_status": "AT", "dat_atuali": "29/09/2015"}, "geometry": {"type": "Polygon", "coordinates": [[[-48.75376224517822, -28.269424343082868], [-48.74886989593506, -28.270236972059266], [-48.74884843826294, -28.2705015475978], [-48.753182888031006, -28.269859005864486], [-48.75504970550537, -28.269840107519542], [-48.755221366882324, -28.269613327118858], [-48.75376224517822, -28.269424343082868]]]}}, {"type": "Feature", "properties": {"cod_imovel": "SC-4207205-F6558DEE6C6840C1BEBA2ED2CEF3B1FA", "municipio": "Imarui", "num_area": 0.5552, "mod_fiscal": 0.0347, "des_condic": "Aguardando analise", "ind_status": "AT", "dat_atuali": "03/02/2016"}, "geometry": {"type": "Polygon", "coordinates": [[[-48.749985694885254, -28.268498316461194], [-48.75133752822876, -28.268895185998854], [-48.75155210494995, -28.26859280934233], [-48.75009298324585, -28.26821483731497], [-48.74987840652465, -28.26834712767707], [-48.749985694885254, -28.268498316461194]]]}}, {"type": "Feature", "properties": {"cod_imovel": "SC-4207205-0B8946D09E7F43B3A37C278F5CEC1002", "municipio": "Imarui", "num_area": 5.0362, "mod_fiscal": 0.3148, "des_condic": "Aguardando analise", "ind_status": "AT", "dat_atuali": "23/02/2015"}, "geometry": {"type": "Polygon", "coordinates": [[[-48.74573511725926, -28.25999239927424], [-48.74602473866761, -28.26036543087761], [-48.7569288303199, -28.25802433865452], [-48.75680034136191, -28.25764375879674], [-48.74573511725926, -28.25999239927424]]]}}, {"type": "Feature", "properties": {"cod_imovel": "SC-4207205-ED7412402AAE4C28AC7861577A108DD6", "municipio": "Imarui", "num_area": 0.1394, "mod_fiscal": 0.0087, "des_condic": "Aguardando analise", "ind_status": "AT", "dat_atuali": "18/03/2015"}, "geometry": {"type": "Polygon", "coordinates": [[[-48.74863386154175, -28.275547255326796], [-48.74917030334473, -28.27535828181708], [-48.748977184295654, -28.27516930797212], [-48.748483657836914, -28.27537717918315], [-48.74863386154175, -28.275547255326796]]]}}, {"type": "Feature", "properties": {"cod_imovel": "SC-4207205-E7F1B43CD87B43F79F8491E3FB3F8739", "municipio": "Imarui", "num_area": 1.9626, "mod_fiscal": 0.1227, "des_condic": "Aguardando analise", "ind_status": "AT", "dat_atuali": "26/01/2016"}, "geometry": {"type": "Polygon", "coordinates": [[[-48.75270540534893, -28.25514202803638], [-48.74384464660781, -28.2569600411345], [-48.743892800909, -28.25717069822063], [-48.75272935079413, -28.25532417892388], [-48.75270540534893, -28.25514202803638]]]}}, {"type": "Feature", "properties": {"cod_imovel": "SC-4207205-C8570F159D344E44A2244FEFB469D8F4", "municipio": "Imarui", "num_area": 2.4607, "mod_fiscal": 0.1538, "des_condic": "Aguardando analise", "ind_status": "AT", "dat_atuali": "31/08/2015"}, "geometry": {"type": "Polygon", "coordinates": [[[-48.74492168426514, -28.25901080465946], [-48.74902009963989, -28.25689395372203], [-48.748676776885986, -28.256478138776878], [-48.74459981918335, -28.25867059930821], [-48.74492168426514, -28.25901080465946]]]}}, {"type": "Feature", "properties": {"cod_imovel": "SC-4207205-E8416A80C98A431CB71594E9028B1874", "municipio": "Imarui", "num_area": 1.1551, "mod_fiscal": 0.0722, "des_condic": "Aguardando analise", "ind_status": "AT", "dat_atuali": "13/07/2018"}, "geometry": {"type": "Polygon", "coordinates": [[[-48.752040277428186, -28.293978247014397], [-48.75159107069069, -28.293699705358446], [-48.74970095669722, -28.293841980628816], [-48.74962828052706, -28.293986955854123], [-48.74965459722292, -28.294311919949152], [-48.75015856450834, -28.29434119018206], [-48.75163450265875, -28.294179454850852], [-48.752040277428186, -28.293978247014397]]]}}, {"type": "Feature", "properties": {"cod_imovel": "SC-4207205-E0B6FAA718EF42D7A133A40EEA0215CC", "municipio": "Imarui", "num_area": 3.6669, "mod_fiscal": 0.2292, "des_condic": "Aguardando analise", "ind_status": "AT", "dat_atuali": "16/09/2015"}, "geometry": {"type": "Polygon", "coordinates": [[[-48.74822677182389, -28.27406910220605], [-48.74808452499482, -28.27468110471435], [-48.75459549510432, -28.2736527033084], [-48.75458086467679, -28.27316146804559], [-48.74822677182389, -28.27406910220605]]]}}, {"type": "Feature", "properties": {"cod_imovel": "SC-4207205-E97B693BD0DF4AF6A566DFFA8B3D03D7", "municipio": "Imarui", "num_area": 1.8501, "mod_fiscal": 0.1156, "des_condic": "Aguardando analise", "ind_status": "AT", "dat_atuali": "06/04/2016"}, "geometry": {"type": "Polygon", "coordinates": [[[-48.759727478027344, -28.2694999367375], [-48.74878406524658, -28.270898409673674], [-48.7488055229187, -28.27108739109498], [-48.76002788543701, -28.269594428730343], [-48.759727478027344, -28.2694999367375]]]}}, {"type": "Feature", "properties": {"cod_imovel": "SC-4207205-FC757B6B0FC64C18B9354FE958D2C1CE", "municipio": "Imarui", "num_area": 8.35, "mod_fiscal": 0.5219, "des_condic": "Aguardando analise", "ind_status": "AT", "dat_atuali": "04/04/2016"}, "geometry": {"type": "Polygon", "coordinates": [[[-48.757082057624906, -28.260586556637428], [-48.752094121476894, -28.261481716366823], [-48.752023005921075, -28.261327346062423], [-48.74985212544807, -28.261688243111095], [-48.74989514233621, -28.261876221042087], [-48.74842585148061, -28.26213979540058], [-48.748883474938424, -28.262888935956436], [-48.7577421531168, -28.26129950927918], [-48.757082057624906, -28.260586556637428]]]}}, {"type": "Feature", "properties": {"cod_imovel": "SC-4207205-EDCB3EB240C64AD2A0A158D27E585736", "municipio": "Imarui", "num_area": 8.3256, "mod_fiscal": 0.5204, "des_condic": "Aguardando analise", "ind_status": "AT", "dat_atuali": "02/05/2017"}, "geometry": {"type": "Polygon", "coordinates": [[[-48.74536156654358, -28.259634511649992], [-48.7548565864563, -28.253170462132026], [-48.75427722930908, -28.252622322947516], [-48.746445178985596, -28.258160289245456], [-48.74510407447814, -28.259237607623735], [-48.74536156654358, -28.259634511649992]]]}}, {"type": "Feature", "properties": {"cod_imovel": "SC-4207205-703C73E721614249BACDAFB8FF422E86", "municipio": "Imarui", "num_area": 4.915, "mod_fiscal": 0.3072, "des_condic": "Aguardando analise", "ind_status": "AT", "dat_atuali": "09/11/2020"}, "geometry": {"type": "Polygon", "coordinates": [[[-48.75285593418499, -28.25716855219562], [-48.74414591862978, -28.25798024977167], [-48.7446497897688, -28.25845407986196], [-48.75329354015979, -28.25764831134432], [-48.75285593418499, -28.25716855219562]]]}}, {"type": "Feature", "properties": {"cod_imovel": "SC-4207205-CF325E40AF124BE1A0537B56ECD1E5AE", "municipio": "Imarui", "num_area": 8.4801, "mod_fiscal": 0.53, "des_condic": "Aguardando analise", "ind_status": "AT", "dat_atuali": "07/08/2020"}, "geometry": {"type": "Polygon", "coordinates": [[[-48.74981966816333, -28.26849272952064], [-48.7495322693211, -28.26892799604038], [-48.75336397404703, -28.26836380179748], [-48.75352003550523, -28.26860898996188], [-48.76010909784191, -28.26802440888893], [-48.75985371251502, -28.26677394261908], [-48.75518797414988, -28.2674853494907], [-48.75522974134379, -28.26774956233932], [-48.74981966816333, -28.26849272952064]]]}}, {"type": "Feature", "properties": {"cod_imovel": "SC-4207205-0106FE6FAAE74DB09B2BBC57028836BF", "municipio": "Imarui", "num_area": 1.764, "mod_fiscal": 0.1103, "des_condic": "Aguardando analise", "ind_status": "AT", "dat_atuali": "11/03/2020"}, "geometry": {"type": "Polygon", "coordinates": [[[-48.74992913262081, -28.2682012851417], [-48.74985082772319, -28.26851791760189], [-48.75519659354224, -28.26775159241304], [-48.75528578512827, -28.26743821396914], [-48.74992913262081, -28.2682012851417]]]}}, {"type": "Feature", "properties": {"cod_imovel": "SC-4207304-8A3E0F8E1D3E47E69EC0E839770C8598", "municipio": "Imbituba", "num_area": 2.2609, "mod_fiscal": 0.1413, "des_condic": "Aguardando analise", "ind_status": "AT", "dat_atuali": "25/09/2018"}, "geometry": {"type": "Polygon", "coordinates": [[[-48.735501766204834, -28.335548272434224], [-48.73560905456543, -28.334358404985473], [-48.736252784729004, -28.331393121779858], [-48.73558759689331, -28.334396178760045], [-48.7333345413208, -28.335283858597116], [-48.73335599899292, -28.335472725690764], [-48.733012676239014, -28.335604932456565], [-48.733012676239014, -28.335926005345804], [-48.735501766204834, -28.335548272434224]]]}}, {"type": "Feature", "properties": {"cod_imovel": "SC-4207304-523AE80E324F47C9AB7C29FF4DD4C11C", "municipio": "Imbituba", "num_area": 0.9563, "mod_fiscal": 0.0598, "des_condic": "Aguardando analise", "ind_status": "AT", "dat_atuali": "14/05/2015"}, "geometry": {"type": "Polygon", "coordinates": [[[-48.704774379730225, -28.250826674848586], [-48.70196342468262, -28.251563839306062], [-48.70215654373169, -28.251885165807987], [-48.70346546173096, -28.25154493771698], [-48.70458126068115, -28.25120470854032], [-48.704774379730225, -28.250826674848586]]]}}, {"type": "Feature", "properties": {"cod_imovel": "SC-4207304-74DEF481FE534544891DBAD8E8C1D328", "municipio": "Imbituba", "num_area": 4.4291, "mod_fiscal": 0.2768, "des_condic": "Aguardando analise", "ind_status": "AT", "dat_atuali": "27/02/2026"}, "geometry": {"type": "Polygon", "coordinates": [[[-48.7249664590662, -28.32684243651462], [-48.72425560231412, -28.3239479800536], [-48.72292763709135, -28.32424713183692], [-48.72354678017741, -28.32704173691869], [-48.7249664590662, -28.32684243651462]]]}}, {"type": "Feature", "properties": {"cod_imovel": "SC-4207304-8FB4A8A860634FD88FCAFE8B541A269B", "municipio": "Imbituba", "num_area": 0.2012, "mod_fiscal": 0.0126, "des_condic": "Aguardando analise", "ind_status": "AT", "dat_atuali": "30/12/2025"}, "geometry": {"type": "Polygon", "coordinates": [[[-48.72631520032883, -28.33305520153913], [-48.72640371322632, -28.333390447430865], [-48.72690260410309, -28.333319620922147], [-48.72684895992279, -28.332960765885716], [-48.72631520032883, -28.33305520153913]]]}}, {"type": "Feature", "properties": {"cod_imovel": "SC-4207304-A89B9F98BB1745CBB425FFC0099576B4", "municipio": "Imbituba", "num_area": 0.1913, "mod_fiscal": 0.012, "des_condic": "Aguardando analise", "ind_status": "AT", "dat_atuali": "29/12/2025"}, "geometry": {"type": "Polygon", "coordinates": [[[-48.7262400984764, -28.333041036196462], [-48.725843131542206, -28.33313547177852], [-48.72595578432083, -28.33352265678751], [-48.726401031017296, -28.333399890961797], [-48.7262400984764, -28.333041036196462]]]}}, {"type": "Feature", "properties": {"cod_imovel": "SC-4207304-B7DD1D03E43448968B93969BBDC33D02", "municipio": "Imbituba", "num_area": 0.5138, "mod_fiscal": 0.0321, "des_condic": "Aguardando analise", "ind_status": "AT", "dat_atuali": "18/12/2025"}, "geometry": {"type": "Polygon", "coordinates": [[[-48.71791988611221, -28.319776725129266], [-48.71772676706314, -28.318402506441068], [-48.717388808727264, -28.318435563456486], [-48.717598021030426, -28.319857005396994], [-48.71791988611221, -28.319776725129266]]]}}, {"type": "Feature", "properties": {"cod_imovel": "SC-4207304-8A75BDEB378E4A089DFF041B0C434CA7", "municipio": "Imbituba", "num_area": 6.7886, "mod_fiscal": 0.4243, "des_condic": "Aguardando analise", "ind_status": "AT", "dat_atuali": "18/12/2025"}, "geometry": {"type": "Polygon", "coordinates": [[[-48.71480852365493, -28.318836969252178], [-48.71774286031723, -28.31842611859598], [-48.7173968553543, -28.316376564023933], [-48.71444642543792, -28.31673547505108], [-48.71480852365493, -28.318836969252178]]]}}, {"type": "Feature", "properties": {"cod_imovel": "SC-4207304-B18BC1D62D784E6F89E0CBFD8681A732", "municipio": "Imbituba", "num_area": 50.865, "mod_fiscal": 3.1791, "des_condic": "Aguardando analise", "ind_status": "AT", "dat_atuali": "12/12/2025"}, "geometry": {"type": "Polygon", "coordinates": [[[-48.72006566564707, -28.30258396325238], [-48.72070952287395, -28.30438268324441], [-48.71936685887762, -28.30501825939781], [-48.72075026880179, -28.3086038145966], [-48.72721239072536, -28.30779990067001], [-48.72713158210941, -28.30671033505755], [-48.72680828751319, -28.30620875459383], [-48.72694698517475, -28.30513496892238], [-48.72513667309319, -28.30127496075341], [-48.72514439142213, -28.30061774025708], [-48.72454130355234, -28.29909492547755], [-48.72006566564707, -28.30258396325238]]]}}, {"type": "Feature", "properties": {"cod_imovel": "SC-4207304-8584FA6905A841799F2E6106C4EB3AC9", "municipio": "Imbituba", "num_area": 11.5511, "mod_fiscal": 0.7219, "des_condic": "Aguardando analise", "ind_status": "AT", "dat_atuali": "30/09/2025"}, "geometry": {"type": "Polygon", "coordinates": [[[-48.727209877322025, -28.307844922785463], [-48.72213255414475, -28.30846257813833], [-48.722819155087436, -28.31039383398995], [-48.72790171408551, -28.30995202788674], [-48.727209877322025, -28.307844922785463]]]}}, {"type": "Feature", "properties": {"cod_imovel": "SC-4207304-7E2E9D9814584FCF9372496607433DD4", "municipio": "Imbituba", "num_area": 5.6826, "mod_fiscal": 0.3552, "des_condic": "Aguardando analise", "ind_status": "AT", "dat_atuali": "01/10/2020"}, "geometry": {"type": "Polygon", "coordinates": [[[-48.71735237360001, -28.316360841841227], [-48.71505099595192, -28.31670754832577], [-48.715439663996385, -28.318728033219678], [-48.71739550661637, -28.31844079441545], [-48.717567505298575, -28.319518923589673], [-48.71793483386177, -28.319678142858017], [-48.71735237360001, -28.316360841841227]]]}}, {"type": "Feature", "properties": {"cod_imovel": "SC-4207304-5D5AC544B7EA4DC6BF215DC9581C431B", "municipio": "Imbituba", "num_area": 0.0153, "mod_fiscal": 0.001, "des_condic": "Aguardando analise", "ind_status": "AT", "dat_atuali": "27/01/2025"}, "geometry": {"type": "Polygon", "coordinates": [[[-48.71570438146591, -28.32294538849656], [-48.71573656797409, -28.32324288855304], [-48.71575802564621, -28.322950110726183], [-48.71570438146591, -28.32294538849656]]]}}, {"type": "Feature", "properties": {"cod_imovel": "SC-4207304-6588A39A520D4608A2FEAB875C519AD5", "municipio": "Imbituba", "num_area": 3.8638, "mod_fiscal": 0.2415, "des_condic": "Aguardando analise", "ind_status": "AT", "dat_atuali": "02/06/2022"}, "geometry": {"type": "Polygon", "coordinates": [[[-48.68032239445441, -28.25492585014613], [-48.68191948471565, -28.25593746894389], [-48.68168489106933, -28.25629193114732], [-48.68239845212516, -28.25675666099403], [-48.68358697339101, -28.25596789815351], [-48.68254568208207, -28.25501063264154], [-48.68097815160413, -28.2542732756152], [-48.68037753128171, -28.25466290054675], [-48.68032239445441, -28.25492585014613]]]}}, {"type": "Feature", "properties": {"cod_imovel": "SC-4207304-3D80FF191E9243E99B4EF914870C61B2", "municipio": "Imbituba", "num_area": 2.2347, "mod_fiscal": 0.1397, "des_condic": "Aguardando analise", "ind_status": "AT", "dat_atuali": "24/11/2022"}, "geometry": {"type": "Polygon", "coordinates": [[[-48.7250610746375, -28.32388472417413], [-48.72485741320355, -28.3230930578129], [-48.722322862865894, -28.323330671536944], [-48.722525810194114, -28.32412248057659], [-48.7250610746375, -28.32388472417413]]]}}, {"type": "Feature", "properties": {"cod_imovel": "SC-4207304-D216C6A8446B481FAC84D7610ACAA434", "municipio": "Imbituba", "num_area": 1.0024, "mod_fiscal": 0.0627, "des_condic": "Aguardando analise", "ind_status": "AT", "dat_atuali": "26/03/2021"}, "geometry": {"type": "Polygon", "coordinates": [[[-48.68485964667128, -28.25625764181699], [-48.6851079011999, -28.25654964774901], [-48.68712173058028, -28.25531260740496], [-48.68698714593636, -28.25494993936302], [-48.68485964667128, -28.25625764181699]]]}}, {"type": "Feature", "properties": {"cod_imovel": "SC-4207304-729506A1D34E43C9B8A18B69F84B772D", "municipio": "Imbituba", "num_area": 8.3443, "mod_fiscal": 0.5215, "des_condic": "Aguardando analise", "ind_status": "AT", "dat_atuali": "23/09/2021"}, "geometry": {"type": "Polygon", "coordinates": [[[-48.71749877929687, -28.319833393559833], [-48.71558904647827, -28.32021118232507], [-48.71599622817915, -28.3220139991511], [-48.71588507877197, -28.32320390650854], [-48.71749396596179, -28.32331415954864], [-48.71840173217061, -28.3229650789839], [-48.71785926918823, -28.319661155623244], [-48.71757025461078, -28.31960347330412], [-48.71749877929687, -28.319833393559833]]]}}, {"type": "Feature", "properties": {"cod_imovel": "SC-4207304-3984B74DF9A24A3399BD71A21DF86922", "municipio": "Imbituba", "num_area": 2.1748, "mod_fiscal": 0.1359, "des_condic": "Em analise", "ind_status": "AT", "dat_atuali": "02/03/2022"}, "geometry": {"type": "Polygon", "coordinates": [[[-48.728902640063616, -28.333316998783253], [-48.72876137495041, -28.33262315773854], [-48.72681409120559, -28.332802585978275], [-48.72699111700058, -28.334089266452843], [-48.728902640063616, -28.333316998783253]]]}}, {"type": "Feature", "properties": {"cod_imovel": "SC-4207304-0CC7DD51AE3F44A5B5889323AD5D862B", "municipio": "Imbituba", "num_area": 2.3975, "mod_fiscal": 0.1498, "des_condic": "Aguardando analise", "ind_status": "AT", "dat_atuali": "28/03/2016"}, "geometry": {"type": "Polygon", "coordinates": [[[-48.70114803314209, -28.25092118339717], [-48.70104074478149, -28.25061875574684], [-48.69466781616211, -28.252338801573906], [-48.69481801986694, -28.252660125740363], [-48.70114803314209, -28.25092118339717]]]}}, {"type": "Feature", "properties": {"cod_imovel": "SC-4207304-07AE15D1D69040719EDA270E6DDD0BE1", "municipio": "Imbituba", "num_area": 3.2778, "mod_fiscal": 0.2049, "des_condic": "Aguardando analise", "ind_status": "AT", "dat_atuali": "28/03/2016"}, "geometry": {"type": "Polygon", "coordinates": [[[-48.717394385598105, -28.31844124484921], [-48.71503931994913, -28.318795577491862], [-48.71530192672162, -28.319179298771587], [-48.715597489525955, -28.320181911057638], [-48.71760605096402, -28.31980652414344], [-48.717394385598105, -28.31844124484921]]]}}, {"type": "Feature", "properties": {"cod_imovel": "SC-4207304-A5F0FED50C1746F6AA28B4DECC99CE7E", "municipio": "Imbituba", "num_area": 36.4481, "mod_fiscal": 2.278, "des_condic": "Aguardando analise", "ind_status": "AT", "dat_atuali": "02/05/2016"}, "geometry": {"type": "Polygon", "coordinates": [[[-48.73533010482788, -28.332224164908983], [-48.73588800430298, -28.332790781498133], [-48.735501766204834, -28.334188422833652], [-48.74078035354614, -28.331940855481456], [-48.74094893436488, -28.33151847967048], [-48.74204635620117, -28.330807610218336], [-48.7424592443391, -28.32971416144072], [-48.74301019721426, -28.32912931642795], [-48.7431470599986, -28.32853316940829], [-48.74421411230685, -28.32835210218851], [-48.74459468161703, -28.32766188228107], [-48.74502897262573, -28.327351137530012], [-48.74485731124878, -28.326331173290566], [-48.74500751495361, -28.324933428621797], [-48.74490022659302, -28.32466898837368], [-48.744685649871826, -28.324574545268494], [-48.74352693557739, -28.325084537039643], [-48.74238967895508, -28.325840075906758], [-48.73533010482788, -28.332224164908983]]]}}, {"type": "Feature", "properties": {"cod_imovel": "SC-4207304-A2E49BF1542E47E4A7D4EAA581FF294E", "municipio": "Imbituba", "num_area": 1.3677, "mod_fiscal": 0.0855, "des_condic": "Aguardando analise", "ind_status": "AT", "dat_atuali": "14/05/2015"}, "geometry": {"type": "Polygon", "coordinates": [[[-48.70616912841797, -28.28357831956956], [-48.70545029640198, -28.284069612076493], [-48.70421648025513, -28.28491992067405], [-48.704516887664795, -28.28524114659928], [-48.706512451171875, -28.284050716252764], [-48.70616912841797, -28.28357831956956]]]}}, {"type": "Feature", "properties": {"cod_imovel": "SC-4207304-3D5B4A3362544F159311FFD4C162AF2B", "municipio": "Imbituba", "num_area": 4.6559, "mod_fiscal": 0.291, "des_condic": "Aguardando analise", "ind_status": "AT", "dat_atuali": "25/04/2016"}, "geometry": {"type": "Polygon", "coordinates": [[[-48.730008602142334, -28.325915629498105], [-48.72915029525756, -28.324650099759353], [-48.726768493652344, -28.325783410678003], [-48.72805595397949, -28.32723780865343], [-48.730008602142334, -28.325915629498105]]]}}, {"type": "Feature", "properties": {"cod_imovel": "SC-4207304-65DBC252B72447E2A74DB5335FEA3FC4", "municipio": "Imbituba", "num_area": 8.6511, "mod_fiscal": 0.5407, "des_condic": "Aguardando analise", "ind_status": "AT", "dat_atuali": "26/04/2016"}, "geometry": {"type": "Polygon", "coordinates": [[[-48.69664192199707, -28.26177020794188], [-48.69732856750488, -28.261033114057756], [-48.697586059570305, -28.261184313218784], [-48.69889497756958, -28.25963451164998], [-48.69677066802978, -28.25793348398893], [-48.695526123046875, -28.258916303281918], [-48.69541883468628, -28.25952111065044], [-48.69507551193237, -28.259577811165286], [-48.69492530822754, -28.25925650784897], [-48.69458198547363, -28.259936913725614], [-48.69619131088257, -28.26107091386812], [-48.69640588760376, -28.26086301474519], [-48.6968994140625, -28.2609575143968], [-48.697006702423096, -28.261146513448647], [-48.69644880294799, -28.26165680921458], [-48.69664192199707, -28.26177020794188]]]}}, {"type": "Feature", "properties": {"cod_imovel": "SC-4207304-A2BED77115FD49CF9727A46B782531C7", "municipio": "Imbituba", "num_area": 1.1103, "mod_fiscal": 0.0694, "des_condic": "Aguardando analise", "ind_status": "AT", "dat_atuali": "23/12/2016"}, "geometry": {"type": "Polygon", "coordinates": [[[-48.72814178466797, -28.311559483011045], [-48.727991580963135, -28.310936080111386], [-48.7263822555542, -28.311143881483932], [-48.72659683227539, -28.31176728316562], [-48.72814178466797, -28.311559483011045]]]}}, {"type": "Feature", "properties": {"cod_imovel": "SC-4207304-98337DCD10504DFABDBF5A730E3520C2", "municipio": "Imbituba", "num_area": 2.7318, "mod_fiscal": 0.1707, "des_condic": "Aguardando analise", "ind_status": "AT", "dat_atuali": "04/05/2016"}, "geometry": {"type": "Polygon", "coordinates": [[[-48.73859167098999, -28.318473342890105], [-48.730952739715576, -28.325330087760513], [-48.73106002807617, -28.325556749460922], [-48.73880624771118, -28.31858668111038], [-48.73859167098999, -28.318473342890105]]]}}, {"type": "Feature", "properties": {"cod_imovel": "SC-4207304-EB7C8FAB6EAA40C1B9ED584192FD0F69", "municipio": "Imbituba", "num_area": 5.7045, "mod_fiscal": 0.3565, "des_condic": "Aguardando analise", "ind_status": "AT", "dat_atuali": "04/05/2016"}, "geometry": {"type": "Polygon", "coordinates": [[[-48.7313175201416, -28.326066736519685], [-48.7392783164978, -28.318794467533774], [-48.73889207839966, -28.31858668111038], [-48.73103857040405, -28.325670080129875], [-48.7313175201416, -28.326066736519685]]]}}, {"type": "Feature", "properties": {"cod_imovel": "SC-4207304-D4553D68F0C941C69DB7FFE353FA0320", "municipio": "Imbituba", "num_area": 2.1799, "mod_fiscal": 0.1362, "des_condic": "Aguardando analise", "ind_status": "AT", "dat_atuali": "09/10/2015"}, "geometry": {"type": "Polygon", "coordinates": [[[-48.728742599487305, -28.332904104453423], [-48.726747035980225, -28.332998540157153], [-48.72687578201294, -28.334358404985473], [-48.7288498878479, -28.333508491507168], [-48.728742599487305, -28.332904104453423]]]}}, {"type": "Feature", "properties": {"cod_imovel": "SC-4207304-E0DEBE57701B451CAC5FBF91465E1B52", "municipio": "Imbituba", "num_area": 9.102, "mod_fiscal": 0.5689, "des_condic": "Aguardando analise", "ind_status": "AT", "dat_atuali": "29/11/2017"}, "geometry": {"type": "Polygon", "coordinates": [[[-48.68780792173315, -28.25680572469955], [-48.68948859880148, -28.25570716615711], [-48.68883898762857, -28.25474534319963], [-48.69155259071243, -28.25298844880758], [-48.69083927518807, -28.25224003621118], [-48.68622690691031, -28.25501213074602], [-48.68780792173315, -28.25680572469955]]]}}, {"type": "Feature", "properties": {"cod_imovel": "SC-4207304-EB726CA71FD5486287FEA132D3F354B5", "municipio": "Imbituba", "num_area": 1.0029, "mod_fiscal": 0.0627, "des_condic": "Aguardando analise", "ind_status": "AT", "dat_atuali": "25/03/2021"}, "geometry": {"type": "Polygon", "coordinates": [[[-48.68462295402907, -28.25598133728226], [-48.68485879419537, -28.25625583827671], [-48.68698659204583, -28.25494681854666], [-48.68685167475015, -28.25460361905783], [-48.68462295402907, -28.25598133728226]]]}}, {"type": "Feature", "properties": {"cod_imovel": "SC-4207304-AF04964E6C0849C4B1FA0F53761A7CC3", "municipio": "Imbituba", "num_area": 1.2808, "mod_fiscal": 0.0801, "des_condic": "Aguardando analise", "ind_status": "AT", "dat_atuali": "18/01/2016"}, "geometry": {"type": "Polygon", "coordinates": [[[-48.70219945907592, -28.25146933132709], [-48.70558977127075, -28.25073216621624], [-48.705503940582275, -28.250373032649357], [-48.70207071304321, -28.251148003572013], [-48.70219945907592, -28.25146933132709]]]}}, {"type": "Feature", "properties": {"cod_imovel": "SC-4207304-F07BD73173D84347B1A94BAECE0D85F4", "municipio": "Imbituba", "num_area": 0.5085, "mod_fiscal": 0.0318, "des_condic": "Aguardando analise", "ind_status": "AT", "dat_atuali": "14/09/2022"}, "geometry": {"type": "Polygon", "coordinates": [[[-48.719605244012655, -28.289569547902307], [-48.71906621793354, -28.289491770660607], [-48.71888279914856, -28.290309774444058], [-48.71942228821186, -28.29042112088293], [-48.719605244012655, -28.289569547902307]]]}}, {"type": "Feature", "properties": {"cod_imovel": "SC-4207304-FD18168208714B3480F690A2DAA5AA89", "municipio": "Imbituba", "num_area": 5.3382, "mod_fiscal": 0.3336, "des_condic": "Aguardando analise", "ind_status": "AT", "dat_atuali": "25/09/2018"}, "geometry": {"type": "Polygon", "coordinates": [[[-48.73558759689331, -28.334585047431567], [-48.73558759689331, -28.335472725690764], [-48.73889207839966, -28.33473614212705], [-48.73889207839966, -28.3328663301484], [-48.73565196990967, -28.33437729187444], [-48.73590946197509, -28.331487558826378], [-48.73558759689331, -28.334585047431567]]]}}, {"type": "Feature", "properties": {"cod_imovel": "SC-4207304-DCF0A8AF19D64AE3BFD800CDFC8C7E30", "municipio": "Imbituba", "num_area": 15.4448, "mod_fiscal": 0.9653, "des_condic": "Aguardando analise", "ind_status": "AT", "dat_atuali": "16/09/2022"}, "geometry": {"type": "Polygon", "coordinates": [[[-48.743183612823486, -28.323875663682287], [-48.741724491119385, -28.32223232941646], [-48.73953580856323, -28.324347881473713], [-48.74035120010375, -28.325122314110544], [-48.73453617095947, -28.330429859111824], [-48.73495474924193, -28.33072333515087], [-48.73473914020978, -28.33091002844651], [-48.73515609480864, -28.3312915300107], [-48.743183612823486, -28.323875663682287]]]}}, {"type": "Feature", "properties": {"cod_imovel": "SC-4207304-BD329053E26E48C1BE4740796B386F6F", "municipio": "Imbituba", "num_area": 5.0921, "mod_fiscal": 0.3183, "des_condic": "Aguardando analise", "ind_status": "AT", "dat_atuali": "05/08/2014"}, "geometry": {"type": "Polygon", "coordinates": [[[-48.70571717619896, -28.2785823011218], [-48.702069371938705, -28.28111444164915], [-48.702595084905624, -28.282125391385602], [-48.70578691363335, -28.27992868930792], [-48.70571717619896, -28.2785823011218]]]}}, {"type": "Feature", "properties": {"cod_imovel": "SC-4209409-F8D4531755BF4A2AAC34062F9432C64E", "municipio": "Laguna", "num_area": 3.705, "mod_fiscal": 0.2316, "des_condic": "Aguardando analise", "ind_status": "AT", "dat_atuali": "29/01/2019"}, "geometry": {"type": "Polygon", "coordinates": [[[-48.73594060986948, -28.34830841740961], [-48.73563039637627, -28.34795725069743], [-48.72936875502568, -28.35179752553395], [-48.72967784690027, -28.35215484021742], [-48.73594060986948, -28.34830841740961]]]}}, {"type": "Feature", "properties": {"cod_imovel": "SC-4209409-398AADA002524A90B99942B8A7E2F8B7", "municipio": "Laguna", "num_area": 58.7719, "mod_fiscal": 3.6732, "des_condic": "Aguardando analise", "ind_status": "AT", "dat_atuali": "29/01/2019"}, "geometry": {"type": "Polygon", "coordinates": [[[-48.73594159931073, -28.34830881663608], [-48.72967868745251, -28.35215650968045], [-48.73451550037375, -28.35781313602655], [-48.74078518073731, -28.35396476151643], [-48.73594159931073, -28.34830881663608]]]}}, {"type": "Feature", "properties": {"cod_imovel": "SC-4209409-40FE92F66D914D4CB4BB1C1395A063C8", "municipio": "Laguna", "num_area": 10.3806, "mod_fiscal": 0.6488, "des_condic": "Aguardando analise", "ind_status": "AT", "dat_atuali": "22/11/2024"}, "geometry": {"type": "Polygon", "coordinates": [[[-48.7476396563889, -28.4246280263889], [-48.7466992875, -28.4258904230555], [-48.7480038169445, -28.4265492175], [-48.7490586766667, -28.4274126122222], [-48.7549434083334, -28.4338429513889], [-48.7553508797222, -28.4334719866667], [-48.7506683794444, -28.4278660355556], [-48.7476396563889, -28.4246280263889]]]}}, {"type": "Feature", "properties": {"cod_imovel": "SC-4209409-78772D75292640B091148EAB8B79D85C", "municipio": "Laguna", "num_area": 14.9242, "mod_fiscal": 0.9231, "des_condic": "Aguardando analise", "ind_status": "AT", "dat_atuali": "22/11/2024"}, "geometry": {"type": "Polygon", "coordinates": [[[-48.7442175563889, -28.4243034575], [-48.7457251069445, -28.4227454783333], [-48.7452912797222, -28.4222916936111], [-48.7444056483333, -28.4225210191667], [-48.7441421175, -28.4221404491666], [-48.7437569444444, -28.4220313141667], [-48.7428996933333, -28.42140655], [-48.7415412888889, -28.4208736811111], [-48.7409218911111, -28.4214039158333], [-48.7394527472222, -28.4219884797222], [-48.7388388233334, -28.4224424427778], [-48.7381114675, -28.4224952863889], [-48.7381621766667, -28.4227644916667], [-48.7393968122222, -28.4235056394445], [-48.7399738877778, -28.4236561313889], [-48.7407044955555, -28.4243913258333], [-48.7414851294444, -28.4238722786111], [-48.7424094080556, -28.4236567902778], [-48.7437187077778, -28.4238338188889], [-48.7440404369444, -28.4239623138889], [-48.7442175563889, -28.4243034575]]]}}, {"type": "Feature", "properties": {"cod_imovel": "SC-4209409-52B6F643C80142E78CF55418B284EABF", "municipio": "Laguna", "num_area": 4.554, "mod_fiscal": 0.2846, "des_condic": "Aguardando analise", "ind_status": "AT", "dat_atuali": "22/11/2024"}, "geometry": {"type": "Polygon", "coordinates": [[[-48.7457251069445, -28.4227454783333], [-48.7442172502778, -28.4243034525], [-48.7441941355556, -28.424705935], [-48.7447279733333, -28.4246954583333], [-48.7461983422222, -28.4254864691667], [-48.7471387133333, -28.4242240763889], [-48.7457251069445, -28.4227454783333]]]}}, {"type": "Feature", "properties": {"cod_imovel": "SC-4209409-071F6C247E6D4B1390A6CD7F10B503E5", "municipio": "Laguna", "num_area": 3.8882, "mod_fiscal": 0.243, "des_condic": "Aguardando analise", "ind_status": "AT", "dat_atuali": "03/07/2022"}, "geometry": {"type": "Polygon", "coordinates": [[[-48.744525827184, -28.3564000766142], [-48.742191195487976, -28.35398479292514], [-48.74142408370972, -28.35457017674263], [-48.743598589288055, -28.35712166698937], [-48.744525827184, -28.3564000766142]]]}}, {"type": "Feature", "properties": {"cod_imovel": "SC-4209409-C96FEA5D64E343F29B7D42E35E840569", "municipio": "Laguna", "num_area": 5.4521, "mod_fiscal": 0.3408, "des_condic": "Aguardando analise", "ind_status": "AT", "dat_atuali": "26/08/2021"}, "geometry": {"type": "Polygon", "coordinates": [[[-48.725041151046746, -28.345255582007866], [-48.72282028198242, -28.346653059362943], [-48.72411847114563, -28.34794665376855], [-48.72663880288847, -28.346387490326823], [-48.725041151046746, -28.345255582007866]]]}}, {"type": "Feature", "properties": {"cod_imovel": "SC-4209409-25DCF7EEEF7748B0A1F56103EB4A5F19", "municipio": "Laguna", "num_area": 5.8036, "mod_fiscal": 0.3627, "des_condic": "Aguardando analise", "ind_status": "AT", "dat_atuali": "18/06/2021"}, "geometry": {"type": "Polygon", "coordinates": [[[-48.73689651489257, -28.340949725363668], [-48.73314142227173, -28.340968611080942], [-48.73316287994385, -28.34234725937184], [-48.737046718597405, -28.342290602945322], [-48.73711109161377, -28.341270782100445], [-48.73689651489257, -28.340949725363668]]]}}, {"type": "Feature", "properties": {"cod_imovel": "SC-4209409-17E3CA6F21B24A4485D3A57B0347B6E0", "municipio": "Laguna", "num_area": 14.1853, "mod_fiscal": 0.8866, "des_condic": "Aguardando analise", "ind_status": "AT", "dat_atuali": "19/08/2021"}, "geometry": {"type": "Polygon", "coordinates": [[[-48.73305559158325, -28.338419008882134], [-48.73305559158325, -28.340930839643057], [-48.73816251754761, -28.340836410989613], [-48.738248348236084, -28.338362350360494], [-48.73305559158325, -28.338419008882134]]]}}, {"type": "Feature", "properties": {"cod_imovel": "SC-4209409-B1A96A9BDEDE4F4F9FF15B1271E4004A", "municipio": "Laguna", "num_area": 4.297, "mod_fiscal": 0.2686, "des_condic": "Aguardando analise", "ind_status": "AT", "dat_atuali": "24/07/2023"}, "geometry": {"type": "Polygon", "coordinates": [[[-48.738473653793335, -28.33629429364164], [-48.73302340507507, -28.3367286833241], [-48.73305559158325, -28.337465253074516], [-48.73817056417465, -28.33707336083017], [-48.738473653793335, -28.33629429364164]]]}}, {"type": "Feature", "properties": {"cod_imovel": "SC-4209409-B27237436DD3498C92FB9ADA6595EFBE", "municipio": "Laguna", "num_area": 1.5705, "mod_fiscal": 0.0982, "des_condic": "Aguardando analise", "ind_status": "AT", "dat_atuali": "04/05/2016"}, "geometry": {"type": "Polygon", "coordinates": [[[-48.73730421066284, -28.348050518329416], [-48.73876333236694, -28.347087406686903], [-48.73835471078277, -28.34645785406441], [-48.73672485351562, -28.34742732944044], [-48.73730421066284, -28.348050518329416]]]}}, {"type": "Feature", "properties": {"cod_imovel": "SC-4209409-9D373928C3964A47B656480DAB9DF308", "municipio": "Laguna", "num_area": 4.7918, "mod_fiscal": 0.2995, "des_condic": "Aguardando analise", "ind_status": "AT", "dat_atuali": "04/05/2016"}, "geometry": {"type": "Polygon", "coordinates": [[[-48.73417139053345, -28.338456781213104], [-48.73790502548218, -28.338211260821737], [-48.738462924957275, -28.33707808243208], [-48.734450340270996, -28.337266946336346], [-48.73417139053345, -28.338456781213104]]]}}, {"type": "Feature", "properties": {"cod_imovel": "SC-4209409-23EB3B18A05B495A9F1A53BDCE52D341", "municipio": "Laguna", "num_area": 0.3754, "mod_fiscal": 0.0235, "des_condic": "Aguardando analise", "ind_status": "AT", "dat_atuali": "15/07/2015"}, "geometry": {"type": "Polygon", "coordinates": [[[-48.72814178466797, -28.33713474163862], [-48.72936487197876, -28.336964763928368], [-48.72915029525756, -28.336700353616344], [-48.72809886932373, -28.3368325588546], [-48.72814178466797, -28.33713474163862]]]}}, {"type": "Feature", "properties": {"cod_imovel": "SC-4209409-40F4FAEDBAFD4EAAAAA430504952992F", "municipio": "Laguna", "num_area": 4.4203, "mod_fiscal": 0.2763, "des_condic": "Aguardando analise", "ind_status": "AT", "dat_atuali": "09/03/2016"}, "geometry": {"type": "Polygon", "coordinates": [[[-48.74421093948612, -28.35776900795619], [-48.746488094329834, -28.360362470040382], [-48.747496604919434, -28.35972047103584], [-48.7452892101919, -28.35717490921884], [-48.74421093948612, -28.35776900795619]]]}}, {"type": "Feature", "properties": {"cod_imovel": "SC-4209409-47E65E73093347068CF1C053DD8E6169", "municipio": "Laguna", "num_area": 0.2335, "mod_fiscal": 0.0146, "des_condic": "Aguardando analise", "ind_status": "AT", "dat_atuali": "26/08/2020"}, "geometry": {"type": "Polygon", "coordinates": [[[-48.739113363889, -28.347748359722], [-48.739003249444, -28.34763113], [-48.737908328056, -28.348354742778], [-48.738025522222, -28.34847958], [-48.739113363889, -28.347748359722]]]}}]}