{"type": "FeatureCollection", "features": [{"type": "Feature", "properties": {"cod_imovel": "SC-4209409-4EEA6FED058740B1A4B2BD48F646155D", "municipio": "Laguna", "num_area": 20.1077, "mod_fiscal": 1.2567, "des_condic": "Aguardando analise", "ind_status": "AT", "dat_atuali": "19/05/2016"}, "geometry": {"type": "Polygon", "coordinates": [[[-48.75117819476222, -28.502007923061644], [-48.74780884843266, -28.502211872973408], [-48.74791325543031, -28.502585975229046], [-48.74686351461221, -28.503351928660667], [-48.74671233028801, -28.504207940898016], [-48.74691207032202, -28.50499840336813], [-48.74666213431117, -28.50519501501218], [-48.74711561014149, -28.5061196143538], [-48.74720743211683, -28.506960889494152], [-48.747531963348266, -28.507858897312722], [-48.74798371708946, -28.507057854328146], [-48.74846670367935, -28.506574930008636], [-48.749441167464255, -28.50614183282872], [-48.749253968733036, -28.505866152078696], [-48.74974607083564, -28.50529973224078], [-48.75056307328208, -28.50551357029993], [-48.750742456050645, -28.505132439370392], [-48.752456328133995, -28.5036676198719], [-48.75137173627599, -28.502085655256177], [-48.75128852266075, -28.502161242528828], [-48.75117819476222, -28.502007923061644]]]}}]}