{"type": "FeatureCollection", "features": [{"type": "Feature", "properties": {"cod_imovel": "SC-4213104-8CBE13B1BB004CC48D8B81264E8716DF", "municipio": "Piratuba", "num_area": 7872.1667, "mod_fiscal": 404.9856, "des_condic": "Aguardando analise", "ind_status": "PE", "dat_atuali": "13/06/2016"}, "geometry": {"type": "Polygon", "coordinates": [[[-51.43393604829236, -27.560348289602103], [-51.433764550322906, -27.560202587714308], [-51.43340952515063, -27.56022491705095], [-51.433202448270066, -27.560797243397158], [-51.429680507860155, -27.56084304547096], [-51.42984244683529, -27.56132206843963], [-51.43085837910278, -27.562315096718827], [-51.43100767913386, -27.56308324757713], [-51.43158619065035, -27.564491698968155], [-51.43882856332343, -27.56570756113054], [-51.438299291260066, -27.566495059990448], [-51.43095015068705, -27.56550064497827], [-51.42624079321971, -27.565327918546043], [-51.42604468306964, -27.565732535901976], [-51.42587871721719, -27.564271990040286], [-51.42616593816899, -27.563028518033118], [-51.426110008242965, -27.562104620630826], [-51.42585710966673, -27.5614037114375], [-51.42512115584881, -27.56026705676215], [-51.42487198046008, -27.560034787041115], [-51.42434868501426, -27.559923604560442], [-51.42510321288517, -27.56084366574731], [-51.425078010172555, -27.561194732797468], [-51.425251464593806, -27.561480038842983], [-51.424896254968175, -27.563260014685664], [-51.42452835273363, -27.563179332778436], [-51.42418243870418, -27.56342930266417], [-51.42321814906864, -27.564540307307748], [-51.420358757543326, -27.56486615212082], [-51.41827151513025, -27.565671382120467], [-51.41779254272018, -27.564616838297965], [-51.41727126777222, -27.564750842566266], [-51.417232860804944, -27.56414701819628], [-51.417009159465024, -27.564613470085476], [-51.41656190981356, -27.564855329460084], [-51.4161142312388, -27.565597485539044], [-51.41598270399176, -27.56724863003347], [-51.41472262271303, -27.569602658313666], [-51.414496810238425, -27.570531281139857], [-51.41395719863441, -27.570254473433224], [-51.412629500528226, -27.570091132637824], [-51.41233855445185, -27.570247496411135], [-51.41227929593678, -27.57045246171416], [-51.41133321782312, -27.5708237871206], [-51.409614375592376, -27.571046013687557], [-51.40888929696602, -27.570163163668994], [-51.40861697573926, -27.570077568723264], [-51.408387285246455, -27.57023334052749], [-51.40914091679452, -27.57178624615602], [-51.40965824978957, -27.571849233552015], [-51.41238260244469, -27.57154239082434], [-51.41357881173663, -27.57239080400817], [-51.41368916437318, -27.57349002554796], [-51.411755139635126, -27.58076299243855], [-51.4108051979272, -27.58242605134606], [-51.409677441675505, -27.582429382845113], [-51.40936056545024, -27.582925478172], [-51.410271065714824, -27.583833013595644], [-51.409540374644536, -27.58733042308972], [-51.40896109690473, -27.587594274178088], [-51.40875857063391, -27.58790800276317], [-51.40666287529944, -27.58764786513663], [-51.40508064239727, -27.58709516540171], [-51.40494969758557, -27.587262168126607], [-51.40656256139297, -27.5880628230738], [-51.40683321741753, -27.588463310005384], [-51.40737619040065, -27.588566658785584], [-51.407776288869435, -27.588864558642904], [-51.40788703856218, -27.58931935236401], [-51.40700079042384, -27.591405185534754], [-51.4060541206973, -27.59264544025368], [-51.40508051280052, -27.593090833007032], [-51.40107032490619, -27.59382782431108], [-51.400191690757715, -27.593277842726817], [-51.40032335684618, -27.59204907347433], [-51.39926299787246, -27.592678593520716], [-51.39660736556445, -27.59479806405339], [-51.39536973740061, -27.59429493051699], [-51.3950263867337, -27.59349845188396], [-51.389971862262726, -27.593738451341146], [-51.389963401559065, -27.595108367435405], [-51.38401839903713, -27.594531515337213], [-51.38274332653479, -27.594552249560742], [-51.38128270427906, -27.59492348349051], [-51.37852402852791, -27.596130224235385], [-51.37741273053052, -27.596965223966365], [-51.37663395632638, -27.597110783023663], [-51.376313689276294, -27.597622310403228], [-51.376053085014206, -27.59863286178668], [-51.37589243163262, -27.598736576614893], [-51.37502248133841, -27.59858974843161], [-51.37464273774089, -27.59865962635246], [-51.3745081944038, -27.598866548844004], [-51.374509207537656, -27.599164909248987], [-51.37558718827254, -27.59987921583621], [-51.37568500367945, -27.602122411430006], [-51.37533904540858, -27.60455041510365], [-51.37480189525166, -27.60673295586514], [-51.37446371700987, -27.610146392089682], [-51.37389266418556, -27.611060923455796], [-51.37224635950876, -27.611834206465026], [-51.371114082810465, -27.61223888035529], [-51.36856467376458, -27.612624366756446], [-51.36393721987282, -27.613761177313048], [-51.3630289549228, -27.6137463432805], [-51.362003806295945, -27.6134449206194], [-51.36000304391464, -27.612227986032458], [-51.35802036347675, -27.610615069933832], [-51.35627490405828, -27.6086457754849], [-51.35567880145635, -27.607551394630843], [-51.35502106301612, -27.605315353393017], [-51.35539767708902, -27.60226764110347], [-51.35497881072646, -27.60019738217666], [-51.3556664533064, -27.59973436235618], [-51.35639032071039, -27.59845562128518], [-51.35643477130912, -27.5981312187353], [-51.356297618409776, -27.597928889418796], [-51.35573624324978, -27.59812325161538], [-51.35578822661566, -27.598624616280766], [-51.35526114104547, -27.599639223828323], [-51.35468665231427, -27.599882747918066], [-51.35430777016399, -27.59982610331619], [-51.353209522622265, -27.598635269022065], [-51.35061349193158, -27.594948386920276], [-51.34993047236092, -27.594338871866395], [-51.34976068190619, -27.593829601801502], [-51.34898667144166, -27.593027731809197], [-51.34820430292912, -27.592650749769714], [-51.347598725222134, -27.592057446671706], [-51.345829201286385, -27.591581601516296], [-51.34407403669146, -27.591978145615574], [-51.34304313671334, -27.593029749090295], [-51.34273683402115, -27.593080943033662], [-51.34213357707513, -27.591719665034127], [-51.34234694070669, -27.593237876463686], [-51.339856861646695, -27.596026258574856], [-51.3382368025497, -27.598416302011163], [-51.337505738075855, -27.59907117998653], [-51.337204936654146, -27.59913610358899], [-51.33686411185497, -27.59897940708687], [-51.33704901120999, -27.599532956765316], [-51.33643624305052, -27.60035667454366], [-51.336390893818, -27.600675159999792], [-51.335952209706285, -27.600932328271995], [-51.335245784318545, -27.600610263838462], [-51.334267134084506, -27.60065987959598], [-51.33469196800659, -27.600897139267502], [-51.33446897433017, -27.601628573551125], [-51.33519390255848, -27.601946902134273], [-51.33435497051198, -27.60293304542399], [-51.33418461330351, -27.60333954365812], [-51.333889923994576, -27.603426186886445], [-51.33366068217772, -27.603851980230367], [-51.332964420883464, -27.60414984202714], [-51.33135540245346, -27.604034181667373], [-51.33043994182238, -27.60454280795093], [-51.32994646978344, -27.604505747653082], [-51.32924241414188, -27.60531273261981], [-51.33091921840195, -27.605215248334833], [-51.333314506944994, -27.604674452496052], [-51.33552534579129, -27.60338164374162], [-51.33633139051766, -27.602262132523567], [-51.33657818364359, -27.602406663169656], [-51.339754427019926, -27.598558566270256], [-51.34083852150039, -27.596661168398338], [-51.343833226870196, -27.593685355639046], [-51.34516551311948, -27.59326757471791], [-51.34787059566126, -27.59404635150857], [-51.348648447001494, -27.594837823256103], [-51.349939212109255, -27.59669379053145], [-51.35151274221039, -27.598284553065703], [-51.35165587239206, -27.598706559887614], [-51.35216691851795, -27.59917894902912], [-51.35270149962524, -27.60008153948541], [-51.35306782033352, -27.601016135652714], [-51.35324748251208, -27.601773573717583], [-51.35323297398867, -27.602776242647856], [-51.353056763794946, -27.603096428363873], [-51.352793078324304, -27.605157625524388], [-51.35352996888624, -27.608337329650702], [-51.3525587668475, -27.609476641759755], [-51.35255535181165, -27.60982809285713], [-51.35298057052093, -27.60986051472214], [-51.35394550321657, -27.609327483307815], [-51.354421380940884, -27.60998712058169], [-51.3562816606876, -27.611732631781187], [-51.3588421310715, -27.61376499435968], [-51.35807743074873, -27.62308765433882], [-51.35800472910899, -27.626511409924703], [-51.35884367283696, -27.626286503183383], [-51.35879158438059, -27.6210294973527], [-51.359296846324575, -27.615787938987808], [-51.35981037994972, -27.616621995318724], [-51.35983855666828, -27.617397767873616], [-51.36012387423712, -27.618401063500063], [-51.360509960944086, -27.61885643969669], [-51.3612708626156, -27.617792812847394], [-51.362005020534504, -27.61737139237661], [-51.36301596578202, -27.617125250815146], [-51.364067869958276, -27.6171063271249], [-51.363901069595855, -27.615873903896663], [-51.365818089037994, -27.615726706850804], [-51.36594735753564, -27.61546068094927], [-51.3671818241036, -27.61509915403147], [-51.36716708554018, -27.617757179572333], [-51.37049112615783, -27.616709022871024], [-51.37039766526434, -27.616472749600835], [-51.37128462970174, -27.616157032506603], [-51.37334753317264, -27.615814559617217], [-51.37397635546327, -27.613394472437594], [-51.375603786483154, -27.612444723271487], [-51.37599969757908, -27.612690001503125], [-51.37652031918669, -27.612697177946234], [-51.37651196915945, -27.61207793430374], [-51.378913656910214, -27.612929955155103], [-51.38208628072745, -27.613370013342944], [-51.38611129944725, -27.61359175694576], [-51.385988677477044, -27.615557368888275], [-51.38696092366825, -27.61575796259941], [-51.38752333226415, -27.615476252377224], [-51.387844316984065, -27.614491019543042], [-51.38755926538796, -27.613325254149963], [-51.38786663294292, -27.61231750246296], [-51.384158703793275, -27.612283369635435], [-51.3815975908258, -27.611902395952775], [-51.37860189359627, -27.611215673773405], [-51.3788438577582, -27.60914750814405], [-51.37868075814082, -27.60650081583297], [-51.37920154709621, -27.605688184760172], [-51.379349061418225, -27.604842846717368], [-51.37987610387675, -27.60392162968881], [-51.3801299108567, -27.601307666699977], [-51.380560082095975, -27.600153605827256], [-51.38113474637243, -27.59947386339218], [-51.38276885725773, -27.598309203054377], [-51.38343557735051, -27.598420505530648], [-51.3842813037277, -27.59901830172248], [-51.38520099984446, -27.598363646377553], [-51.38560605886925, -27.598287300262317], [-51.39012545933902, -27.598043711756667], [-51.390422417951086, -27.60011162789858], [-51.390365447074494, -27.60166530163662], [-51.390695787737634, -27.602027945598415], [-51.391096427736215, -27.60218218852471], [-51.392911441630275, -27.602203873169074], [-51.39304795128175, -27.602956306182804], [-51.39296547112082, -27.60354832493592], [-51.397187381621094, -27.599184367169276], [-51.39904503930756, -27.599010052784042], [-51.39903819789003, -27.59879419766764], [-51.40567907347554, -27.598569577370228], [-51.40556444090176, -27.59787192722503], [-51.413201710406106, -27.598314728858455], [-51.41218647533798, -27.597356188030357], [-51.41107500535897, -27.596601181167692], [-51.41332807167887, -27.589290996974462], [-51.411981367601484, -27.588992638176375], [-51.412370375729296, -27.587323894521376], [-51.41259721587989, -27.586940360316788], [-51.41248213908212, -27.586689450395827], [-51.413663613136684, -27.583060731779035], [-51.413951852146006, -27.582940228675913], [-51.414071597020225, -27.582646745638566], [-51.41384203130916, -27.582300463534253], [-51.414507143200204, -27.58063543151207], [-51.41494593828536, -27.58036986745352], [-51.41451019281382, -27.579660325867447], [-51.415743330418046, -27.575147208737555], [-51.41604925700549, -27.574762293383337], [-51.41607407880981, -27.574223821354398], [-51.41697917486508, -27.572133321962074], [-51.4172867972231, -27.571821324644766], [-51.41727892958271, -27.571516256497198], [-51.41932161870041, -27.568489097829158], [-51.4207213535595, -27.567635393204093], [-51.4224065258121, -27.567702066109952], [-51.423085247360575, -27.567891431733493], [-51.42442485978483, -27.568868424708583], [-51.42578814367849, -27.570754625065213], [-51.42588411227599, -27.571268799565246], [-51.426342072025456, -27.571650254670132], [-51.42689676303952, -27.573078532575526], [-51.42699799647127, -27.574144242363783], [-51.42208244699706, -27.575972230574873], [-51.422413485605006, -27.57717964724302], [-51.42726971345623, -27.57619872981175], [-51.42742302843223, -27.576887328481348], [-51.42730595988362, -27.577230104167246], [-51.42576256290693, -27.577652493680635], [-51.42597885224181, -27.578857368564368], [-51.42444615836563, -27.57993196601198], [-51.42533968998678, -27.5799514188091], [-51.427617336402065, -27.578039202704957], [-51.42767682741848, -27.578280395961198], [-51.428147576070245, -27.578488322388758], [-51.42979464614726, -27.58079235669722], [-51.43008365245701, -27.58087521375613], [-51.430818678620284, -27.58170445603463], [-51.43114813556922, -27.581829060321187], [-51.431913345774156, -27.58321708579772], [-51.43292545774271, -27.58307978900478], [-51.433255648846796, -27.583389831906135], [-51.433644949340824, -27.58336468888167], [-51.43558295901298, -27.584489254311222], [-51.43601235414771, -27.584416120358064], [-51.437586292383045, -27.585146977644488], [-51.43837487441674, -27.585916190667437], [-51.43871078099781, -27.585968968233548], [-51.439694222971944, -27.586773451847062], [-51.43982298027676, -27.58707215112402], [-51.43966532929218, -27.58794604720889], [-51.439894247466974, -27.58810684186694], [-51.440336822782776, -27.58796784904425], [-51.440746683570104, -27.588044316739623], [-51.44147337314852, -27.58843683113015], [-51.44288792552313, -27.589580902748015], [-51.443974479035994, -27.59096529542162], [-51.44436469574416, -27.591161458890202], [-51.44484164269335, -27.59172540170427], [-51.441528164376, -27.592509948275712], [-51.44214044674995, -27.59361421223586], [-51.440782510477625, -27.593959905379844], [-51.44186414280888, -27.59784388895495], [-51.443917464112005, -27.600271773661202], [-51.44339206635734, -27.600267758228267], [-51.44224829833654, -27.600652864614837], [-51.441898109992344, -27.600186512897356], [-51.44041984125779, -27.600768721651345], [-51.44096075501481, -27.601994650363885], [-51.4415730365484, -27.603231218930723], [-51.442083880396474, -27.60320467016722], [-51.443026533129064, -27.602736935047346], [-51.44384146004372, -27.60293859417901], [-51.44461392341782, -27.603868909440116], [-51.44671985898968, -27.603017456659853], [-51.4475977913278, -27.603586863608363], [-51.44836210434527, -27.604887510962282], [-51.44920291489039, -27.605197512953495], [-51.448677454262295, -27.605268659621892], [-51.4495918759378, -27.605737973264073], [-51.450787942062114, -27.60676597958688], [-51.45101857807327, -27.60756038845467], [-51.45080375423725, -27.60827659534649], [-51.44952799840505, -27.61030493810693], [-51.448593641563605, -27.611309969903246], [-51.44960526941869, -27.612625203549527], [-51.445789440364685, -27.615646443562884], [-51.4445697354937, -27.614721861640707], [-51.44399406952608, -27.61505450297115], [-51.44147402570446, -27.617816900532436], [-51.441811311599174, -27.6181750883421], [-51.44169126230679, -27.61850450013624], [-51.44210726148835, -27.61945069392479], [-51.44131385148866, -27.62054878718409], [-51.44100878422976, -27.62073926090791], [-51.440857435054774, -27.621130592666653], [-51.43986426129928, -27.622158248441888], [-51.43933874540601, -27.622088849800292], [-51.43833958217869, -27.621618251384284], [-51.436637147603676, -27.621517023965808], [-51.43636557094273, -27.621772523797947], [-51.43665956021756, -27.62213876203282], [-51.438038134017646, -27.622720693823528], [-51.43810582326217, -27.623022500662316], [-51.43874580830831, -27.62345278292156], [-51.4372705904855, -27.625550156094743], [-51.432870132352996, -27.625901110963493], [-51.43144098689927, -27.626618112771208], [-51.43111393540432, -27.626684062640297], [-51.430909272802964, -27.626517116649342], [-51.430658420906894, -27.628041577766272], [-51.42943073031131, -27.63092205730522], [-51.42920427523717, -27.631300664920563], [-51.428661534926995, -27.631230977098628], [-51.429027951453065, -27.633015175221253], [-51.42910712705983, -27.634941880842543], [-51.4281491937812, -27.635388198102017], [-51.427877076016834, -27.63532395677411], [-51.42761841815649, -27.634983898255957], [-51.42759419206395, -27.635672931898096], [-51.42908728470796, -27.635837380131644], [-51.429607967213684, -27.63575981702683], [-51.430195847388205, -27.635199123215276], [-51.433091578900004, -27.634909824126318], [-51.433135372613826, -27.635150038907927], [-51.43362875019112, -27.635134178527586], [-51.434352236627134, -27.637805721823295], [-51.43434666252824, -27.638232398247535], [-51.434572474035726, -27.638432091406873], [-51.43465648359104, -27.639485546475065], [-51.43488332065581, -27.6399438175685], [-51.435113279707345, -27.641190751025896], [-51.43438994312089, -27.64183947197179], [-51.43442012759443, -27.642130280638685], [-51.4347910759033, -27.64231659006169], [-51.43511755083536, -27.642270314215505], [-51.435445970762984, -27.642715336007093], [-51.43555481609608, -27.64453799084489], [-51.43587039160339, -27.645403245565706], [-51.43559634904588, -27.647692549065773], [-51.434754548687266, -27.647766299805028], [-51.4345738063358, -27.64795433826423], [-51.434632877991476, -27.64820626984936], [-51.43532505043062, -27.648844086247912], [-51.4353153698828, -27.65006591113153], [-51.434972157202225, -27.651392214598683], [-51.43456066131969, -27.651975313353912], [-51.43400261565517, -27.6524079182621], [-51.4318305127738, -27.64911382584398], [-51.42945909733897, -27.649152922655343], [-51.42752787051288, -27.64546422601396], [-51.42606959628805, -27.645446381168224], [-51.42594386953974, -27.64647620834127], [-51.42669286582165, -27.64713927055602], [-51.4270589059293, -27.64897441993451], [-51.426570900889125, -27.649040688104463], [-51.425730033048985, -27.651132793833025], [-51.42576922545523, -27.65325668225801], [-51.425436370862634, -27.65389012326264], [-51.42346190152411, -27.653867448026368], [-51.42319083809169, -27.653679598705512], [-51.42239727862593, -27.653783504528782], [-51.423208267384204, -27.650162819489278], [-51.4228403786879, -27.650068043424554], [-51.42222132826671, -27.649080914126348], [-51.42077750277144, -27.65336600311296], [-51.41937061902475, -27.652641016424607], [-51.419232238347526, -27.652267445290978], [-51.41854734977931, -27.652236993577713], [-51.41770691481804, -27.651709462834255], [-51.41761227022293, -27.651239797348506], [-51.41695125781441, -27.651129548301494], [-51.41675296058108, -27.650957824459297], [-51.416904727664935, -27.650219318000097], [-51.41838452645078, -27.648436489064107], [-51.41752041205798, -27.647889876016098], [-51.417056601854945, -27.648224601448188], [-51.416708675961395, -27.647970705731673], [-51.41510318245962, -27.6495117546244], [-51.414627165891794, -27.649115478879366], [-51.414546624575834, -27.648625193974333], [-51.41410797441661, -27.64856644131022], [-51.4136678548014, -27.648117272233677], [-51.41287125259054, -27.646508564095672], [-51.41267998043688, -27.64528911026981], [-51.41820827674747, -27.640156334330225], [-51.4183677856982, -27.63982468542465], [-51.41822866365432, -27.639642734275878], [-51.41725862323948, -27.639415658431634], [-51.41676105519814, -27.63913509254963], [-51.416942305886025, -27.637659752024703], [-51.413073914243014, -27.63720565613202], [-51.41087355753886, -27.632996802732272], [-51.41152823323019, -27.632104647645164], [-51.41011981781595, -27.631090984488548], [-51.40925212146085, -27.629422252315045], [-51.4106239489076, -27.628536854037744], [-51.40910243510266, -27.626458083336345], [-51.40799583040941, -27.626984791910985], [-51.407875332684824, -27.625814965382347], [-51.40600151183225, -27.62465205472995], [-51.40469754936278, -27.626534824556174], [-51.40636452738188, -27.627955692620187], [-51.40435436002012, -27.629442374545807], [-51.40198300638441, -27.628116060823874], [-51.4018246869661, -27.627703858102613], [-51.40114770263064, -27.627750258790698], [-51.395977291827315, -27.62460096437126], [-51.39540221574928, -27.6239956800768], [-51.394518048909426, -27.623902967978573], [-51.39447398666528, -27.62354122195669], [-51.39420974458376, -27.62339595503983], [-51.39382503537498, -27.623447836397713], [-51.39361191157207, -27.6236452488935], [-51.3932413317616, -27.62350442006669], [-51.39477187070064, -27.616866061161293], [-51.3932267847789, -27.616982860151477], [-51.39177077007636, -27.621573457064915], [-51.38860191806903, -27.621515894572195], [-51.38856977004148, -27.622012330587104], [-51.386497419028906, -27.62175014710909], [-51.386325825279584, -27.62154916704832], [-51.385873478589446, -27.621550425873806], [-51.38550302623808, -27.621839982898717], [-51.385395628980824, -27.619325675256015], [-51.38571271478851, -27.61769320817997], [-51.384193098565, -27.617810425420107], [-51.38259166640761, -27.618157704552733], [-51.38294650830179, -27.622399360744385], [-51.380172011354325, -27.623925465293844], [-51.3791455042928, -27.62487207275547], [-51.37848792861819, -27.620177198032856], [-51.37798185596533, -27.620533930641983], [-51.3769211515749, -27.62059790297326], [-51.37422061768193, -27.621775914843237], [-51.37275064191502, -27.622695355655527], [-51.374599675033714, -27.629260494143498], [-51.3722974321896, -27.630980713096097], [-51.37160435303731, -27.628133429845867], [-51.36906566415876, -27.629800028474264], [-51.36853762687562, -27.628288855276264], [-51.36731949293099, -27.625840712078777], [-51.36572560087229, -27.6263345033761], [-51.36892964268723, -27.630893899775664], [-51.36998371128006, -27.632646175335793], [-51.36935686106837, -27.63265619659327], [-51.36906399898284, -27.632942839136888], [-51.36844928783127, -27.632581339866753], [-51.36728080032186, -27.6323832833857], [-51.36544318929491, -27.628928762617505], [-51.36402480288095, -27.626668813986246], [-51.363000791954065, -27.62725551787467], [-51.36226503931227, -27.627230003367668], [-51.366625945191316, -27.63282297530013], [-51.36928811422317, -27.634258439779288], [-51.36885472902134, -27.635424083606743], [-51.36014010100187, -27.62779788772422], [-51.35931303391476, -27.628237622263235], [-51.358862863209076, -27.62822303517188], [-51.358642141708394, -27.628497755938735], [-51.36834334776467, -27.63689293317438], [-51.36800715718452, -27.640206547534873], [-51.36692696274717, -27.640818605431036], [-51.364169723047176, -27.640644023804487], [-51.363894421190125, -27.64075385571781], [-51.36386654832678, -27.641053837744696], [-51.364172517570516, -27.64135022884081], [-51.36672931758699, -27.64242481768787], [-51.3685088643196, -27.642125191777247], [-51.37004737029982, -27.64578820242592], [-51.3700439376247, -27.646194242904357], [-51.370390332930725, -27.646441211040287], [-51.371229424655375, -27.648014653174997], [-51.37155015981335, -27.64950305088571], [-51.37074120176589, -27.649991504148886], [-51.369985197156325, -27.651004089272682], [-51.370165100269816, -27.651216359984172], [-51.37044675638877, -27.651238403403525], [-51.37117101492814, -27.650932536191824], [-51.371964530389484, -27.65092281097716], [-51.372566843021104, -27.652402850357515], [-51.372150071241165, -27.652799078969405], [-51.371659840870144, -27.654183273531668], [-51.372138356129966, -27.654379543518893], [-51.37315187231586, -27.653814549736705], [-51.37415428679319, -27.655004771065926], [-51.375667370350826, -27.65829831273699], [-51.375886965593466, -27.660128892264257], [-51.37577740941637, -27.660531895669514], [-51.37597464007517, -27.660812494776728], [-51.37536639591813, -27.662217758198395], [-51.37044481072394, -27.658856099730027], [-51.369816884864086, -27.65941820300181], [-51.36896152157138, -27.659528972039404], [-51.36759899070762, -27.65834207604601], [-51.36600489525444, -27.658566455767147], [-51.366371073966135, -27.65920963026583], [-51.37168764013146, -27.664078601506503], [-51.370994214394365, -27.664854685904025], [-51.37317235046404, -27.66686566849451], [-51.37177749842538, -27.668407837206548], [-51.3714974299654, -27.668422219062663], [-51.37131874415607, -27.66866569626654], [-51.37134305263064, -27.668943067119024], [-51.37042472466015, -27.669918364823296], [-51.368333516099106, -27.671514426131804], [-51.35965718049738, -27.663040520196816], [-51.35826102674919, -27.663090134531046], [-51.36716388678942, -27.67214595541474], [-51.366930379757065, -27.67260312053884], [-51.364824822520994, -27.674314916414694], [-51.36430335690584, -27.67446887771941], [-51.3642499706172, -27.674815814948804], [-51.36351923271639, -27.675296311494993], [-51.36344975918045, -27.675490700381644], [-51.36254138684947, -27.67599778805122], [-51.360171143447815, -27.67350097041185], [-51.35630598869518, -27.674877119611015], [-51.358163279891855, -27.67725519877581], [-51.35788595205246, -27.677516599617007], [-51.35686711971042, -27.677896591917055], [-51.35265085142897, -27.672213498358605], [-51.35187539398161, -27.672367866848372], [-51.355163873387355, -27.678353226898174], [-51.35367426679726, -27.678512316924], [-51.35324659320634, -27.678770037021177], [-51.35074556221, -27.678734775516013], [-51.34926389200822, -27.67830155539449], [-51.34769275505416, -27.677499542433058], [-51.34847128495864, -27.672938588028863], [-51.34777468725201, -27.67267743089112], [-51.346671836983994, -27.673318493892868], [-51.34082034708065, -27.672392311188336], [-51.34345494666776, -27.668583519548047], [-51.34235113566698, -27.66741925227002], [-51.340106423915515, -27.67064133703252], [-51.33916851053769, -27.670221627965443], [-51.33894895391965, -27.669766365981864], [-51.338938724227305, -27.66914667333478], [-51.338440910979735, -27.668398496481483], [-51.33831124293531, -27.66783438055309], [-51.33712223519743, -27.66741862646893], [-51.33699657474295, -27.667096999097435], [-51.33669183705468, -27.666917507369376], [-51.33662317510538, -27.667223844898437], [-51.334360929533794, -27.666724287710952], [-51.333768274727326, -27.66874614826199], [-51.330429806944345, -27.667931924059882], [-51.33030404983391, -27.667518227715167], [-51.32979540202648, -27.66766355822653], [-51.32892864413274, -27.665794287724], [-51.32849704162327, -27.665863964856552], [-51.3283281830244, -27.66612525051896], [-51.328330069215575, -27.66675640149793], [-51.32566757064508, -27.667133543914026], [-51.32555237463427, -27.669976559457965], [-51.324608497409216, -27.670321918945902], [-51.320386524397925, -27.67112558318697], [-51.31899079392151, -27.669189252397846], [-51.31828550244269, -27.66930727838013], [-51.316400952748225, -27.668737336802497], [-51.31518294886548, -27.667219462672357], [-51.31441498412862, -27.66798656079288], [-51.315238196221486, -27.668554805975248], [-51.316053915303314, -27.669691107463326], [-51.317388583602714, -27.67112247571207], [-51.317496479198624, -27.671428004930167], [-51.31453141356271, -27.673530711187112], [-51.31313240275881, -27.675099194156708], [-51.31261056175458, -27.67599287705923], [-51.31154593521498, -27.67584423608763], [-51.31118058200984, -27.676069064560615], [-51.31110664470189, -27.676588492601486], [-51.311636151094525, -27.677431988615222], [-51.31152207559318, -27.678098609768263], [-51.311665236907935, -27.679839639454887], [-51.311374719447514, -27.6807327958245], [-51.31066720477314, -27.681434656285795], [-51.30995774389539, -27.681449975502865], [-51.309141281252224, -27.68180880225301], [-51.30682722772495, -27.681649175848598], [-51.30622465869202, -27.68127977634587], [-51.30573097987314, -27.681239674434988], [-51.305485671552894, -27.681433823249673], [-51.30569044800111, -27.682067581366134], [-51.307617579521064, -27.682506981740282], [-51.30719110065773, -27.68382809281607], [-51.3072974189869, -27.684473784419755], [-51.30655329359733, -27.685436550398855], [-51.306322204245326, -27.686310535813742], [-51.30578754859321, -27.68730632760057], [-51.30482393910447, -27.687610998102297], [-51.30467319402191, -27.68810467995843], [-51.3049753322099, -27.68920413403431], [-51.308070945575125, -27.68961174762212], [-51.3081573611064, -27.686005840863988], [-51.30754158840886, -27.684405788983465], [-51.30806311724544, -27.683947087938318], [-51.30860375207871, -27.682968357686672], [-51.3090281533339, -27.682967411644], [-51.3098029140585, -27.684578255351457], [-51.311506721433744, -27.683100105345826], [-51.31161628985767, -27.683425183324324], [-51.311527472143624, -27.684538958076764], [-51.311865855292815, -27.687092868577203], [-51.311673776523975, -27.691212514540652], [-51.311470746132606, -27.691477508654884], [-51.31159901121689, -27.691794665752067], [-51.311220648274976, -27.693110640823406], [-51.31020658800752, -27.69483618232708], [-51.30947869025792, -27.695669211330888], [-51.30906477455197, -27.695788975242312], [-51.30831747837423, -27.695275812805868], [-51.30770453747657, -27.69636416566059], [-51.30707143096578, -27.696918086509168], [-51.30575661493278, -27.697614022511615], [-51.30331251985379, -27.698219305917224], [-51.30216832924476, -27.698669832652467], [-51.30029006747414, -27.696102194941844], [-51.29889912010053, -27.697801860960954], [-51.29771216260845, -27.699919210376958], [-51.29680092220376, -27.702216481116483], [-51.295618325490935, -27.70462799342967], [-51.29831599604891, -27.703965049725298], [-51.29909596703391, -27.704298971425768], [-51.299219543587625, -27.70451931043775], [-51.30086815933387, -27.704278718026465], [-51.30115563576324, -27.70441067441523], [-51.30219465534473, -27.706328156656397], [-51.304238420513855, -27.708517675825714], [-51.30590145175577, -27.709602161025124], [-51.307107657407535, -27.71082918828773], [-51.30858409915126, -27.71308396977885], [-51.30896545309937, -27.71398334219671], [-51.30913930789519, -27.71570806804182], [-51.30876021965382, -27.716997588708306], [-51.307055941220526, -27.718983049123636], [-51.3040125879833, -27.720877071538577], [-51.303379673194414, -27.720626035272414], [-51.30294715434315, -27.71938187635704], [-51.30190322612252, -27.71969884920212], [-51.30212791467, -27.721719103155255], [-51.299868336497944, -27.722549297763923], [-51.298609352784254, -27.722646384243642], [-51.29610657929286, -27.72356002549663], [-51.2956373303269, -27.7215911556744], [-51.29604632561321, -27.720882542495776], [-51.295726678113994, -27.720317034939928], [-51.29482417201525, -27.719882520229532], [-51.29417850000943, -27.71999483143315], [-51.29408037646964, -27.71921267771787], [-51.29327824329781, -27.718177395640794], [-51.29318988475002, -27.71823164279353], [-51.293720423778545, -27.719013395860827], [-51.2940425551158, -27.72005746758461], [-51.29381825764669, -27.72042725923657], [-51.29473440069395, -27.72100329869969], [-51.29431233163885, -27.721782710370427], [-51.29435573923915, -27.723139117711217], [-51.29385270553321, -27.723387894743727], [-51.293854350103395, -27.724001264638627], [-51.293178672662314, -27.724132450263404], [-51.29083156717664, -27.723795327880705], [-51.28573687756873, -27.722024796055965], [-51.28147962167391, -27.721113458139442], [-51.280173023428866, -27.72107636061828], [-51.281182319751935, -27.716832828047878], [-51.27925817361375, -27.71672276048904], [-51.278881668859285, -27.721259232624746], [-51.27671028784503, -27.722102114977673], [-51.274499518460665, -27.723238900707084], [-51.273928390192374, -27.722780001047685], [-51.273052635021884, -27.722416065817423], [-51.27278041808649, -27.72265002659594], [-51.27251067632696, -27.722282169484107], [-51.27097368790586, -27.721625147424728], [-51.26906978422472, -27.721124864976716], [-51.2686566420291, -27.720603626310023], [-51.265531324981076, -27.72439492048686], [-51.264771634529836, -27.724251647197107], [-51.263790016783695, -27.72771900668479], [-51.263961444545764, -27.727776659568036], [-51.26521173989, -27.72733187613625], [-51.26796637682647, -27.727194636780958], [-51.26843831139322, -27.72697481735088], [-51.270785952036555, -27.726904942577953], [-51.27181744547911, -27.72711281207467], [-51.27202832906603, -27.727825696983764], [-51.271498567283, -27.732116020417823], [-51.27152566654618, -27.734327926969993], [-51.2717445539888, -27.73542386246809], [-51.2703196842891, -27.736176795424942], [-51.2696055136122, -27.73585120338761], [-51.26908712909341, -27.736025322807983], [-51.26876400547883, -27.7364875773723], [-51.268593142426084, -27.73733422364026], [-51.26893987071303, -27.737679770606015], [-51.26937136812954, -27.737332711579818], [-51.26965087887243, -27.736716664566963], [-51.27065278202552, -27.737254832299435], [-51.27079567818294, -27.737666178919458], [-51.27087362296126, -27.744985236022025], [-51.273484574606044, -27.745268496298934], [-51.27368021991161, -27.745680998916495], [-51.27347899907644, -27.74611478261057], [-51.27337652197541, -27.748365410317543], [-51.27232084988269, -27.749848541984868], [-51.27009315898139, -27.751090559676847], [-51.26873573194682, -27.75139430563598], [-51.26475781161503, -27.751478914940318], [-51.26350425949812, -27.751654418795123], [-51.261948847451194, -27.75217670232833], [-51.26158116323979, -27.752119694901477], [-51.25866378740679, -27.75270221314882], [-51.2582320594874, -27.75299153649491], [-51.257561914233044, -27.75303125529115], [-51.2541486915802, -27.754249337486584], [-51.25223769870406, -27.753680274128698], [-51.25159064318138, -27.753265440588276], [-51.25213809970319, -27.753844780089246], [-51.252051346765626, -27.754195471539198], [-51.252788271767564, -27.754982737048245], [-51.24981489479543, -27.756400431746332], [-51.24435200944734, -27.75336877690877], [-51.24139641903209, -27.754671634015], [-51.24626131772079, -27.75822690290323], [-51.24466027872457, -27.76037130726527], [-51.24449564368607, -27.760248292755403], [-51.24262454134877, -27.762755363367397], [-51.24217082828977, -27.7625868052815], [-51.24207748362342, -27.762143394012046], [-51.241904236162284, -27.76203335871666], [-51.23936979874302, -27.766109732288715], [-51.23846990689658, -27.76576481409725], [-51.23705488870186, -27.768024017072687], [-51.2365127995128, -27.76786187709598], [-51.23587545260108, -27.768131862571288], [-51.23332063608797, -27.766762212163748], [-51.231678868654484, -27.76918407003772], [-51.233923684372215, -27.770280795172145], [-51.23454642200064, -27.76900559348336], [-51.24349377290635, -27.77203834616987], [-51.242194796562586, -27.774344805123988], [-51.24087111910547, -27.77629272663321], [-51.24063852581092, -27.777004725258543], [-51.238534111903526, -27.778396848851923], [-51.23757851046923, -27.778658833674896], [-51.23527567414249, -27.7785586372557], [-51.2343190229151, -27.778334634191747], [-51.23322496500713, -27.77772902731579], [-51.23136754704577, -27.77601390947174], [-51.227707882975544, -27.770882619660732], [-51.22647043403562, -27.769785981352666], [-51.22897994131179, -27.7625025626813], [-51.224527752841624, -27.760058074857664], [-51.22209716229894, -27.761897088756182], [-51.22196544801838, -27.76466952948457], [-51.2182071629366, -27.76480389549298], [-51.21752172428202, -27.763939716427355], [-51.21705223890029, -27.764980834619013], [-51.21602975098797, -27.76465459978678], [-51.21589743832111, -27.765054083191696], [-51.215341547978035, -27.765291527451247], [-51.21518263425175, -27.765779722156694], [-51.21492762533638, -27.766021355276962], [-51.2147870784733, -27.766888681459587], [-51.21397273162517, -27.76756839557648], [-51.21639523884962, -27.770315695740074], [-51.21360292094719, -27.772786436562395], [-51.21292478108009, -27.773011029481964], [-51.20681545287416, -27.766751827454005], [-51.20544956535472, -27.76931827465435], [-51.20653170887929, -27.77067386016774], [-51.208135572151456, -27.77170887801385], [-51.20937823967576, -27.773064494875452], [-51.21185293922738, -27.775001933963306], [-51.21200865952406, -27.774876577792476], [-51.21255035810696, -27.77529450871471], [-51.219200750626165, -27.77014988318785], [-51.222313567545214, -27.76994197005964], [-51.226006228739536, -27.770950947264744], [-51.23098066484267, -27.77763620811087], [-51.23323136041057, -27.77896371888692], [-51.23556597691408, -27.77962937718381], [-51.24023138499719, -27.778767235592305], [-51.24281394473702, -27.776405920664345], [-51.24592673384337, -27.770214635038144], [-51.24525330135151, -27.761607803964083], [-51.246323829909265, -27.760053350597445], [-51.256840597806125, -27.754665837324445], [-51.26016204868596, -27.75356700953793], [-51.26389273439057, -27.753034462644763], [-51.26632688597227, -27.753069816121958], [-51.269650443650406, -27.752510479150843], [-51.274094588105214, -27.749626542127203], [-51.27445312855638, -27.740156523453624], [-51.273064549030465, -27.736143453723024], [-51.2727860486601, -27.73070177104657], [-51.27350701525697, -27.727047276294204], [-51.27528848175307, -27.724596318627324], [-51.280648165330774, -27.722673685145864], [-51.293923430311985, -27.725351562753662], [-51.30261718373038, -27.722957800349494], [-51.30881610195984, -27.719865955196386], [-51.310231350901006, -27.716621539219013], [-51.31006730475663, -27.71385015307048], [-51.30306342508999, -27.705318580059238], [-51.30195332714848, -27.702692156353255], [-51.302258500868554, -27.701721311557577], [-51.30664542874472, -27.699775793393723], [-51.31211954066708, -27.694948257893525], [-51.312893918873485, -27.69246106418149], [-51.313035006795566, -27.680150994729324], [-51.31442355057526, -27.676454535712054], [-51.31900502226718, -27.67293354163889], [-51.328816492266405, -27.670843044605295], [-51.33487047101642, -27.672113320800275], [-51.342507571693204, -27.675529365511675], [-51.348450937059226, -27.679763671705476], [-51.35167438529494, -27.680482732691292], [-51.35809075372686, -27.679715952443814], [-51.36670057321109, -27.675201211657694], [-51.37467713028417, -27.666885114774914], [-51.37728637505138, -27.66062898094483], [-51.376454747246285, -27.65691917860642], [-51.37128573949646, -27.645734468089113], [-51.369813229686685, -27.64034428836595], [-51.37017561298666, -27.636920584877213], [-51.371815932237354, -27.633967993377887], [-51.38034180977274, -27.625571785564972], [-51.38600667209419, -27.623784573195667], [-51.391423589690504, -27.624719157267783], [-51.39800782197781, -27.627391337425543], [-51.403123388429016, -27.630996219536907], [-51.407174649060714, -27.63529156803904], [-51.40989839072205, -27.64093732871192], [-51.41136708708269, -27.646602167531864], [-51.414895734097264, -27.651772993850617], [-51.41942382904894, -27.654630194939077], [-51.42701132977018, -27.656234252587456], [-51.431039681465336, -27.656083556752723], [-51.435590639960175, -27.653582997706824], [-51.43747891084917, -27.649417327573328], [-51.43756661815475, -27.64262905099865], [-51.435510438876214, -27.63375222861647], [-51.436647208703306, -27.6296437818816], [-51.44328860543294, -27.620114612175325], [-51.45731529975047, -27.607321931054237], [-51.46175944705212, -27.605078865328828], [-51.47150606381949, -27.602423791483783], [-51.47703740053389, -27.598462194961563], [-51.477895707694636, -27.597045027085084], [-51.47820467051636, -27.590527594083483], [-51.47689618317469, -27.582781830415723], [-51.476922849441365, -27.574805271892995], [-51.47803672749462, -27.569951049443965], [-51.48050865504299, -27.566498727910933], [-51.48631464852743, -27.561751300144167], [-51.494619293288785, -27.558026205480893], [-51.503400786798316, -27.55599484027297], [-51.510255851892005, -27.555918520952826], [-51.5262052516529, -27.561077857632064], [-51.53201127165675, -27.56208682711093], [-51.537927913180766, -27.561888440499715], [-51.54514918183373, -27.55959195866245], [-51.547594422227796, -27.55959957911452], [-51.55231706402061, -27.561567952095093], [-51.55509419868508, -27.564385105157655], [-51.55617763132012, -27.575209340466568], [-51.55787139492295, -27.580525132460426], [-51.55975969574709, -27.58283683971104], [-51.56265126500435, -27.584086146577825], [-51.5703150511313, -27.58375996074623], [-51.57528943488537, -27.579228067162212], [-51.5804545627302, -27.57636510844495], [-51.585314499397434, -27.570696431743535], [-51.58720275592712, -27.56342749516054], [-51.57951217238053, -27.543322094972886], [-51.57781455956121, -27.530519934814095], [-51.57873007152345, -27.525610399826313], [-51.58031317456958, -27.523685872882513], [-51.58517694766876, -27.522713104033667], [-51.59483966992208, -27.52649916817869], [-51.602816295866994, -27.533157715029628], [-51.607756407294055, -27.54167212934989], [-51.6152599963906, -27.546022778422532], [-51.622843677061496, -27.546541551132208], [-51.62903878224414, -27.543884582976712], [-51.63187309943503, -27.53839901979449], [-51.631506853335104, -27.53141238002228], [-51.62906539739403, -27.524837736519984], [-51.62326314551037, -27.513702619670664], [-51.619677245831575, -27.501590928931993], [-51.61984126490066, -27.498506735385487], [-51.62192408920015, -27.494836976839245], [-51.63225815943129, -27.489080541753022], [-51.63889960642727, -27.49048242330261], [-51.644423353950515, -27.495287030157414], [-51.646620662683894, -27.50086412794516], [-51.64609046338905, -27.511234418680246], [-51.64667794988151, -27.515236047178696], [-51.64917661369999, -27.518989712522178], [-51.65414721105694, -27.5206052239143], [-51.66251289896446, -27.5185605087361], [-51.66806712800869, -27.515495368986343], [-51.67525785433819, -27.50792505089141], [-51.67706601009125, -27.502492897418094], [-51.67656626918116, -27.499975190742106], [-51.67417823124244, -27.495952587947563], [-51.67345340980082, -27.49091526622482], [-51.674536777503754, -27.487684202993172], [-51.67737110504712, -27.484439781857862], [-51.680396173568624, -27.482194814009894], [-51.687373299167916, -27.47982966831472], [-51.69140164913192, -27.479349000104214], [-51.700068713511754, -27.480138613271336], [-51.70567637833389, -27.483499352096263], [-51.70809111433429, -27.486434762475383], [-51.714374029289694, -27.49919685123076], [-51.71581604112752, -27.508916726616903], [-51.7183719231998, -27.51209818523868], [-51.721900553043554, -27.513606890022736], [-51.72587168310112, -27.513347475172456], [-51.73053708346896, -27.51090604374883], [-51.745372490130364, -27.49612017397161], [-51.749065124316125, -27.491365124609445], [-51.752956135876445, -27.489112524170437], [-51.76226025182513, -27.488204589077238], [-51.773982918664395, -27.490272118763798], [-51.778732265560635, -27.492717330318506], [-51.78295517324918, -27.493684343748036], [-51.798984649195624, -27.4918379653193], [-51.80195633284742, -27.49422405538746], [-51.80348605860258, -27.498569004235655], [-51.80217763638693, -27.504903334671518], [-51.79923650243654, -27.50941614717588], [-51.78987519160385, -27.515943150055033], [-51.78545395236054, -27.52238811851575], [-51.7849542398092, -27.52600637259682], [-51.78617877930565, -27.528600370755633], [-51.794563560846356, -27.530917776118276], [-51.797123241567625, -27.530624034049662], [-51.80517611248698, -27.52660520766783], [-51.80976139815623, -27.523007919473237], [-51.813949209874664, -27.518283105025994], [-51.812760493146556, -27.517852068905057], [-51.80947089499903, -27.51408156046399], [-51.810420969326664, -27.511749706506084], [-51.8083796959583, -27.50918655728864], [-51.80970191731886, -27.50621721757171], [-51.808937339667565, -27.505336010149094], [-51.80961815643761, -27.504518348640758], [-51.810061975706105, -27.50429538777884], [-51.81099363177754, -27.50419796353177], [-51.81156104717491, -27.503967397639688], [-51.812044813613326, -27.503549554554766], [-51.810826249903386, -27.502283567972743], [-51.81079031389775, -27.50247250383834], [-51.810005929028954, -27.50268946439186], [-51.811002116775605, -27.49658715896463], [-51.81065355407318, -27.496767488086572], [-51.81027482522246, -27.494855430964886], [-51.80963750976347, -27.495092904886032], [-51.8076304879929, -27.49127951240649], [-51.80578901777286, -27.489030247156272], [-51.80477010450579, -27.490013007255996], [-51.80306443903947, -27.488832018611074], [-51.80566020833181, -27.484633037785876], [-51.80784017276454, -27.48184236683822], [-51.806371232448306, -27.48154353490426], [-51.805963471393305, -27.48121806418232], [-51.80453932419053, -27.483225100812422], [-51.80352705019196, -27.48525008133318], [-51.802018542743234, -27.482720841030545], [-51.80246886488841, -27.48103739552055], [-51.80003456803432, -27.48023933115485], [-51.798082720821974, -27.480338464888803], [-51.797875105345014, -27.47887856606592], [-51.79797418138389, -27.47810615115044], [-51.79382267096285, -27.47805556273303], [-51.793853511914065, -27.478216974210948], [-51.79193540191193, -27.47916880203371], [-51.79138728703028, -27.484501414953375], [-51.78934541794034, -27.48458207985708], [-51.78932892592607, -27.484897730571454], [-51.788395604365384, -27.484804993351833], [-51.78833995399299, -27.483995992552234], [-51.78786130617748, -27.48385158713456], [-51.78775051078597, -27.48305681207964], [-51.78575856937802, -27.483649859950145], [-51.785790889713944, -27.48171913332026], [-51.787316655222405, -27.48120045867483], [-51.787113624832976, -27.47944448209652], [-51.78923567890902, -27.479098125990703], [-51.7893478791772, -27.478623007188084], [-51.78711293799564, -27.477049516508334], [-51.785914880888484, -27.47801922800578], [-51.785451775492284, -27.477608072934373], [-51.7842192909116, -27.478296942176186], [-51.78371825221169, -27.477902783371956], [-51.78276109854663, -27.47861198040407], [-51.78318645201474, -27.478856517094346], [-51.78177552754315, -27.479514421369096], [-51.78009983416227, -27.478631132287312], [-51.777974420445744, -27.48356571637078], [-51.77697119483416, -27.48303907771188], [-51.77616626883075, -27.485343733438313], [-51.77335523504236, -27.48434023074823], [-51.77327454106766, -27.48419587892125], [-51.773960335282915, -27.482919481296765], [-51.77223942796278, -27.482091372724728], [-51.77231852374156, -27.481923428663347], [-51.76982937527235, -27.480768119427903], [-51.76927142364279, -27.48137773383122], [-51.769438117157215, -27.481878210048194], [-51.76891922180057, -27.48223690708832], [-51.76860959748802, -27.482699580295005], [-51.76794392644433, -27.484122534784454], [-51.76648188358311, -27.483815196454195], [-51.76536983314262, -27.4826438026343], [-51.76464976780671, -27.48347257252964], [-51.76418794061261, -27.48352721904048], [-51.75885795213352, -27.479628889992927], [-51.760170641730056, -27.47923377070954], [-51.761578541834375, -27.47837342781302], [-51.76266956104698, -27.477564459420854], [-51.76294882414195, -27.476983887201197], [-51.76504400757865, -27.478378638928003], [-51.76581223574203, -27.477263341369543], [-51.76848891883612, -27.478932285723275], [-51.77523713623183, -27.471439722099877], [-51.773480981221596, -27.470158115576158], [-51.7737536377969, -27.46993420797012], [-51.77348034872998, -27.469611626819002], [-51.772888411461615, -27.46972576788102], [-51.76655851688085, -27.465106260854974], [-51.76684020263275, -27.46306052448928], [-51.76655888967812, -27.46289516314077], [-51.76682313746751, -27.46229997223801], [-51.76093836500738, -27.458450280967938], [-51.76050425193044, -27.45896463281], [-51.76150507142186, -27.45954605956034], [-51.761118380309824, -27.460797174137323], [-51.761554837309596, -27.462179567638668], [-51.76565901926, -27.464433057514082], [-51.76526358426449, -27.464861675281373], [-51.76495711739635, -27.465655060737753], [-51.76105012493491, -27.46407723641805], [-51.760501070057394, -27.466247598067888], [-51.76013028590787, -27.466224951099964], [-51.759960458529825, -27.464844273236654], [-51.759635488900194, -27.464391015007948], [-51.75905550831208, -27.464288723978378], [-51.75887369747323, -27.46340361128969], [-51.75879451647171, -27.4638215871882], [-51.758527606457896, -27.463816039427183], [-51.75831102188151, -27.464306143217296], [-51.758466471278055, -27.4648361674267], [-51.75885109000277, -27.465132007987002], [-51.75896852269684, -27.46589925935072], [-51.7564954887375, -27.46515965974303], [-51.75610211495608, -27.468212376549044], [-51.75538062977583, -27.4707535633225], [-51.75535920349406, -27.473219401225506], [-51.755139484157645, -27.473104646132864], [-51.75517640205703, -27.4726781920234], [-51.754801813239034, -27.472253965626685], [-51.75450961495693, -27.472231869181496], [-51.754335193064506, -27.471960485128196], [-51.75378933358997, -27.471726631875047], [-51.752493478356456, -27.47063895646259], [-51.75276511618418, -27.4694706499892], [-51.751645032809925, -27.468730753050718], [-51.751286714741255, -27.46874452814088], [-51.75063323994848, -27.468298114083645], [-51.750545268010214, -27.467771571997083], [-51.754858456963504, -27.46811373984892], [-51.75533289150699, -27.464809440163567], [-51.754490708692245, -27.46541643139184], [-51.75418492473002, -27.464341620882948], [-51.750147820392854, -27.466769114807033], [-51.7500198031207, -27.46592149031492], [-51.749727462045755, -27.465875703260235], [-51.74947638399604, -27.466042821286035], [-51.74938132480936, -27.46768915390176], [-51.74962762540151, -27.468777149550768], [-51.7502677699055, -27.46997469914203], [-51.75002107519268, -27.470565796514], [-51.75027650805279, -27.471444241793176], [-51.75102144137431, -27.472820264690775], [-51.75153580612198, -27.47420826966282], [-51.75152106674093, -27.474810394582832], [-51.751109120557544, -27.476115761870318], [-51.75171286996117, -27.476418996219433], [-51.75084653593398, -27.47626557644124], [-51.74978630682935, -27.47653177975831], [-51.74835245461421, -27.476515813299464], [-51.74723863910709, -27.476711242249618], [-51.747053826539236, -27.476866159870813], [-51.747056621853275, -27.477280561151098], [-51.74767334853994, -27.47817712325507], [-51.748006265911656, -27.478329259791643], [-51.74796908012736, -27.478720192896198], [-51.74846186245134, -27.478954353784065], [-51.74862031919888, -27.47924592792222], [-51.7482482019974, -27.4792559738001], [-51.74862138976691, -27.480478709155236], [-51.74928793942129, -27.4805017696732], [-51.74909789256339, -27.480738836166925], [-51.74914156306332, -27.481306941884377], [-51.749408611762604, -27.48175211347482], [-51.74368440511576, -27.481506575431002], [-51.74357871198243, -27.48333844926598], [-51.73792724776065, -27.48329501203223], [-51.73631938120487, -27.483054747105726], [-51.73426091604345, -27.483037813627416], [-51.73237044377328, -27.482731695546015], [-51.731394743169865, -27.48291231633501], [-51.73151322836258, -27.481605378157848], [-51.72899179363572, -27.48147994167473], [-51.72890314303578, -27.482788275980145], [-51.72790233438292, -27.482725797199212], [-51.727443368878085, -27.482322268889867], [-51.7273098492681, -27.48195427406983], [-51.72568442412044, -27.4808547020815], [-51.7242642470461, -27.4805218845749], [-51.72369473477682, -27.480175400376226], [-51.723345098610956, -27.480364979032093], [-51.72335374057467, -27.48079261476531], [-51.7240377580028, -27.4814386521389], [-51.724672340043, -27.48168817952309], [-51.72448773964183, -27.4823796581707], [-51.72603091394622, -27.485202636085948], [-51.72210402912502, -27.48787429927249], [-51.72274972082127, -27.49040755566983], [-51.72808688167873, -27.48668748278166], [-51.728346510884805, -27.487219113458284], [-51.72835308688377, -27.48821858081534], [-51.72496151905887, -27.490576958810138], [-51.72638558110588, -27.49154106611905], [-51.72883547266061, -27.489966015872387], [-51.72911133572356, -27.490342467460252], [-51.73030617533547, -27.490997837548033], [-51.73084133373135, -27.49104118884958], [-51.731794233631376, -27.491636267296343], [-51.732765431975366, -27.492991848473928], [-51.726622883268895, -27.497503490328853], [-51.727060401978406, -27.498041434298518], [-51.7283475863167, -27.498909054458824], [-51.72442279143383, -27.50148322966667], [-51.71918396018621, -27.50551720317192], [-51.71843041573497, -27.504859954140475], [-51.718351928305225, -27.503509614454906], [-51.71846818476561, -27.50328687178293], [-51.717739121515955, -27.499927493530997], [-51.71836687873331, -27.49844066332527], [-51.71847576031873, -27.49775474276554], [-51.71805111381005, -27.497085780982676], [-51.717757890279884, -27.497087293729948], [-51.71720324660784, -27.497473669766038], [-51.71668408521793, -27.4973020190522], [-51.71618911383752, -27.4963370590127], [-51.71614646469418, -27.495788151711455], [-51.715708147394785, -27.495274979678264], [-51.71513511340848, -27.49286578996075], [-51.71435557542421, -27.49221814759943], [-51.71420384600429, -27.491729886494813], [-51.71434161175066, -27.48933034624897], [-51.71461610529921, -27.489023137633254], [-51.715209923190734, -27.488751783931306], [-51.71551326062266, -27.488352944589714], [-51.71506420731534, -27.48746544368571], [-51.714665967770166, -27.487074719715622], [-51.715415460158546, -27.48651458120675], [-51.714106873863784, -27.484835017948168], [-51.71405197896264, -27.483909325022637], [-51.709576248457125, -27.48330519136521], [-51.70943291617992, -27.483064010070553], [-51.71073670880548, -27.480995726345228], [-51.71306732510318, -27.474322567818557], [-51.70872785816371, -27.473556154956494], [-51.70881474635772, -27.472850407252945], [-51.709131185810534, -27.472446617044497], [-51.70890324438842, -27.47223868890731], [-51.71041684109913, -27.470711490126646], [-51.70664801160845, -27.46987117478814], [-51.705971618432656, -27.471692614630307], [-51.70244619374292, -27.471040476716862], [-51.70244731600124, -27.470286255131544], [-51.70282795401548, -27.47003856083202], [-51.70245338064095, -27.468438946952123], [-51.702945783617395, -27.467596068559548], [-51.70556504205322, -27.465759331449625], [-51.70553415345172, -27.46525829098617], [-51.70637316424726, -27.46468299801042], [-51.701787284238264, -27.46309879051222], [-51.702015493551805, -27.46280567133732], [-51.701572465935755, -27.46261288668701], [-51.700859784968216, -27.463553990157845], [-51.697248464849, -27.46173923819766], [-51.698134208231956, -27.461815189303184], [-51.69876479348671, -27.460737548862333], [-51.69984605608196, -27.459913152132405], [-51.69884299479572, -27.4593736645691], [-51.697887689291925, -27.45982062614579], [-51.69574231026671, -27.461443914524143], [-51.69523352452787, -27.46148256655001], [-51.69496367533847, -27.461748663491615], [-51.695369531259225, -27.462250932047024], [-51.69557443343584, -27.462816377191743], [-51.69631837672809, -27.46307994291786], [-51.692019688835316, -27.46463399723125], [-51.69387202916018, -27.46900508092689], [-51.69721710520932, -27.46783425382134], [-51.69751058784557, -27.467953559022252], [-51.697463817426396, -27.46853077367493], [-51.69775882396291, -27.468686653238105], [-51.69836351943429, -27.468661142302086], [-51.699152837405215, -27.46965536436127], [-51.69923958632887, -27.47035023365791], [-51.698675204625424, -27.472196052843472], [-51.694748991960246, -27.47338300157541], [-51.69509194533884, -27.47394104807524], [-51.695482538861114, -27.475394489119207], [-51.6916484369246, -27.475392057744198], [-51.688162207671716, -27.475697397197667], [-51.686539294224225, -27.47613750847805], [-51.68594718799307, -27.476140426945832], [-51.68519549939459, -27.47645140014613], [-51.68395810684205, -27.476563108365962], [-51.6836315227877, -27.475978977577732], [-51.68368167634948, -27.47538339471324], [-51.684559224642655, -27.474534087622157], [-51.68456672666808, -27.47400593007035], [-51.68271153311065, -27.47343890578213], [-51.68192619599647, -27.473529174740978], [-51.681115433058956, -27.472985816891438], [-51.68066862881772, -27.4721045979943], [-51.68078937765672, -27.471006881170293], [-51.680918771480165, -27.470879819381178], [-51.680770126570124, -27.470227751764856], [-51.68101917092327, -27.469800799525643], [-51.681017331110155, -27.469501504072845], [-51.680652818267966, -27.46902594718108], [-51.680687925584444, -27.468148504612536], [-51.680461018653496, -27.467940615059526], [-51.67978405479559, -27.467928442597476], [-51.67923133956263, -27.46600629985439], [-51.679996197603344, -27.463845512125776], [-51.68162689175424, -27.462787393528387], [-51.68160733086859, -27.46242883960765], [-51.68116089909906, -27.46179887114545], [-51.68123080605127, -27.460936738915052], [-51.68075480117584, -27.4606707244466], [-51.68056760277732, -27.46080323057738], [-51.68013930292333, -27.462183156091633], [-51.67879287362976, -27.462899282263898], [-51.67817427610514, -27.46343898046378], [-51.676892148033794, -27.46332136776927], [-51.676383612104175, -27.462464627930224], [-51.67591377416308, -27.462260491119732], [-51.67555610236992, -27.462424779904968], [-51.675547731455424, -27.46268886621828], [-51.6758748120274, -27.463131406461745], [-51.67583629348462, -27.463686992413884], [-51.67599945566833, -27.464214707997307], [-51.6772626505082, -27.46483900999443], [-51.67710192833925, -27.466619549067406], [-51.675946747110466, -27.46701691586465], [-51.67450523690294, -27.468160252048925], [-51.67483004096509, -27.46848038430426], [-51.67624155770556, -27.468141453747933], [-51.67680369357213, -27.468268442568963], [-51.676930091140484, -27.46943790244862], [-51.67768484616381, -27.4701450962661], [-51.67767813546249, -27.47047461732749], [-51.676925654607054, -27.471567924239533], [-51.67690468416911, -27.47194421444234], [-51.67732980587241, -27.472969527428496], [-51.677871702929465, -27.473682235249246], [-51.67746516938709, -27.473876100442748], [-51.67646268386133, -27.473977558365423], [-51.67831791678465, -27.476592129359616], [-51.67857877662768, -27.477323299215392], [-51.67857270912886, -27.478024637118896], [-51.67779966109728, -27.47848484622717], [-51.67800496655803, -27.478846121011127], [-51.67706148961703, -27.479171338257288], [-51.67619903089877, -27.479033970730654], [-51.67465647089083, -27.478171876718605], [-51.674306982116406, -27.478120990340898], [-51.67412216906777, -27.478303890242334], [-51.67408909166213, -27.478829842286352], [-51.67538008786968, -27.4815698359048], [-51.67388172487872, -27.482839682888553], [-51.67344429121532, -27.482951866250207], [-51.67242818011835, -27.48278067214548], [-51.67219163701835, -27.48294966588728], [-51.672186496039544, -27.484135655402593], [-51.67130394347187, -27.485130511561596], [-51.66977885834007, -27.484981013392787], [-51.6694531555404, -27.484693656840452], [-51.6693533024654, -27.48399796621425], [-51.66874709478954, -27.483753230709613], [-51.66782778802449, -27.483774153888938], [-51.66750589231546, -27.48360509482333], [-51.666977698115836, -27.484017624026066], [-51.66707554688503, -27.4843831266269], [-51.66793527915997, -27.484714705756357], [-51.66804988624425, -27.485300259241342], [-51.66854675760752, -27.48583169546526], [-51.66855816500073, -27.48679489419713], [-51.6697732258529, -27.48854426566403], [-51.66989905222735, -27.48897395023716], [-51.66980596822272, -27.490226574314526], [-51.67004284250956, -27.490937424269976], [-51.669960181734226, -27.49219154615346], [-51.669645921481255, -27.493066726622608], [-51.67000189598761, -27.495087412705978], [-51.66847503853936, -27.494234954830443], [-51.6680564841758, -27.494341635249977], [-51.66795394145388, -27.49471595418667], [-51.66842427614912, -27.49554732902326], [-51.66776373971941, -27.49669652796125], [-51.66795497290307, -27.496875657534694], [-51.66880475617198, -27.496897405732742], [-51.669668826412064, -27.497608241377584], [-51.67068640540328, -27.497820332452868], [-51.671261591877574, -27.498639278668985], [-51.67095315182587, -27.499309571038886], [-51.67103908914133, -27.499642496009596], [-51.671687900446074, -27.499700591635303], [-51.67215486382888, -27.499963647729622], [-51.67240245607409, -27.500533890787402], [-51.67278774678066, -27.500658092348196], [-51.674298121711395, -27.50238869738099], [-51.67422655952938, -27.504416293105102], [-51.6733271500869, -27.505808428478073], [-51.67211301982936, -27.506889148547625], [-51.67141019496398, -27.508242348142577], [-51.67086891962843, -27.50863275000818], [-51.669999503237676, -27.508701571987732], [-51.66966419918512, -27.508392952637738], [-51.66946350544859, -27.508393918562355], [-51.669348998444306, -27.507906331822767], [-51.66774339421299, -27.50729483194216], [-51.66751703215361, -27.506851973076312], [-51.666038633588435, -27.508133578986925], [-51.66593297925715, -27.508769054574806], [-51.66675852427724, -27.509269465245982], [-51.66705744281675, -27.51002561541711], [-51.667531275316016, -27.5103801695068], [-51.66505300626169, -27.51265036919911], [-51.665191982326455, -27.512947442484265], [-51.66257546489086, -27.5142838524589], [-51.66313117977935, -27.514806128404462], [-51.662139370544764, -27.51563554549695], [-51.66158909812949, -27.51582582479572], [-51.6591138421797, -27.51375829016192], [-51.65736037919005, -27.515124602512415], [-51.657029275254295, -27.514736652646434], [-51.65723324962102, -27.514194197084855], [-51.65201356053186, -27.51655362881041], [-51.65163612213238, -27.516536293423712], [-51.65055086077065, -27.515897550021307], [-51.65384665362641, -27.51435917493258], [-51.65335896776791, -27.513241951000587], [-51.650834348867924, -27.513884687910398], [-51.650253277117095, -27.51184649755844], [-51.648710817978426, -27.512196091757033], [-51.64861880218541, -27.511197828904248], [-51.649073996736966, -27.51075838974802], [-51.65040375216629, -27.510706606655777], [-51.65067018679345, -27.507933047250322], [-51.65183054275218, -27.505247446872332], [-51.65133418614924, -27.50478792901588], [-51.65151186223426, -27.504256624067988], [-51.65115086702406, -27.49997851777061], [-51.64969161725195, -27.500032298676906], [-51.64949205044672, -27.499313529846397], [-51.649906129684595, -27.498455109493012], [-51.65013725430238, -27.4984569186747], [-51.6541573771673, -27.491343584288277], [-51.653246648531855, -27.49118841155078], [-51.65361224835271, -27.490815182217364], [-51.65399669048055, -27.489344692058882], [-51.65385006228111, -27.487905120824866], [-51.653943235900236, -27.487548612747204], [-51.65551360434069, -27.487313726138122], [-51.65526112973567, -27.485960296110523], [-51.654616505650374, -27.48623148767329], [-51.652923060697645, -27.48575984689948], [-51.652687884839565, -27.483797073456905], [-51.65303961305022, -27.48347271755779], [-51.65325642106322, -27.482836712820166], [-51.653018882316246, -27.48258245272399], [-51.65235599335946, -27.48273908022507], [-51.65193163737862, -27.481453181201463], [-51.64822411841362, -27.481488399033342], [-51.648247774549965, -27.481028052534043], [-51.64960965940223, -27.47914723189182], [-51.64955900448697, -27.478524867859715], [-51.64973175381534, -27.478111922770914], [-51.64940732913844, -27.47726990152189], [-51.64899207842196, -27.4769105478621], [-51.647901738929775, -27.476603890696655], [-51.64766453899776, -27.476361784090994], [-51.64716798010768, -27.476489093556605], [-51.64520463634718, -27.476272398246692], [-51.64537146826357, -27.475420823117386], [-51.64504126590062, -27.473837678017198], [-51.64481231998058, -27.473338740052334], [-51.64425346318777, -27.47285745733708], [-51.64373241617635, -27.47265825439097], [-51.643354017010175, -27.47211161736327], [-51.644239337470175, -27.471077213728957], [-51.64497440091846, -27.470894446693112], [-51.645906832597184, -27.46978293844921], [-51.6459508383318, -27.469529168175356], [-51.645188894526726, -27.46932989693396], [-51.644853254178834, -27.469534949533394], [-51.64547224996332, -27.466809566804933], [-51.645484900207386, -27.46583757105292], [-51.6451349575962, -27.464970708742477], [-51.64522804236461, -27.464183471349966], [-51.64447125975908, -27.4636833101966], [-51.643701515615945, -27.463577970203907], [-51.64229723186504, -27.46405000333967], [-51.64188462203477, -27.463951171310267], [-51.64147466273253, -27.46413018758304], [-51.641217687227496, -27.464497675897984], [-51.6415397937761, -27.46493673006937], [-51.64184038595791, -27.465004447325867], [-51.64381417497255, -27.464710284456594], [-51.64399269538767, -27.465435048669125], [-51.64385867962305, -27.4657034451299], [-51.643790446853814, -27.467293146750553], [-51.64329511567939, -27.468712063851083], [-51.64290083290603, -27.46918897175697], [-51.641018014581576, -27.4701564671409], [-51.63964388218753, -27.470335544867158], [-51.6392880079254, -27.470742421938844], [-51.63808683126278, -27.470399977257582], [-51.63888647356295, -27.472547720078357], [-51.63666375385742, -27.472252838218846], [-51.63456757361248, -27.473999377591618], [-51.63512570090434, -27.474610655193974], [-51.63554293824324, -27.47547860350504], [-51.63779738311725, -27.475008224121847], [-51.63824761954351, -27.47634658579402], [-51.639526828639646, -27.47596702403653], [-51.640402436016885, -27.47598230132519], [-51.642014694946205, -27.479433428158387], [-51.64180939501686, -27.47952090208691], [-51.642256223198274, -27.480259938241637], [-51.641269970423544, -27.48087542188173], [-51.64076001816166, -27.480389744328328], [-51.6400818477291, -27.480868761182478], [-51.64092751783854, -27.48209465802444], [-51.64205831379471, -27.48228002703578], [-51.645471500583824, -27.486151911773884], [-51.644784774735434, -27.48712644939855], [-51.64475802968382, -27.487822388287114], [-51.6449992652299, -27.488700194834152], [-51.64597088624776, -27.489830965114074], [-51.64725809872584, -27.490502488709414], [-51.647043743489576, -27.490714061201757], [-51.64627415975324, -27.49078172404478], [-51.645295730921596, -27.49024609289252], [-51.64276932803967, -27.4883259794646], [-51.64208082512911, -27.488210136924163], [-51.64055554080235, -27.487191754001337], [-51.63916050599038, -27.486554873411606], [-51.63945532661608, -27.483601740363657], [-51.63546464206381, -27.485445352680106], [-51.635420352517215, -27.485027132377976], [-51.63573438093901, -27.484293260976855], [-51.635826835689954, -27.48251667552842], [-51.63623518829795, -27.48212112471811], [-51.63619239051485, -27.481819189175066], [-51.6355535783165, -27.481410111215627], [-51.63539807583523, -27.481145311449005], [-51.6353940318007, -27.48044035857101], [-51.63452977363269, -27.479389368316806], [-51.63470115286676, -27.479295462294342], [-51.63223007827506, -27.476754905965173], [-51.632071185680125, -27.47698797778561], [-51.63190946335133, -27.476777367088786], [-51.63156732541722, -27.476750323518047], [-51.63105647874601, -27.47712438015826], [-51.62915728903383, -27.475788992602478], [-51.6287529020948, -27.47420854263902], [-51.628480330514364, -27.474057775272463], [-51.6274347817663, -27.475384876519417], [-51.62701889451564, -27.47558364264344], [-51.62542479264521, -27.475397440713582], [-51.625309544323194, -27.475744529756565], [-51.62568167762642, -27.47641821702786], [-51.62526179011423, -27.477594962444687], [-51.62494703883823, -27.4779785159759], [-51.62405103692318, -27.478425252012602], [-51.62317697903239, -27.47845606966691], [-51.622720662236524, -27.478308432713092], [-51.62121229878115, -27.477497174829413], [-51.61978590315699, -27.477203362804193], [-51.61776663533204, -27.475975998738825], [-51.61735030598722, -27.47604437848494], [-51.61736635955936, -27.476636251247886], [-51.61813391999423, -27.47791062013416], [-51.616969637435396, -27.480116007727105], [-51.616524633505605, -27.481509231178197], [-51.61661241466736, -27.482403754571852], [-51.61633438786481, -27.48268249641531], [-51.61554355959808, -27.482724181711493], [-51.61469579249725, -27.482319155689606], [-51.61414078949408, -27.481370541639556], [-51.6134120394934, -27.48112359689296], [-51.61285578834573, -27.481318066389075], [-51.611744992092255, -27.48110078095001], [-51.611585872393505, -27.48130261674249], [-51.61190367673878, -27.481974683057082], [-51.611804304905164, -27.482290999107963], [-51.60978046099944, -27.483707922175157], [-51.60907401435948, -27.48517972575202], [-51.60891989824332, -27.486661118204655], [-51.60915688718316, -27.487179171522005], [-51.60993799944424, -27.488162032915554], [-51.61044307293604, -27.487990394615057], [-51.60992626365976, -27.486086155036876], [-51.61018463311339, -27.484845076244852], [-51.6105598121555, -27.484384722363234], [-51.61243401238415, -27.483236885306003], [-51.61315358427135, -27.482567157562755], [-51.61415699157598, -27.48380984675791], [-51.616449169494445, -27.484129411637593], [-51.6175417875843, -27.484067230378354], [-51.6182313494228, -27.483784644978265], [-51.6188069968758, -27.483251705412975], [-51.61847894253068, -27.482070556771788], [-51.618492332078354, -27.481590286632912], [-51.61903225795899, -27.480419615022978], [-51.61971854347173, -27.479556483709672], [-51.62047444726194, -27.47964629045784], [-51.621725778652014, -27.480665635251555], [-51.62347137758625, -27.48097318919325], [-51.62457151016605, -27.480824912024133], [-51.62679384786952, -27.48016986657642], [-51.62821250990057, -27.48234233410187], [-51.62821722690329, -27.483173720493735], [-51.6285030913858, -27.483982335595858], [-51.628145647195275, -27.48472218026437], [-51.62795356680193, -27.486257960551693], [-51.625616501752845, -27.486575249497196], [-51.62252454129271, -27.487780738942643], [-51.6189607599832, -27.491703574071018], [-51.61733237377256, -27.492046190365283], [-51.61794016667343, -27.493403922975205], [-51.61676583844621, -27.49399870955051], [-51.61764316440711, -27.49479426529425], [-51.617378005721626, -27.49604940191097], [-51.614945546048205, -27.495575363555503], [-51.61467812963004, -27.496194580097228], [-51.61548136717553, -27.496499716927683], [-51.61555319915532, -27.498991663196477], [-51.61413003990057, -27.4985276008504], [-51.61416747094109, -27.499055322204907], [-51.613538566227824, -27.503068371935868], [-51.61223854583656, -27.5030065499608], [-51.611293279855765, -27.502682190881433], [-51.609347287882954, -27.502512070511283], [-51.60878119391181, -27.50266783716431], [-51.60874855333786, -27.502899809189095], [-51.61188920373346, -27.50462511634592], [-51.61251244933322, -27.50519039346302], [-51.612292684323855, -27.505946973822397], [-51.61197587391906, -27.506218654524787], [-51.61044720199314, -27.506864978132707], [-51.6104568088758, -27.50708304389451], [-51.61097229338619, -27.507310443431937], [-51.61120914467475, -27.507940434478783], [-51.61146887995583, -27.508002215792903], [-51.61478753334689, -27.50585219520013], [-51.61756138835847, -27.50539150911945], [-51.617872974658724, -27.50551064290134], [-51.618099837436866, -27.50583219278], [-51.618853147234354, -27.508754967449732], [-51.61936020175443, -27.50971487434896], [-51.61933628313207, -27.510885773599924], [-51.620038388474846, -27.511507718215082], [-51.62015271389839, -27.51248328673519], [-51.616990817263, -27.512990395685925], [-51.61725009023153, -27.514251274761158], [-51.617642517903185, -27.515069906828735], [-51.619087770799254, -27.515039446665263], [-51.620889061805975, -27.514705752578234], [-51.62135280646403, -27.51534006521854], [-51.620768864710506, -27.51631573303615], [-51.62091012794969, -27.51652245888363], [-51.621654853104936, -27.516658169516035], [-51.62193947352581, -27.51698761954056], [-51.622260808769845, -27.519153336453943], [-51.62166725506261, -27.52061924667674], [-51.621016505652555, -27.521091098062918], [-51.62023751764253, -27.52243735739912], [-51.619286383036275, -27.523096033275767], [-51.61752262962032, -27.523796366721307], [-51.6173952611033, -27.52423555344964], [-51.620349565196335, -27.52570000874562], [-51.621953918817276, -27.523609778852077], [-51.62589496601965, -27.528144338145367], [-51.62674626691287, -27.53069043888468], [-51.62684770199705, -27.53301146983947], [-51.625531709689454, -27.533113832330034], [-51.62549152667135, -27.534148776989724], [-51.629374209476374, -27.534385849238305], [-51.62946273912851, -27.535433984177487], [-51.62931056588217, -27.53596029638552], [-51.62943558259605, -27.53611465199101], [-51.62944799777016, -27.537204573300272], [-51.629279568397024, -27.538145927369897], [-51.628951962946886, -27.538385322956444], [-51.628960029579694, -27.538711726706538], [-51.627298955894055, -27.541319685271016], [-51.62613104442631, -27.54224340922296], [-51.62486872675924, -27.542940700038876], [-51.62210009011023, -27.544004365779045], [-51.61971003784598, -27.54395971294541], [-51.61819388891663, -27.54367875404835], [-51.61781134753468, -27.543387723470627], [-51.61776455784292, -27.54313626654302], [-51.61825405070186, -27.541651535664226], [-51.618132951417365, -27.540441448551963], [-51.61850148823554, -27.539849582429177], [-51.61830807955361, -27.539268573632068], [-51.61866602103428, -27.536607966300508], [-51.6181586376522, -27.536536343202382], [-51.61785294971845, -27.536764074577658], [-51.616116642259314, -27.54096208306096], [-51.61487478746595, -27.540421434579194], [-51.61426503494714, -27.54035491119969], [-51.61377505502021, -27.540909437247695], [-51.61332145712748, -27.54180191892261], [-51.61253911548583, -27.541812396552377], [-51.610784338593014, -27.54086968676857], [-51.61027893274234, -27.540450235340636], [-51.61015674846684, -27.53984240422498], [-51.61200992541397, -27.538223592694802], [-51.6131769281225, -27.537482237430112], [-51.61350990475818, -27.536638875699033], [-51.61142789822467, -27.53490391512278], [-51.60957594126741, -27.53613495268042], [-51.60745186851654, -27.53711755886185], [-51.606296481177225, -27.533692981619037], [-51.60415569359514, -27.530750864138554], [-51.60444772564405, -27.529935137378647], [-51.60343902951707, -27.529765874104942], [-51.603189019821244, -27.529422191231852], [-51.603461869444686, -27.528633447363386], [-51.60209070747919, -27.528767625085386], [-51.60131586217555, -27.52795262907272], [-51.60120050510811, -27.527624081675924], [-51.60058761270754, -27.52717112650862], [-51.600215294742185, -27.526577919793144], [-51.59928945570157, -27.525801316188332], [-51.59915524321418, -27.525348071826695], [-51.599445302541646, -27.524722146605068], [-51.599318439916615, -27.52451980816787], [-51.59904235570915, -27.524408877212494], [-51.59821713335531, -27.52463667055979], [-51.597711254021284, -27.52411561398328], [-51.597562765192855, -27.523235300146467], [-51.597298833824034, -27.523156348905363], [-51.59702431118474, -27.52333371739534], [-51.59634788671782, -27.523390010009056], [-51.595135025112654, -27.522807905362562], [-51.59491811582703, -27.522563233771308], [-51.59338094448555, -27.521806308899023], [-51.59334982675356, -27.52158753757295], [-51.592833268472965, -27.521301429122104], [-51.59257023215968, -27.52138797690187], [-51.592329490471776, -27.521164758463822], [-51.59184408082501, -27.521102757602293], [-51.59160345551265, -27.52090089588576], [-51.591636157472536, -27.52029743648702], [-51.59137220860031, -27.520213133152723], [-51.59000256517281, -27.520539296287524], [-51.58947949108074, -27.52015176003784], [-51.58900098480271, -27.520260569073578], [-51.58749036410474, -27.519978646802], [-51.58692597790986, -27.519703395106397], [-51.586057630291016, -27.519701717895327], [-51.585829248528576, -27.519547846789365], [-51.58523687661943, -27.51964110469984], [-51.58493460240149, -27.51910312565504], [-51.58460495937623, -27.519051121176197], [-51.58379341443421, -27.519599118722986], [-51.582912892749476, -27.519560099374882], [-51.58259840033813, -27.518974114815233], [-51.58169179411676, -27.51852942358315], [-51.5808119124431, -27.517470617420162], [-51.58007836948508, -27.51703202921773], [-51.58008536187686, -27.517208559441734], [-51.57972805801667, -27.517480477255884], [-51.5795933788099, -27.518063003081494], [-51.580531045767465, -27.519863713320373], [-51.57976903463172, -27.520726487395955], [-51.57926698005762, -27.520915449185424], [-51.57891570043333, -27.521306667404218], [-51.578276716660525, -27.52165102891189], [-51.575866185388435, -27.524506778902463], [-51.57488925178124, -27.52436132565721], [-51.57469894701368, -27.524618388450662], [-51.574706907591185, -27.52499743315642], [-51.57499262575325, -27.525813136607695], [-51.574382744012, -27.526002526784037], [-51.57286109579574, -27.525912697858953], [-51.571432183121864, -27.526383079716616], [-51.57064204897707, -27.526461072465107], [-51.56973600534259, -27.52612842331852], [-51.569473323821626, -27.52628967343914], [-51.569290448293316, -27.526829672279888], [-51.568592447342176, -27.527355761270254], [-51.568077099096726, -27.52752981917845], [-51.56750904243674, -27.527472309678753], [-51.566182634505665, -27.52808637414865], [-51.56416766812206, -27.527565990683488], [-51.563680907818686, -27.527242279120973], [-51.56318525157433, -27.52634731589524], [-51.56328831516388, -27.525417892126043], [-51.562841639073866, -27.524730953862463], [-51.56278832095972, -27.523668683570097], [-51.562325239100176, -27.523286142425537], [-51.561564817848875, -27.523315909922466], [-51.562132358481676, -27.525839385156274], [-51.56199912603842, -27.527749695527586], [-51.56282390806075, -27.52876256209766], [-51.563487253364066, -27.52918047788613], [-51.56412019136753, -27.52929611066431], [-51.56433319755326, -27.52965342505074], [-51.564320873655895, -27.530035205119717], [-51.56299646820572, -27.531244433951862], [-51.563112031043325, -27.531660411848282], [-51.5635577795769, -27.53172031531991], [-51.564813738940835, -27.531307394628936], [-51.56559380997124, -27.530826642574723], [-51.56615789581247, -27.530171371957625], [-51.56778918573632, -27.52970045495275], [-51.568288626538695, -27.529711133694217], [-51.56901062682996, -27.529994372100795], [-51.57088946886569, -27.529008402601505], [-51.5731093497309, -27.528999270833467], [-51.574270219194545, -27.52929110105863], [-51.57486538836842, -27.52977064964169], [-51.57514926062549, -27.530371985544573], [-51.575350137722225, -27.53200720072501], [-51.5752674014589, -27.53309206032988], [-51.575041902945, -27.53371867665306], [-51.57573065799429, -27.53419319902796], [-51.576222917556514, -27.536865374491132], [-51.576479996320934, -27.537309238601143], [-51.576492740975176, -27.537758749497232], [-51.57609530275706, -27.538316560019247], [-51.576627317262286, -27.5386387823121], [-51.576650898606026, -27.540168130283668], [-51.57650466678801, -27.540308471953807], [-51.57582104056928, -27.54026184658465], [-51.575671659789485, -27.540690925870297], [-51.57611170149739, -27.54132922621999], [-51.57611546499622, -27.542232849613356], [-51.57668182841262, -27.543704546271396], [-51.57599541666372, -27.545410319270488], [-51.57612483654141, -27.545748810052622], [-51.574791558680275, -27.545766567929093], [-51.57373048621284, -27.54516526733531], [-51.57429948477267, -27.547413862910762], [-51.57448209066233, -27.547921469284617], [-51.57871686165453, -27.547904842418067], [-51.578904086242325, -27.548291967013405], [-51.578664705632185, -27.54924528229033], [-51.5793378366304, -27.54972370161999], [-51.580487394377506, -27.55325970317483], [-51.58034149297793, -27.55361489918028], [-51.57881525467125, -27.55519663923796], [-51.57893120680413, -27.55548944530838], [-51.58014670268399, -27.555301302390085], [-51.58141205286278, -27.555555367256083], [-51.58289524664503, -27.55745377758574], [-51.58368935387002, -27.55944421951296], [-51.5835940119044, -27.559758004214956], [-51.58441085229933, -27.560597468210435], [-51.584633450259155, -27.56135175554658], [-51.58449230248506, -27.562239692930117], [-51.58473704151424, -27.562660111152578], [-51.585061926816586, -27.56447421212107], [-51.584863713185904, -27.56553896774745], [-51.579024772238135, -27.5648463874738], [-51.57754256875308, -27.56704536669436], [-51.57655653136766, -27.56942715773571], [-51.581302260043756, -27.570532420746485], [-51.580041347786846, -27.571636541837922], [-51.578768885270726, -27.573306067919845], [-51.577491826019774, -27.57410478935361], [-51.57587133595062, -27.575678979758273], [-51.57522136958012, -27.575971942628644], [-51.57476493095916, -27.575896427861466], [-51.574159602726674, -27.57642141777884], [-51.574206560713854, -27.577098523091948], [-51.57213274340996, -27.579216381434286], [-51.57074287466946, -27.57922210018486], [-51.5702642081221, -27.57904990440648], [-51.56970037641604, -27.57920702897284], [-51.56963662532455, -27.57947821027154], [-51.570183845762266, -27.580308073714903], [-51.5700340280848, -27.58073441989319], [-51.568690269770606, -27.58126241611714], [-51.56678075735621, -27.581579843549815], [-51.56345882166577, -27.5817481731072], [-51.56241501326372, -27.581481484414986], [-51.56156548169375, -27.58098178550732], [-51.56047362860458, -27.579805762116862], [-51.55924786811011, -27.577914265535195], [-51.558746396075634, -27.576160555884023], [-51.56382437060402, -27.574567232632553], [-51.56381377050115, -27.573337864210842], [-51.56170271048907, -27.57339729679786], [-51.561531183023895, -27.571330236838556], [-51.56280012031172, -27.569384767724035], [-51.56294985450711, -27.56828350213405], [-51.56578574782548, -27.566694836881343], [-51.5680131988851, -27.56779786828965], [-51.56852355296869, -27.566039815232877], [-51.56846720184237, -27.56570089390253], [-51.568790407205874, -27.565310571331672], [-51.56879111382856, -27.56465985019256], [-51.56927052993291, -27.56424403746904], [-51.56772994018573, -27.56255094934623], [-51.5627959988814, -27.562925465388307], [-51.56429203430618, -27.561194363937332], [-51.563848443020845, -27.559234677746453], [-51.563231927062965, -27.55821513120607], [-51.56266691339805, -27.557513671837658], [-51.56229432126664, -27.557298198392637], [-51.56206412925824, -27.556726502856016], [-51.56370606329841, -27.554639150823842], [-51.55942870223729, -27.55475368448878], [-51.56142201567146, -27.556378111724953], [-51.561949156942745, -27.556994089910305], [-51.561507772468964, -27.559513462180465], [-51.5582693283881, -27.557099663972043], [-51.556668667250015, -27.558463886285704], [-51.5559295153654, -27.558074296195873], [-51.555823907958384, -27.55748611715483], [-51.554526494309414, -27.557294066017707], [-51.556046102568565, -27.554879079754986], [-51.555015443969445, -27.55448229355807], [-51.55455037755784, -27.555096788157755], [-51.552650026531616, -27.554636056456165], [-51.5533003522434, -27.553617045100545], [-51.55277637892805, -27.552826127143884], [-51.55229016744547, -27.552404971788885], [-51.55258671271067, -27.550920353767804], [-51.55239223116847, -27.550751892016997], [-51.55194422801355, -27.550728974151365], [-51.551688923600466, -27.55076062225943], [-51.551523451918996, -27.551016901261274], [-51.55105238232513, -27.550289102437542], [-51.55110291319477, -27.549674119454533], [-51.54979673805706, -27.54982098886172], [-51.54920676015193, -27.55033035206865], [-51.548688764517, -27.551750769413708], [-51.5481768940512, -27.5523626248754], [-51.54775386440688, -27.55238823871278], [-51.5463910587857, -27.553596025358946], [-51.54605690338068, -27.553728991637303], [-51.54520903856757, -27.553530453478462], [-51.543873430099595, -27.55227182632599], [-51.54024005039939, -27.550319992185695], [-51.53988242573656, -27.54968067480321], [-51.539861421640865, -27.547398783306296], [-51.53950179253647, -27.546346960670004], [-51.539418390333964, -27.545399388168395], [-51.53967746937932, -27.544781916005306], [-51.53900397717995, -27.544571835784193], [-51.53823894989225, -27.54382413111877], [-51.53719428911588, -27.543635082325995], [-51.53698623537255, -27.543372581730925], [-51.5344148225206, -27.544967970275923], [-51.534130619037654, -27.54367843856118], [-51.53310724212128, -27.54144783118613], [-51.533263552436956, -27.541192704567127], [-51.53407853837167, -27.5407244042309], [-51.53481207039076, -27.53970347126518], [-51.53494613023951, -27.538921817123796], [-51.53472688548135, -27.538378496830116], [-51.533985851555514, -27.537845958032783], [-51.533071496525466, -27.53812154952956], [-51.53183543077885, -27.539065404893773], [-51.53191589237046, -27.539376439900657], [-51.53234894523446, -27.539462585395427], [-51.53366595921653, -27.538802124813007], [-51.53385327198802, -27.53886738437818], [-51.53355745799491, -27.539713633990047], [-51.53236777493994, -27.540437674497564], [-51.531658386407685, -27.54130585168026], [-51.53269595219021, -27.545420640740296], [-51.53229099043916, -27.54635021639657], [-51.53304350200594, -27.54713980256339], [-51.53437933109279, -27.547593473308794], [-51.53501033667678, -27.547445063980927], [-51.53583843870452, -27.54679857624787], [-51.536487273133524, -27.547635066235692], [-51.53580950963471, -27.548188566642096], [-51.53661053661972, -27.55116251432983], [-51.53473159213987, -27.551900204168646], [-51.539002359577395, -27.555770083990453], [-51.537227937866966, -27.557315946412636], [-51.53540933673963, -27.55804328076692], [-51.53132611035043, -27.55766847485781], [-51.530432882146435, -27.557763665304222], [-51.52892217372956, -27.55752330305205], [-51.52488060950167, -27.55595526273327], [-51.523273149648254, -27.555147234125972], [-51.523491378640244, -27.558099698272063], [-51.52319121246189, -27.5580720757069], [-51.521256691157426, -27.556947519508075], [-51.51776515513059, -27.555265925144838], [-51.517621757528566, -27.55428306836595], [-51.517908447615916, -27.55326768571372], [-51.51772678138951, -27.553002414718513], [-51.51745597958592, -27.5529663141792], [-51.516584425006855, -27.55356330112244], [-51.51597932369459, -27.554753040629066], [-51.515619232846795, -27.554915182544853], [-51.50883549177703, -27.554061938645503], [-51.50736420159641, -27.554030208931863], [-51.50680781207306, -27.553760105282077], [-51.50635030580327, -27.553866915686058], [-51.50394887762585, -27.553776687150112], [-51.50358019509427, -27.553580108015165], [-51.50329808728975, -27.552585367782537], [-51.50356214171746, -27.55114333947523], [-51.503380118444845, -27.55079146243641], [-51.503407228059984, -27.54912763596343], [-51.503205350271834, -27.54898611507583], [-51.50233076451784, -27.548927430178363], [-51.50217886639691, -27.549094971451435], [-51.502327538767815, -27.5497438435085], [-51.501900499506945, -27.550444275457973], [-51.50194034028988, -27.55157596127965], [-51.501463873821855, -27.552091024331066], [-51.501237378466605, -27.554169954332668], [-51.50069071921584, -27.55451209255146], [-51.49597620171028, -27.55546291202375], [-51.491700298130624, -27.556752189460457], [-51.488013878864066, -27.55797741737784], [-51.48381747900369, -27.560033097138913], [-51.483241136660155, -27.559954699497776], [-51.482378781833916, -27.559537124872342], [-51.48115469685399, -27.5573271878717], [-51.47873356162665, -27.555457282264978], [-51.47740088079602, -27.555086136964015], [-51.47508656561021, -27.555184522344252], [-51.47477957584651, -27.55550563781298], [-51.47517185277788, -27.555456999075364], [-51.474793131477085, -27.555582358542797], [-51.47503027891022, -27.55585999572399], [-51.47677467848544, -27.555994510662106], [-51.478018900740956, -27.556434908875126], [-51.47868144024899, -27.55737375633745], [-51.47940806016103, -27.558061808499637], [-51.48000045636448, -27.559355547702754], [-51.48011410707891, -27.56028431742469], [-51.48122806899979, -27.561620150081385], [-51.478590340250946, -27.561037196157486], [-51.47942711109583, -27.562077970846726], [-51.4795577314307, -27.562458911874927], [-51.4793618599372, -27.562997585590495], [-51.477917417181146, -27.564100283337257], [-51.47986841212697, -27.564216946969676], [-51.47821602278173, -27.56579842956217], [-51.47672082609644, -27.56764069835004], [-51.47572431544045, -27.567613496108116], [-51.47546960060652, -27.567766620008936], [-51.473896002078895, -27.567486191227545], [-51.47383114666135, -27.567601878346935], [-51.47415605403686, -27.567919739533927], [-51.47439438883226, -27.568656531841324], [-51.47363785261727, -27.569770455381995], [-51.473378645904226, -27.57055124759167], [-51.47348992857271, -27.571399437817103], [-51.472371730536096, -27.571898005101076], [-51.471542966595635, -27.571859799173893], [-51.47086634950853, -27.57241588578966], [-51.46953963128117, -27.572713857727404], [-51.47030611217277, -27.573730462685464], [-51.47020706005813, -27.575569755104876], [-51.47178761300339, -27.576082298693716], [-51.472254221636426, -27.57682358675005], [-51.47223898782919, -27.57737445303886], [-51.47192990059567, -27.577874991260636], [-51.47116994585484, -27.57856150528316], [-51.47093566966077, -27.579149202409447], [-51.47091036583892, -27.58027850004936], [-51.47125567781173, -27.580755816015856], [-51.472357160114434, -27.58146033788408], [-51.47254607801608, -27.58194808929711], [-51.47294129678633, -27.58440166587389], [-51.47320004076336, -27.58497030718939], [-51.473437177154985, -27.587619288047378], [-51.47444557082595, -27.589606182795194], [-51.47523950541714, -27.59284134021731], [-51.475448797912044, -27.595062435658626], [-51.47445571412979, -27.596189225555726], [-51.473249509452366, -27.595922171097346], [-51.47287591419059, -27.5960268658082], [-51.47230254402628, -27.595446126214483], [-51.47159577937613, -27.595127345832548], [-51.47136070991237, -27.59602210455083], [-51.47076075192512, -27.597291348794077], [-51.470412788085405, -27.597643589237396], [-51.46945034031782, -27.598395636606156], [-51.468209171766155, -27.598923055598373], [-51.466807183813934, -27.599878164811283], [-51.465909022247914, -27.600295253461162], [-51.462710226708076, -27.599419461194657], [-51.46160006536539, -27.599624091141454], [-51.45792196306736, -27.601212093660163], [-51.45711008004824, -27.602167007407076], [-51.45677573595358, -27.602114712200084], [-51.455510308412414, -27.59995230202014], [-51.454717273541924, -27.599241833584024], [-51.45435578277194, -27.597797798236773], [-51.45383521223864, -27.59680629223868], [-51.45319638056031, -27.596888545754222], [-51.45293488721994, -27.597349543620222], [-51.45258077040304, -27.5975317401861], [-51.451535456668786, -27.59733576191025], [-51.45115038466816, -27.596689246517755], [-51.45124625434671, -27.595370326233], [-51.45185017683404, -27.59452979199825], [-51.451786729292564, -27.594239060267316], [-51.451258096935206, -27.593924328203126], [-51.45125403227223, -27.59301233298919], [-51.45022141216561, -27.590812646692942], [-51.45031962299861, -27.590430580429654], [-51.4494140993863, -27.589548131600473], [-51.44840338632301, -27.58941110655808], [-51.44736886511154, -27.58892863639081], [-51.44690855107799, -27.58840178656653], [-51.44640448283116, -27.588681823438655], [-51.44608173453401, -27.58867691597275], [-51.44441255889175, -27.586990148074662], [-51.443333884441586, -27.586162917607812], [-51.4429071287999, -27.585531381942822], [-51.44237857438458, -27.585344077634037], [-51.44058649038744, -27.58373236755258], [-51.44055103197398, -27.58349953860618], [-51.439543402539776, -27.583155516732493], [-51.439310311631786, -27.582839804884806], [-51.43716482903048, -27.5816467057549], [-51.43707538201737, -27.581479972262052], [-51.4372591391432, -27.580552021239733], [-51.43695062776898, -27.579871747924184], [-51.436595249950265, -27.579811333699997], [-51.436103730101436, -27.580247995804324], [-51.43605055037285, -27.58052066107091], [-51.4353249734988, -27.58091101090008], [-51.43440401667181, -27.580608298141964], [-51.43307611797173, -27.57989012305006], [-51.43130599060978, -27.57770088830184], [-51.43104161973757, -27.576965872701034], [-51.43441609541774, -27.57642910822078], [-51.43308730668177, -27.572335271919062], [-51.43477912751887, -27.572012054399917], [-51.43376136505391, -27.570843663564563], [-51.43519317479092, -27.570103520833914], [-51.435465167504496, -27.57014955025442], [-51.43598022317917, -27.569577544169526], [-51.43695978568101, -27.568957194055177], [-51.437966725902776, -27.568610225364345], [-51.439827952366855, -27.567018190045285], [-51.440416733745934, -27.56515669389335], [-51.43978157579913, -27.56418200846269], [-51.43892077604073, -27.56378623732643], [-51.438359256912044, -27.563686433895374], [-51.43730830904325, -27.56397884758835], [-51.43630029652085, -27.56404452556618], [-51.434714792732734, -27.562182048720654], [-51.434651544844264, -27.561705619069613], [-51.434361454608045, -27.56151118623564], [-51.43390190055077, -27.560582805580317], [-51.43393604829236, -27.560348289602103]]]}}]}