{"type": "FeatureCollection", "features": [{"type": "Feature", "properties": {"cod_imovel": "SC-4213807-7FF4D0E5B9084011A7617A13B683DD7D", "municipio": "Praia Grande", "num_area": 4.2032, "mod_fiscal": 0.23, "des_condic": "Aguardando analise", "ind_status": "PE", "dat_atuali": "29/05/2026"}, "geometry": {"type": "Polygon", "coordinates": [[[-50.052832385, -29.235862411], [-50.051822613, -29.235961507], [-50.049315428, -29.237189302], [-50.049739755, -29.238013971], [-50.051744936, -29.23768965], [-50.052832385, -29.235862411]]]}}, {"type": "Feature", "properties": {"cod_imovel": "SC-4213807-52293E304ED44BB5BE4A71FE1B16542C", "municipio": "Praia Grande", "num_area": 12.7003, "mod_fiscal": 0.7056, "des_condic": "Aguardando analise", "ind_status": "PE", "dat_atuali": "12/05/2023"}, "geometry": {"type": "Polygon", "coordinates": [[[-50.0332382355556, -29.2071521911111], [-50.0285663852778, -29.2093818769445], [-50.0318882891667, -29.2111605458334], [-50.0346380625, -29.2088210402778], [-50.0332382355556, -29.2071521911111]]]}}, {"type": "Feature", "properties": {"cod_imovel": "SC-4213807-0F3753D355204099BA99314E69C50CF3", "municipio": "Praia Grande", "num_area": 94.1042, "mod_fiscal": 5.228, "des_condic": "Aguardando analise", "ind_status": "PE", "dat_atuali": "07/09/2017"}, "geometry": {"type": "Polygon", "coordinates": [[[-50.06880347258476, -29.23130109088881], [-50.06748276352968, -29.23442833005204], [-50.06935788451042, -29.23489579475805], [-50.07185364940775, -29.23599860415909], [-50.07734991247268, -29.2309863000644], [-50.07403468026388, -29.2301693751678], [-50.07794818962579, -29.22440758568228], [-50.0778706103246, -29.22083551266126], [-50.0746316305664, -29.22379593710147], [-50.06434004111053, -29.22933236597071], [-50.06880347258476, -29.23130109088881]]]}}, {"type": "Feature", "properties": {"cod_imovel": "SC-4213807-DD0CAF0470694024A7ECF04A097E7443", "municipio": "Praia Grande", "num_area": 8.0643, "mod_fiscal": 0.448, "des_condic": "Aguardando analise", "ind_status": "AT", "dat_atuali": "06/04/2026"}, "geometry": {"type": "Polygon", "coordinates": [[[-50.00657314663798, -29.20746179583951], [-50.00639691940536, -29.2009084100073], [-50.00535571090774, -29.20104395811311], [-50.0053656025239, -29.20793627346203], [-50.00657314663798, -29.20746179583951]]]}}, {"type": "Feature", "properties": {"cod_imovel": "SC-4213807-444A806B06A94728AB72D8C949783A01", "municipio": "Praia Grande", "num_area": 3.1099, "mod_fiscal": 0.1728, "des_condic": "Aguardando analise", "ind_status": "AT", "dat_atuali": "12/05/2023"}, "geometry": {"type": "Polygon", "coordinates": [[[-50.0303992233333, -29.2120402338889], [-50.0295473127778, -29.2115933152778], [-50.0261416261111, -29.2098065741667], [-50.0263552736111, -29.2106550419444], [-50.0298804058334, -29.2125150825], [-50.0303992233333, -29.2120402338889]]]}}, {"type": "Feature", "properties": {"cod_imovel": "SC-4213807-F3314EE9EC544DDE8D1A09A9D6E8305F", "municipio": "Praia Grande", "num_area": 4.7086, "mod_fiscal": 0.2616, "des_condic": "Aguardando analise", "ind_status": "AT", "dat_atuali": "12/05/2023"}, "geometry": {"type": "Polygon", "coordinates": [[[-50.0298804058334, -29.2125150825], [-50.0282140236111, -29.2116358336111], [-50.0263552736111, -29.2106550419444], [-50.0268534116666, -29.2131490780555], [-50.0274707130556, -29.2133083822222], [-50.0285374261111, -29.2128922269444], [-50.0294550144445, -29.2128746988889], [-50.0298804058334, -29.2125150825]]]}}, {"type": "Feature", "properties": {"cod_imovel": "SC-4213807-343264EF74F4452C8833417DD9FC16DA", "municipio": "Praia Grande", "num_area": 9.0239, "mod_fiscal": 0.5013, "des_condic": "Analisado, aguardando atendimento a notificacao", "ind_status": "AT", "dat_atuali": "10/03/2017"}, "geometry": {"type": "Polygon", "coordinates": [[[-50.01853566290488, -29.18714084146653], [-50.02067543731906, -29.19469274723682], [-50.01947463175694, -29.18405160792315], [-50.01898618453785, -29.18407318410525], [-50.01835797914441, -29.18424970762323], [-50.01811906835437, -29.18479049699069], [-50.01874692414462, -29.18563089269965], [-50.0188656128536, -29.18616673926447], [-50.01853566290488, -29.18714084146653]]]}}, {"type": "Feature", "properties": {"cod_imovel": "SC-4213807-67266D80CE8B416182AFDFB3A6F0B6E8", "municipio": "Praia Grande", "num_area": 10.07, "mod_fiscal": 0.5594, "des_condic": "Analisado, aguardando atendimento a notificacao", "ind_status": "AT", "dat_atuali": "04/03/2016"}, "geometry": {"type": "Polygon", "coordinates": [[[-50.01007690722152, -29.19742638328592], [-50.00982999801635, -29.193473809137956], [-50.00748581894254, -29.19325369725537], [-50.00788641157429, -29.19755859038947], [-50.01007690722152, -29.19742638328592]]]}}, {"type": "Feature", "properties": {"cod_imovel": "SC-4213807-D2843EE258094D0FB03B78ED02929C83", "municipio": "Praia Grande", "num_area": 69.8694, "mod_fiscal": 3.8816, "des_condic": "Em analise", "ind_status": "AT", "dat_atuali": "09/10/2019"}, "geometry": {"type": "Polygon", "coordinates": [[[-50.107784271240234, -29.252668773696456], [-50.108814239501946, -29.25334273629128], [-50.109264850616455, -29.25397925244258], [-50.10980129241943, -29.25409157841109], [-50.10984420776367, -29.255626687618587], [-50.110015869140625, -29.25622574837679], [-50.110509395599365, -29.25545820114818], [-50.1112174987793, -29.255177389747434], [-50.1115608215332, -29.253642273797045], [-50.11192560195923, -29.25306191908306], [-50.11190414428711, -29.25233179073394], [-50.11246204376221, -29.251695264331634], [-50.1126766204834, -29.250010322384764], [-50.112247467041016, -29.248512572913423], [-50.11117458343506, -29.24693991237147], [-50.1106595993042, -29.246602910539078], [-50.11070251464844, -29.245779123609523], [-50.11031627655029, -29.245517008195677], [-50.10937213897705, -29.244318757753565], [-50.101990699768066, -29.24338261483294], [-50.10417938232422, -29.247351801992636], [-50.10568141937255, -29.24974821781004], [-50.106754302978516, -29.250983847783395], [-50.107784271240234, -29.252668773696456]]]}}, {"type": "Feature", "properties": {"cod_imovel": "SC-4213807-6B64BEE6417A430FA118D55E0DCDFA16", "municipio": "Praia Grande", "num_area": 4.1858, "mod_fiscal": 0.2325, "des_condic": "Em analise", "ind_status": "AT", "dat_atuali": "11/08/2020"}, "geometry": {"type": "Polygon", "coordinates": [[[-50.0374877602, -29.2097276693], [-50.03833513339999, -29.2087769979], [-50.036474084, -29.206995316], [-50.035266439, -29.2081666204], [-50.0374877602, -29.2097276693]]]}}, {"type": "Feature", "properties": {"cod_imovel": "SC-4213807-CB21FB7FE059467489AD4E74CF9C9597", "municipio": "Praia Grande", "num_area": 70.1073, "mod_fiscal": 3.8949, "des_condic": "Aguardando analise", "ind_status": "AT", "dat_atuali": "19/01/2026"}, "geometry": {"type": "Polygon", "coordinates": [[[-50.011439533, -29.1852026157], [-50.00497729165223, -29.18531557351143], [-50.0051506216, -29.1888217522], [-50.0061792911, -29.1892647972], [-50.0059039446, -29.1920942024], [-50.0096518699, -29.1917390884], [-50.01036442351243, -29.19658870271383], [-50.0133867355, -29.196244631], [-50.014718099, -29.1955988638], [-50.011439533, -29.1852026157]]]}}, {"type": "Feature", "properties": {"cod_imovel": "SC-4213807-990B81BA306C4B26B69A2141A58EE33B", "municipio": "Praia Grande", "num_area": 99.3037, "mod_fiscal": 5.4113, "des_condic": "Aguardando analise", "ind_status": "AT", "dat_atuali": "12/12/2025"}, "geometry": {"type": "Polygon", "coordinates": [[[-50.126317457222, -29.244752057778], [-50.126482953889, -29.245127373056], [-50.1263240875, -29.245594836389], [-50.125547908611, -29.246118894167], [-50.124382245833, -29.246601706944], [-50.123362954722, -29.247968861111], [-50.123895075278, -29.248328198889], [-50.142190991944, -29.252192154722], [-50.1446509375, -29.252390375556], [-50.146175721944, -29.252967376389], [-50.152049575833, -29.256575072778], [-50.152273815, -29.254950063611], [-50.152029363611, -29.253913514444], [-50.151569815556, -29.253393090278], [-50.146093828056, -29.252031104444], [-50.144814851389, -29.251220841944], [-50.142637334444, -29.248577813056], [-50.140803670278, -29.247339134722], [-50.138573380278, -29.246924945556], [-50.135503053611, -29.246716884722], [-50.132041380556, -29.246227058333], [-50.130689869722, -29.245789839722], [-50.129516441111, -29.245173878889], [-50.128504333889, -29.245147990556], [-50.126317457222, -29.244752057778]]]}}, {"type": "Feature", "properties": {"cod_imovel": "SC-4213807-A2D863FBEFA74F56B9FA44DDFD6D3068", "municipio": "Praia Grande", "num_area": 0.2884, "mod_fiscal": 0.016, "des_condic": "Aguardando analise", "ind_status": "AT", "dat_atuali": "25/11/2025"}, "geometry": {"type": "Polygon", "coordinates": [[[-50.032199621200554, -29.213037587332334], [-50.03181338310242, -29.213749267601518], [-50.03192603588104, -29.21388973022846], [-50.03252685070038, -29.21321550786305], [-50.032199621200554, -29.213037587332334]]]}}, {"type": "Feature", "properties": {"cod_imovel": "SC-4213807-4E27B64178FF470D99E29C4C6009174D", "municipio": "Praia Grande", "num_area": 12.9383, "mod_fiscal": 0.7188, "des_condic": "Aguardando analise", "ind_status": "AT", "dat_atuali": "05/11/2025"}, "geometry": {"type": "Polygon", "coordinates": [[[-50.08324069216681, -29.24858052370157], [-50.08377499631977, -29.25024512921495], [-50.0868101283743, -29.25100927345188], [-50.08820271998631, -29.25165673296497], [-50.08833226214912, -29.25193705532764], [-50.09106561805627, -29.25223503153828], [-50.09337303323006, -29.25195551015269], [-50.09138690593591, -29.25042831526992], [-50.08903274974766, -29.25077324921751], [-50.08891965639749, -29.25059500638876], [-50.08907082662091, -29.25012078803427], [-50.08705686629905, -29.2497973564778], [-50.08534937898558, -29.24984862830499], [-50.08427429944787, -29.2496026553875], [-50.08324069216681, -29.24858052370157]]]}}, {"type": "Feature", "properties": {"cod_imovel": "SC-4213807-E4E6AE5DECE646229204F6981C61F4D5", "municipio": "Praia Grande", "num_area": 11.3933, "mod_fiscal": 0.633, "des_condic": "Aguardando analise", "ind_status": "AT", "dat_atuali": "31/10/2025"}, "geometry": {"type": "Polygon", "coordinates": [[[-50.0322961807251, -29.217588510102495], [-50.02848744392395, -29.21556122070885], [-50.02741456031799, -29.21733568636305], [-50.02773106098175, -29.21756041860669], [-50.02724385142731, -29.21772666864942], [-50.03003545602148, -29.21917687469359], [-50.02980849563949, -29.21943222278863], [-50.0306761264801, -29.219826441182324], [-50.0322961807251, -29.217588510102495]]]}}, {"type": "Feature", "properties": {"cod_imovel": "SC-4213807-A545E8F6D158484DA99DBDD204B4AE5E", "municipio": "Praia Grande", "num_area": 7.067, "mod_fiscal": 0.3926, "des_condic": "Aguardando analise", "ind_status": "AT", "dat_atuali": "10/10/2025"}, "geometry": {"type": "Polygon", "coordinates": [[[-50.02773024559533, -29.21742087880015], [-50.0243353843689, -29.215593994759423], [-50.02270983359389, -29.21665869864978], [-50.02558476203836, -29.21837371476163], [-50.02739416990051, -29.21780819590135], [-50.02724154608728, -29.21773087913358], [-50.02773024559533, -29.21742087880015]]]}}, {"type": "Feature", "properties": {"cod_imovel": "SC-4213807-A4FB0F35BA8F4A4F9DCDE4AC15BFE696", "municipio": "Praia Grande", "num_area": 4.1549, "mod_fiscal": 0.2308, "des_condic": "Aguardando analise", "ind_status": "AT", "dat_atuali": "10/10/2025"}, "geometry": {"type": "Polygon", "coordinates": [[[-50.03670863043818, -29.21052211242752], [-50.03755254402304, -29.20960472568911], [-50.03549410502053, -29.20822877146275], [-50.0340401661902, -29.20935383283002], [-50.03670863043818, -29.21052211242752]]]}}, {"type": "Feature", "properties": {"cod_imovel": "SC-4213807-BABDD2BDA3B24CB8B35CDB2D9A21FDB8", "municipio": "Praia Grande", "num_area": 5.2552, "mod_fiscal": 0.292, "des_condic": "Aguardando analise", "ind_status": "AT", "dat_atuali": "10/10/2025"}, "geometry": {"type": "Polygon", "coordinates": [[[-50.03013460563962, -29.22042341459959], [-50.03070780132464, -29.21981626674046], [-50.02982842061027, -29.21943917904465], [-50.03005960893832, -29.21918868289611], [-50.02746533195685, -29.21783730790214], [-50.02561726073879, -29.21842896652602], [-50.03013460563962, -29.22042341459959]]]}}, {"type": "Feature", "properties": {"cod_imovel": "SC-4213807-06BCE7AEEC3D48A58B45ADC776170C9D", "municipio": "Praia Grande", "num_area": 13.1635, "mod_fiscal": 0.7313, "des_condic": "Aguardando analise", "ind_status": "AT", "dat_atuali": "12/04/2016"}, "geometry": {"type": "Polygon", "coordinates": [[[-50.03628730773926, -29.206267013382476], [-50.03772497177124, -29.205836228673803], [-50.039119720458984, -29.20508703356352], [-50.03811120986938, -29.19980505264675], [-50.03540754318237, -29.200704132448514], [-50.03555774688721, -29.20179051002209], [-50.03693103790283, -29.20162193494634], [-50.03742456436157, -29.204468943474982], [-50.03605127334595, -29.204824813981173], [-50.03628730773926, -29.206267013382476]]]}}, {"type": "Feature", "properties": {"cod_imovel": "SC-4213807-8D634E86CAF8419BA51D3A6CAD71CC06", "municipio": "Praia Grande", "num_area": 10.2391, "mod_fiscal": 0.5688, "des_condic": "Aguardando analise", "ind_status": "AT", "dat_atuali": "18/10/2023"}, "geometry": {"type": "Polygon", "coordinates": [[[-50.0166246821208, -29.20517426523009], [-50.01972630199555, -29.20983696263679], [-50.02127535263805, -29.20886525721654], [-50.02055796170599, -29.20825192258673], [-50.02009736595829, -29.20670855882128], [-50.01847720411489, -29.20491806534493], [-50.0166246821208, -29.20517426523009]]]}}, {"type": "Feature", "properties": {"cod_imovel": "SC-4213807-FDE3730BD1E845A9AADE8E89D0E8DD10", "municipio": "Praia Grande", "num_area": 14.5106, "mod_fiscal": 0.8061, "des_condic": "Aguardando analise", "ind_status": "AT", "dat_atuali": "27/08/2024"}, "geometry": {"type": "Polygon", "coordinates": [[[-50.03645262406289, -29.2068848615253], [-50.0350686903007, -29.20057459591211], [-50.03443941147915, -29.20069769725206], [-50.03332636136425, -29.20147740014423], [-50.03287999394161, -29.20156656647877], [-50.03261762779522, -29.20235794192824], [-50.03315416042784, -29.20384286677673], [-50.03513755311513, -29.20643753142033], [-50.03577414748582, -29.20764282323008], [-50.03645262406289, -29.2068848615253]]]}}, {"type": "Feature", "properties": {"cod_imovel": "SC-4213807-0640748D0DA3440B93402FE999F3EA77", "municipio": "Praia Grande", "num_area": 49.3918, "mod_fiscal": 2.744, "des_condic": "Aguardando analise", "ind_status": "AT", "dat_atuali": "27/08/2024"}, "geometry": {"type": "Polygon", "coordinates": [[[-50.02791147189512, -29.20767599187266], [-50.02883164269281, -29.20932577463551], [-50.03340599480819, -29.20736605785105], [-50.03463508216493, -29.2088683792499], [-50.03575134766896, -29.20762275498203], [-50.03514035511019, -29.20642960070352], [-50.03316231187105, -29.20384306488999], [-50.03262089297404, -29.20236373116505], [-50.03287652490222, -29.20156359219764], [-50.03127457055812, -29.20147002908695], [-50.03061612429089, -29.20193353136882], [-50.02974010214339, -29.20219945397936], [-50.02853841556104, -29.20218679672728], [-50.02682367536951, -29.20279788141154], [-50.02565077556538, -29.20272875997072], [-50.02791147189512, -29.20767599187266]]]}}, {"type": "Feature", "properties": {"cod_imovel": "SC-4213807-E4D8546E6B234E2E81887069DE47A9BE", "municipio": "Praia Grande", "num_area": 251.1624, "mod_fiscal": 13.5059, "des_condic": "Aguardando analise", "ind_status": "AT", "dat_atuali": "07/04/2022"}, "geometry": {"type": "Polygon", "coordinates": [[[-50.13556432645284, -29.24633106045263], [-50.13960092077568, -29.24644606708331], [-50.14142543572727, -29.24713843540705], [-50.14236059486444, -29.24822153171822], [-50.1430387967397, -29.24840614835917], [-50.14475003806245, -29.25026311404302], [-50.14688175443862, -29.25168776301726], [-50.14724890221858, -29.25211372358004], [-50.15068794876809, -29.25290348269165], [-50.14984441951952, -29.25178620839259], [-50.15007940204211, -29.24979407511464], [-50.15326660169747, -29.25060353875453], [-50.15750455443629, -29.25293566824982], [-50.15814870703269, -29.25073652449103], [-50.16120447171977, -29.24920181884186], [-50.16511557933715, -29.24909019521949], [-50.17473328714915, -29.24984469228155], [-50.174338744137, -29.24847461289153], [-50.17227226357877, -29.24792070259353], [-50.16131412865523, -29.24618325836667], [-50.15725661505336, -29.24393693883863], [-50.15233272356212, -29.24339347460172], [-50.14871644190961, -29.24054800238363], [-50.14166448055578, -29.23797608359001], [-50.14095849435967, -29.23634093556452], [-50.13556432645284, -29.24633106045263]]]}}, {"type": "Feature", "properties": {"cod_imovel": "SC-4213807-F28EEAE8C7B94EE1A08FF6767B1310CE", "municipio": "Praia Grande", "num_area": 9.2061, "mod_fiscal": 0.5114, "des_condic": "Aguardando analise", "ind_status": "AT", "dat_atuali": "31/05/2016"}, "geometry": {"type": "Polygon", "coordinates": [[[-50.06289816740085, -29.24209426793806], [-50.06334567763836, -29.24210615326642], [-50.0660196052426, -29.23982075644807], [-50.06351963677685, -29.23850292634043], [-50.06237983703613, -29.23975029922903], [-50.06147516839322, -29.24130816190024], [-50.06289816740085, -29.24209426793806]]]}}, {"type": "Feature", "properties": {"cod_imovel": "SC-4213807-17F932EFE0CE4BCB9A1DC0D7F00B3157", "municipio": "Praia Grande", "num_area": 4.9398, "mod_fiscal": 0.2744, "des_condic": "Aguardando analise", "ind_status": "AT", "dat_atuali": "14/08/2025"}, "geometry": {"type": "Polygon", "coordinates": [[[-50.02775611435418, -29.22458925083406], [-50.02810570563251, -29.22492929388643], [-50.02897044950458, -29.22518789672568], [-50.02976357361041, -29.22201970833345], [-50.02836323163224, -29.2217213577524], [-50.02818689479446, -29.2218964981128], [-50.02775611435418, -29.22458925083406]]]}}, {"type": "Feature", "properties": {"cod_imovel": "SC-4213807-04C2A6FB36E2452F94F48F9482637569", "municipio": "Praia Grande", "num_area": 5.4898, "mod_fiscal": 0.305, "des_condic": "Aguardando analise", "ind_status": "AT", "dat_atuali": "14/08/2025"}, "geometry": {"type": "Polygon", "coordinates": [[[-50.03880695255191, -29.22801196563449], [-50.0362067083934, -29.22732544761894], [-50.0358997786573, -29.22849964198197], [-50.03943607389319, -29.22966455908578], [-50.03985561613874, -29.22790783811501], [-50.03880695255191, -29.22801196563449]]]}}, {"type": "Feature", "properties": {"cod_imovel": "SC-4213807-D9EED47F0DB845E6BF7029FEC25CB681", "municipio": "Praia Grande", "num_area": 1.996, "mod_fiscal": 0.1109, "des_condic": "Aguardando analise", "ind_status": "AT", "dat_atuali": "12/08/2025"}, "geometry": {"type": "Polygon", "coordinates": [[[-50.03001948363264, -29.22603873103163], [-50.03161864073429, -29.22661499502259], [-50.03190125362044, -29.22552260084845], [-50.03021817776654, -29.22510843024215], [-50.03001948363264, -29.22603873103163]]]}}, {"type": "Feature", "properties": {"cod_imovel": "SC-4213807-3E080FA21A58439AB6C666E827256EF5", "municipio": "Praia Grande", "num_area": 4.1857, "mod_fiscal": 0.2325, "des_condic": "Aguardando analise", "ind_status": "AT", "dat_atuali": "11/08/2020"}, "geometry": {"type": "Polygon", "coordinates": [[[-50.035266439, -29.2081666204], [-50.0341238106, -29.2092748293], [-50.03661272040001, -29.2106580796], [-50.0374877602, -29.2097276693], [-50.035266439, -29.2081666204]]]}}, {"type": "Feature", "properties": {"cod_imovel": "SC-4213807-22252BBFBA964A8790823ED62F67E2A7", "municipio": "Praia Grande", "num_area": 9.7813, "mod_fiscal": 0.5434, "des_condic": "Aguardando analise", "ind_status": "AT", "dat_atuali": "11/08/2020"}, "geometry": {"type": "Polygon", "coordinates": [[[-50.0412297342, -29.2113185634], [-50.03833513339999, -29.2087769979], [-50.03661272040001, -29.2106580796], [-50.0363480722, -29.2105484368], [-50.0397920172, -29.2128759189], [-50.0412297342, -29.2113185634]]]}}, {"type": "Feature", "properties": {"cod_imovel": "SC-4213807-405332EC90704ECCB6F09BC3FD20FE4B", "municipio": "Praia Grande", "num_area": 18.0746, "mod_fiscal": 1.0041, "des_condic": "Aguardando analise", "ind_status": "AT", "dat_atuali": "17/06/2019"}, "geometry": {"type": "Polygon", "coordinates": [[[-50.08295785206776, -29.2373133528655], [-50.0774252544568, -29.25074615453881], [-50.07972911942814, -29.25079711847001], [-50.07940874243734, -29.24947282730702], [-50.08144034883823, -29.24452254689437], [-50.08344248474099, -29.23751910283117], [-50.08295785206776, -29.2373133528655]]]}}, {"type": "Feature", "properties": {"cod_imovel": "SC-4213807-306B760D838A4E9185B3679C730F6383", "municipio": "Praia Grande", "num_area": 6.0202, "mod_fiscal": 0.3345, "des_condic": "Aguardando analise", "ind_status": "AT", "dat_atuali": "26/09/2023"}, "geometry": {"type": "Polygon", "coordinates": [[[-50.082971555376, -29.248505237961], [-50.082549113287, -29.249159465554], [-50.081305723646, -29.249223763956], [-50.08035127496, -29.249087758482], [-50.079765072271, -29.248760159214], [-50.079536215542, -29.249343663011], [-50.079217719919, -29.249563708279], [-50.076691802608, -29.24982006787], [-50.076625201581, -29.250088113901], [-50.077460042304, -29.250550765713], [-50.078099832213, -29.250674886698], [-50.078899777179, -29.250642320877], [-50.081166148187, -29.249847952772], [-50.083038999105, -29.24990132694], [-50.082971555376, -29.248505237961]]]}}, {"type": "Feature", "properties": {"cod_imovel": "SC-4213807-94CEE485D8BC4C3D9D99E564CC8D85C2", "municipio": "Praia Grande", "num_area": 26.6464, "mod_fiscal": 1.4804, "des_condic": "Aguardando analise", "ind_status": "AT", "dat_atuali": "26/09/2023"}, "geometry": {"type": "Polygon", "coordinates": [[[-50.083742854577, -29.245156030137], [-50.079804732269, -29.243596544628], [-50.076994131663, -29.249724201941], [-50.079186899887, -29.249492072421], [-50.079455771386, -29.249312373734], [-50.079773486354, -29.248668424895], [-50.080371100721, -29.249012872405], [-50.0813125116, -29.249147109338], [-50.082492814764, -29.24906639286], [-50.082888582037, -29.248481457518], [-50.083080747408, -29.248423210575], [-50.083742854577, -29.245156030137]]]}}, {"type": "Feature", "properties": {"cod_imovel": "SC-4213807-BB8783FF40F24D64A27E6973B9A10466", "municipio": "Praia Grande", "num_area": 15.3034, "mod_fiscal": 0.8502, "des_condic": "Aguardando analise", "ind_status": "AT", "dat_atuali": "06/08/2022"}, "geometry": {"type": "Polygon", "coordinates": [[[-50.05483507519463, -29.23614904273327], [-50.0578185610652, -29.23769333906496], [-50.05990313564714, -29.23484556895431], [-50.05714829418005, -29.23225790964429], [-50.05483507519463, -29.23614904273327]]]}}, {"type": "Feature", "properties": {"cod_imovel": "SC-4213807-FCE13DEF8064440F9E3D3F1227D47577", "municipio": "Praia Grande", "num_area": 4.5057, "mod_fiscal": 0.2503, "des_condic": "Aguardando analise", "ind_status": "AT", "dat_atuali": "09/04/2016"}, "geometry": {"type": "Polygon", "coordinates": [[[-50.05521297454833, -29.228403163568572], [-50.05276679992676, -29.22703617951502], [-50.05289554595947, -29.229901207327757], [-50.055298805236816, -29.22905856040992], [-50.05521297454833, -29.228403163568572]]]}}, {"type": "Feature", "properties": {"cod_imovel": "SC-4213807-2BD7EE3A16674BF880237AB3754CC3BA", "municipio": "Praia Grande", "num_area": 42.6149, "mod_fiscal": 2.3675, "des_condic": "Aguardando analise", "ind_status": "AT", "dat_atuali": "26/08/2015"}, "geometry": {"type": "Polygon", "coordinates": [[[-50.05697250366211, -29.23353387242722], [-50.050578117370605, -29.24184732190468], [-50.05190849304199, -29.242109446718022], [-50.05465507507324, -29.240480517357998], [-50.057830810546875, -29.240911156376477], [-50.06096363067626, -29.235293983387052], [-50.05697250366211, -29.23353387242722]]]}}, {"type": "Feature", "properties": {"cod_imovel": "SC-4213807-1286747E330B49C084276EC6F91BACCE", "municipio": "Praia Grande", "num_area": 0.0599, "mod_fiscal": 0.0033, "des_condic": "Aguardando analise", "ind_status": "AT", "dat_atuali": "03/04/2025"}, "geometry": {"type": "Polygon", "coordinates": [[[-50.00500881541761, -29.20816899894323], [-50.0047838835501, -29.20825853508175], [-50.00490305041451, -29.20847171634709], [-50.00511206050067, -29.20837142243871], [-50.00500881541761, -29.20816899894323]]]}}, {"type": "Feature", "properties": {"cod_imovel": "SC-4213807-26D63683AE724A358650E480B4410B68", "municipio": "Praia Grande", "num_area": 55.5886, "mod_fiscal": 3.0883, "des_condic": "Aguardando analise", "ind_status": "AT", "dat_atuali": "05/05/2016"}, "geometry": {"type": "Polygon", "coordinates": [[[-49.982900619506836, -29.168425976466224], [-49.98290701589967, -29.17027148466956], [-49.98342281441234, -29.17007848872871], [-49.98449295380311, -29.17003026957037], [-49.98598815210701, -29.17042659274156], [-49.98678188683323, -29.17108063350252], [-49.98923561862161, -29.17124231193847], [-49.99017829569736, -29.17154537795953], [-49.99156518143279, -29.17081408066907], [-50.00302791595459, -29.171236434241113], [-50.00283479690552, -29.168276083223457], [-49.982900619506836, -29.168425976466224]]]}}, {"type": "Feature", "properties": {"cod_imovel": "SC-4213807-0F56EC0291804EDAB265B3BB1E6B9593", "municipio": "Praia Grande", "num_area": 14.9451, "mod_fiscal": 0.8303, "des_condic": "Aguardando analise", "ind_status": "AT", "dat_atuali": "11/08/2020"}, "geometry": {"type": "Polygon", "coordinates": [[[-50.03464811080001, -29.2143150548], [-50.0355302324, -29.2131383418], [-50.03818507579999, -29.2146165047], [-50.0384975501, -29.2142780491], [-50.035209892, -29.2119897432], [-50.0363684662, -29.2105223352], [-50.0341238106, -29.2092748293], [-50.0318931585, -29.2111574139], [-50.0334465329, -29.2119976521], [-50.0325379504, -29.2131791565], [-50.03464811080001, -29.2143150548]]]}}, {"type": "Feature", "properties": {"cod_imovel": "SC-4213807-DF838A168F67450A90F7CCDA8A533F10", "municipio": "Praia Grande", "num_area": 3172.2766, "mod_fiscal": 172.0193, "des_condic": "Aguardando analise", "ind_status": "PE", "dat_atuali": "07/06/2024"}, "geometry": {"type": "Polygon", "coordinates": [[[-50.13919238285603, -29.1928501282443], [-50.13737477257084, -29.19470524086576], [-50.13947703009606, -29.1969610187891], [-50.13765935110826, -29.19916577668991], [-50.13166178094276, -29.19682692395154], [-50.12306974272285, -29.19820005067144], [-50.12697718936106, -29.20241639907687], [-50.11718221189, -29.2065430343204], [-50.09467964748141, -29.21324205500548], [-50.09909038812217, -29.21920920238815], [-50.09781865902613, -29.22306548959265], [-50.10159222505234, -29.22547325402697], [-50.11200285326213, -29.22166012734253], [-50.112538977431, -29.22745057933259], [-50.11002587570297, -29.23115646767457], [-50.11254389929891, -29.24074600428081], [-50.10981478308716, -29.23924972533513], [-50.10187626014541, -29.23439611905778], [-50.0983326558647, -29.22681721504379], [-50.09540066105232, -29.22617184566502], [-50.09608080238018, -29.22941780579969], [-50.09536385688502, -29.2389049720371], [-50.09881595771538, -29.24209020738696], [-50.11233317985627, -29.2493521933889], [-50.12889862060547, -29.25495274007177], [-50.12792253901094, -29.27776947634926], [-50.12900673238706, -29.28213374870292], [-50.13098581117908, -29.28757015724317], [-50.13100665926126, -29.28919440784875], [-50.13025196625338, -29.29726295127442], [-50.12991430330219, -29.29930562559396], [-50.13082055304498, -29.29997649098277], [-50.13282325585093, -29.30068774241155], [-50.13432015023439, -29.29932495329577], [-50.13663880395629, -29.2991297855125], [-50.13625766854403, -29.29476280688337], [-50.1412983698043, -29.29423591070948], [-50.141659374784, -29.28908469381155], [-50.14439494869414, -29.29080107039862], [-50.14700204230059, -29.286455528242], [-50.15095617094309, -29.28562538591931], [-50.15098646611494, -29.28225942213272], [-50.14773746094784, -29.27878575100178], [-50.14419525685347, -29.27416771302817], [-50.14503693255922, -29.26727680265141], [-50.14785841132292, -29.26466309535408], [-50.14472749265335, -29.25902215185013], [-50.13874036086788, -29.25498598906764], [-50.14101294813395, -29.25310131985365], [-50.15046738596056, -29.25918727851167], [-50.15277478495749, -29.25727962740064], [-50.15308974766241, -29.2554308164029], [-50.15105796769815, -29.25349158639307], [-50.14989375139785, -29.25037127602371], [-50.15406905558492, -29.25098757792573], [-50.15791624321201, -29.25263388108126], [-50.15855677279987, -29.25090693618992], [-50.16151485906774, -29.24928455391713], [-50.16772142899656, -29.24741013381893], [-50.15262204437894, -29.24250753687065], [-50.14422424558232, -29.24042180651293], [-50.14020131883349, -29.23609079291928], [-50.14580792864795, -29.22949125968764], [-50.14741446436459, -29.22827441501654], [-50.14878781831064, -29.22305927049285], [-50.14804484448035, -29.21936315495961], [-50.14136463805905, -29.21739171080234], [-50.13940682626235, -29.21578243546047], [-50.13714008143357, -29.21175093828092], [-50.13784548867591, -29.20886528540176], [-50.1385178067838, -29.20707525957959], [-50.13965491461477, -29.2047551729332], [-50.14226480261212, -29.20227194817242], [-50.14607448002513, -29.20127101725959], [-50.1475920441665, -29.2015502122891], [-50.15128806527419, -29.20418086590432], [-50.15308330900492, -29.20151907342657], [-50.13919238285603, -29.1928501282443]]]}}, {"type": "Feature", "properties": {"cod_imovel": "SC-4213807-3BC512F4801C4884A1C1A8103901799F", "municipio": "Praia Grande", "num_area": 4.2411, "mod_fiscal": 0.2356, "des_condic": "Aguardando analise", "ind_status": "AT", "dat_atuali": "13/03/2026"}, "geometry": {"type": "Polygon", "coordinates": [[[-50.00524878501892, -29.211604847587566], [-50.007705688476555, -29.213009494588725], [-50.00927209854126, -29.21267238106453], [-50.006117820739746, -29.21063094769694], [-50.00524878501892, -29.211604847587566]]]}}, {"type": "Feature", "properties": {"cod_imovel": "SC-4213807-8161367363BC446FBC89FFDE0BEE187C", "municipio": "Praia Grande", "num_area": 4.2252, "mod_fiscal": 0.2347, "des_condic": "Aguardando analise", "ind_status": "AT", "dat_atuali": "11/03/2026"}, "geometry": {"type": "Polygon", "coordinates": [[[-50.00822067260742, -29.21227908055118], [-50.0094363372656, -29.21109377578244], [-50.00718906047944, -29.20979800439382], [-50.006214380264275, -29.21094933906418], [-50.00822067260742, -29.21227908055118]]]}}, {"type": "Feature", "properties": {"cod_imovel": "SC-4213807-3278BA7E367942FDA22FE3EFE6ABAF1E", "municipio": "Praia Grande", "num_area": 5.0393, "mod_fiscal": 0.28, "des_condic": "Cancelado por duplicidade", "ind_status": "CA", "dat_atuali": null}, "geometry": {"type": "Polygon", "coordinates": [[[-50.02085924148559, -29.19879357844491], [-50.01798391342163, -29.199243123766617], [-50.01830577850342, -29.200835247594142], [-50.02092361450195, -29.200554286362454], [-50.02085924148559, -29.19879357844491]]]}}, {"type": "Feature", "properties": {"cod_imovel": "SC-4213807-0845BF0527CF4708B4D01EA7FF957C26", "municipio": "Praia Grande", "num_area": 5.0393, "mod_fiscal": 0.28, "des_condic": "Cancelado por duplicidade", "ind_status": "CA", "dat_atuali": null}, "geometry": {"type": "Polygon", "coordinates": [[[-50.02085924148559, -29.19879357844491], [-50.01798391342163, -29.199243123766617], [-50.01830577850342, -29.200835247594142], [-50.02092361450195, -29.200554286362454], [-50.02085924148559, -29.19879357844491]]]}}, {"type": "Feature", "properties": {"cod_imovel": "SC-4213807-10680CED1E3D4AF1AB89B9F04469A93C", "municipio": "Praia Grande", "num_area": 8.9303, "mod_fiscal": 0.4961, "des_condic": "Cancelado por duplicidade", "ind_status": "CA", "dat_atuali": null}, "geometry": {"type": "Polygon", "coordinates": [[[-50.0462666859067, -29.23769369819422], [-50.04795075169534, -29.23815148312712], [-50.04907754419378, -29.2373594535156], [-50.04926829815587, -29.23715291662139], [-50.04951336076812, -29.23595990677145], [-50.04992475578669, -29.23537276279582], [-50.05035955847637, -29.23417028624647], [-50.04992221944483, -29.23385941999597], [-50.04956355036659, -29.23390550296639], [-50.04924632497446, -29.23431728840959], [-50.04812810980654, -29.23513680294286], [-50.04668936308408, -29.23678850663889], [-50.0462666859067, -29.23769369819422]]]}}, {"type": "Feature", "properties": {"cod_imovel": "SC-4213807-E178B85EB6AA4382AD9C628F42B843C4", "municipio": "Praia Grande", "num_area": 14.5107, "mod_fiscal": 0.8062, "des_condic": "Aguardando analise", "ind_status": "AT", "dat_atuali": "27/08/2024"}, "geometry": {"type": "Polygon", "coordinates": [[[-50.02447423268584, -29.20702710194459], [-50.0252137659849, -29.20740893260215], [-50.02868340368389, -29.20924687753843], [-50.02564712806415, -29.20272572854066], [-50.0231877376482, -29.20313742978471], [-50.0248957648769, -29.20575168762876], [-50.02499897319795, -29.20628077518117], [-50.02447423268584, -29.20702710194459]]]}}, {"type": "Feature", "properties": {"cod_imovel": "SC-4213807-1A7870288DBD48D5902567E6D0B38D2E", "municipio": "Praia Grande", "num_area": 41.5701, "mod_fiscal": 2.3095, "des_condic": "Aguardando analise", "ind_status": "AT", "dat_atuali": "15/08/2024"}, "geometry": {"type": "Polygon", "coordinates": [[[-50.0446392269043, -29.21266816478168], [-50.04214249206333, -29.20380206573621], [-50.03627838340207, -29.20611186555201], [-50.03652838454322, -29.20719479503668], [-50.0436665605503, -29.21358570592075], [-50.0446392269043, -29.21266816478168]]]}}, {"type": "Feature", "properties": {"cod_imovel": "SC-4213807-B69CAB06276140778EC464B33CAEC12D", "municipio": "Praia Grande", "num_area": 7.3372, "mod_fiscal": 0.4076, "des_condic": "Aguardando analise", "ind_status": "AT", "dat_atuali": "15/08/2024"}, "geometry": {"type": "Polygon", "coordinates": [[[-50.02489314336523, -29.20574939294669], [-50.02355911949959, -29.20360539977472], [-50.02082954891907, -29.20508250347988], [-50.0244734029194, -29.2070295894929], [-50.02499927523483, -29.206277938997], [-50.02489314336523, -29.20574939294669]]]}}, {"type": "Feature", "properties": {"cod_imovel": "SC-4213807-3F4560BA4A1E43B9BB1FAC5B2A6FE1E0", "municipio": "Praia Grande", "num_area": 44.3835, "mod_fiscal": 2.4657, "des_condic": "Aguardando analise", "ind_status": "AT", "dat_atuali": "29/01/2024"}, "geometry": {"type": "Polygon", "coordinates": [[[-50.0049529639, -29.1853634619], [-49.9994059591, -29.1866481438], [-49.9996559062, -29.1931402156], [-50.0044116732, -29.1931179388], [-50.0043458244, -29.192203109], [-50.0057835285, -29.1920774012], [-50.0058439905, -29.1892889319], [-50.0052038188, -29.1888171536], [-50.0049529639, -29.1853634619]]]}}, {"type": "Feature", "properties": {"cod_imovel": "SC-4213807-923937223C08417BB64E4DB902BA1F43", "municipio": "Praia Grande", "num_area": 3.1454, "mod_fiscal": 0.1747, "des_condic": "Aguardando analise", "ind_status": "AT", "dat_atuali": "22/01/2024"}, "geometry": {"type": "Polygon", "coordinates": [[[-50.02648651599884, -29.2241617083148], [-50.02597153186798, -29.226333954584664], [-50.02720534801483, -29.226745927127638], [-50.02775251865387, -29.224611142357737], [-50.02648651599884, -29.2241617083148]]]}}, {"type": "Feature", "properties": {"cod_imovel": "SC-4213807-F5B968A5B25D4A1EA0C2284F2FD8E8B5", "municipio": "Praia Grande", "num_area": 65.0082, "mod_fiscal": 3.6116, "des_condic": "Aguardando analise", "ind_status": "AT", "dat_atuali": "03/05/2016"}, "geometry": {"type": "Polygon", "coordinates": [[[-50.001633167266846, -29.163666759166443], [-50.002620220184326, -29.159244611513348], [-49.989638328552246, -29.160350166281006], [-49.98603343963623, -29.164716054380477], [-50.001633167266846, -29.163666759166443]]]}}, {"type": "Feature", "properties": {"cod_imovel": "SC-4213807-C7BE4443D4CC438EA06E59C2367A0184", "municipio": "Praia Grande", "num_area": 3.6604, "mod_fiscal": 0.2034, "des_condic": "Aguardando analise", "ind_status": "AT", "dat_atuali": "04/12/2023"}, "geometry": {"type": "Polygon", "coordinates": [[[-50.00485073523986, -29.21598975530708], [-50.00171836122608, -29.21727599980288], [-50.00200303781064, -29.21757007309683], [-50.0031003687149, -29.21802444302739], [-50.00541265081463, -29.21674483183316], [-50.00485073523986, -29.21598975530708]]]}}, {"type": "Feature", "properties": {"cod_imovel": "SC-4213807-7635F944FAD84F48A11F55C65D44E55C", "municipio": "Praia Grande", "num_area": 4.0408, "mod_fiscal": 0.2245, "des_condic": "Aguardando analise", "ind_status": "AT", "dat_atuali": "01/12/2021"}, "geometry": {"type": "Polygon", "coordinates": [[[-50.034592151641846, -29.23282232962016], [-50.03570795059204, -29.229470521991686], [-50.034656524658196, -29.229170913732958], [-50.03351926803588, -29.232560181023608], [-50.034592151641846, -29.23282232962016]]]}}, {"type": "Feature", "properties": {"cod_imovel": "SC-4213807-40DB1C635E1B467D8CCFA5936314A007", "municipio": "Praia Grande", "num_area": 5.23, "mod_fiscal": 0.2906, "des_condic": "Aguardando analise", "ind_status": "AT", "dat_atuali": "17/11/2021"}, "geometry": {"type": "Polygon", "coordinates": [[[-50.015489551972, -29.205645691294], [-50.015467972738, -29.205207206421], [-50.014197366473, -29.205625770382], [-50.012666881581, -29.205625794422], [-50.011293640675, -29.206032083858], [-50.013274583043, -29.207272338434], [-50.01451519663, -29.207234393195], [-50.015489551972, -29.205645691294]]]}}, {"type": "Feature", "properties": {"cod_imovel": "SC-4213807-72D20426528C453391B6EBFA3555FD37", "municipio": "Praia Grande", "num_area": 46.287, "mod_fiscal": 2.5715, "des_condic": "Aguardando analise", "ind_status": "AT", "dat_atuali": "21/01/2021"}, "geometry": {"type": "Polygon", "coordinates": [[[-49.9923877252168, -29.17823664742202], [-49.99281406402588, -29.180304319891956], [-49.99507565132561, -29.18046502529561], [-50.003071264320525, -29.180312731877837], [-50.001604765498826, -29.17653151091189], [-49.99552618554672, -29.17673324964312], [-49.98839273457544, -29.17602078336057], [-49.98919914654378, -29.17765541821398], [-49.9923877252168, -29.17823664742202]]]}}, {"type": "Feature", "properties": {"cod_imovel": "SC-4213807-5A8357EF14684ABAB3A95FAD964533E7", "municipio": "Praia Grande", "num_area": 12.412, "mod_fiscal": 0.6896, "des_condic": "Aguardando analise", "ind_status": "AT", "dat_atuali": "09/03/2023"}, "geometry": {"type": "Polygon", "coordinates": [[[-50.06553411483765, -29.2336087713824], [-50.062336921691895, -29.238271123464674], [-50.06418764591216, -29.23910433269534], [-50.06751894950867, -29.234245410289013], [-50.06553411483765, -29.2336087713824]]]}}, {"type": "Feature", "properties": {"cod_imovel": "SC-4213807-E5C371C5D4A945498CAE58DCCD91477D", "municipio": "Praia Grande", "num_area": 11.1908, "mod_fiscal": 0.6217, "des_condic": "Aguardando analise", "ind_status": "AT", "dat_atuali": "10/04/2023"}, "geometry": {"type": "Polygon", "coordinates": [[[-50.013402635, -29.2006873222], [-50.0134332304, -29.2050521068], [-50.014932645, -29.2047127124], [-50.0161290257, -29.2036811716], [-50.0157107883, -29.2003963474], [-50.013402635, -29.2006873222]]]}}, {"type": "Feature", "properties": {"cod_imovel": "SC-4213807-8D8DA4BA754A4243A0D985D0F84C4E2D", "municipio": "Praia Grande", "num_area": 5.3706, "mod_fiscal": 0.2984, "des_condic": "Aguardando analise", "ind_status": "AT", "dat_atuali": "17/10/2023"}, "geometry": {"type": "Polygon", "coordinates": [[[-50.01432884306352, -29.20783683595236], [-50.01558897606555, -29.20857655730108], [-50.01747631344571, -29.20800482615262], [-50.0157224838327, -29.20562547611028], [-50.01514194267064, -29.20611840623012], [-50.01432884306352, -29.20783683595236]]]}}, {"type": "Feature", "properties": {"cod_imovel": "SC-4213807-A89098CA3FD24410B4BF45F1BC0972A1", "municipio": "Praia Grande", "num_area": 9.6697, "mod_fiscal": 0.5372, "des_condic": "Aguardando analise", "ind_status": "AT", "dat_atuali": "18/10/2023"}, "geometry": {"type": "Polygon", "coordinates": [[[-50.01563252985625, -29.2085651578213], [-50.01886005593679, -29.21045004367119], [-50.0200450045244, -29.20986467697364], [-50.01656389042969, -29.20514672208295], [-50.01617470462959, -29.20524877076378], [-50.01572624011329, -29.20561714619887], [-50.01731872558594, -29.207933945848346], [-50.01563252985625, -29.2085651578213]]]}}, {"type": "Feature", "properties": {"cod_imovel": "SC-4213807-21C6B8A303B74896AA18A202F2D56972", "municipio": "Praia Grande", "num_area": 3.7918, "mod_fiscal": 0.2107, "des_condic": "Aguardando analise", "ind_status": "AT", "dat_atuali": "01/06/2023"}, "geometry": {"type": "Polygon", "coordinates": [[[-50.056814253330224, -29.23940859280243], [-50.05728095769882, -29.23843027631368], [-50.054974257946014, -29.237615785596788], [-50.05385845899582, -29.23910901362691], [-50.056181252002716, -29.239240079624103], [-50.056814253330224, -29.23940859280243]]]}}, {"type": "Feature", "properties": {"cod_imovel": "SC-4213807-17F89FA4FC1E4C1B81498F5119FD007D", "municipio": "Praia Grande", "num_area": 10.0721, "mod_fiscal": 0.5596, "des_condic": "Aguardando analise", "ind_status": "AT", "dat_atuali": "12/05/2023"}, "geometry": {"type": "Polygon", "coordinates": [[[-50.0334560436111, -29.2119998966667], [-50.0285664227778, -29.2093818930556], [-50.0280424108333, -29.2096319611111], [-50.0261415755555, -29.2098065827778], [-50.0325398622222, -29.2131825002777], [-50.0334560436111, -29.2119998966667]]]}}, {"type": "Feature", "properties": {"cod_imovel": "SC-4213807-59C295FCB69A469889DFB1A3FBA811D7", "municipio": "Praia Grande", "num_area": 2.5506, "mod_fiscal": 0.1417, "des_condic": "Aguardando analise", "ind_status": "AT", "dat_atuali": "09/05/2023"}, "geometry": {"type": "Polygon", "coordinates": [[[-50.0003644824028, -29.2224060876857], [-49.99424368143082, -29.225786215796212], [-49.9946191906929, -29.225973477250047], [-50.00063806772232, -29.222640172174973], [-50.0003644824028, -29.2224060876857]]]}}, {"type": "Feature", "properties": {"cod_imovel": "SC-4213807-8EA5F662E5CB4146914D863379E69212", "municipio": "Praia Grande", "num_area": 4.0604, "mod_fiscal": 0.2256, "des_condic": "Aguardando analise", "ind_status": "AT", "dat_atuali": "06/05/2023"}, "geometry": {"type": "Polygon", "coordinates": [[[-50.11004622163276, -29.25220928439818], [-50.10982574847224, -29.25012504796081], [-50.10891749074325, -29.24999022116671], [-50.10854772984337, -29.25032906647673], [-50.10798775301788, -29.25221290734743], [-50.10946413578964, -29.2524462829161], [-50.11004622163276, -29.25220928439818]]]}}, {"type": "Feature", "properties": {"cod_imovel": "SC-4213807-ED6D57CFCD74483F80F0C61A5E3683F6", "municipio": "Praia Grande", "num_area": 9.6629, "mod_fiscal": 0.5368, "des_condic": "Aguardando analise", "ind_status": "AT", "dat_atuali": "20/12/2018"}, "geometry": {"type": "Polygon", "coordinates": [[[-50.00811683056632, -29.20710236108269], [-50.00861852305781, -29.20701000798092], [-50.00857414175449, -29.20673839796279], [-50.00899724144608, -29.20659664846355], [-50.00928004135918, -29.20674166129484], [-50.0102205919898, -29.20618236751784], [-50.01024966110968, -29.2025662930995], [-50.00810044790289, -29.20231134673077], [-50.00811683056632, -29.20710236108269]]]}}, {"type": "Feature", "properties": {"cod_imovel": "SC-4213807-BE336708694C42D3B2ADF4CAF87A79DB", "municipio": "Praia Grande", "num_area": 11.0981, "mod_fiscal": 0.6166, "des_condic": "Aguardando analise", "ind_status": "AT", "dat_atuali": "06/12/2019"}, "geometry": {"type": "Polygon", "coordinates": [[[-50.03374992306948, -29.22874193855423], [-50.031000545336, -29.22795575238616], [-50.02988037058903, -29.23169802293845], [-50.03258001616217, -29.23203460717229], [-50.03273101536801, -29.23191808538321], [-50.03374992306948, -29.22874193855423]]]}}, {"type": "Feature", "properties": {"cod_imovel": "SC-4213807-DB945B17ADD34817B8431F9D7CF22153", "municipio": "Praia Grande", "num_area": 7.3174, "mod_fiscal": 0.4065, "des_condic": "Aguardando analise", "ind_status": "AT", "dat_atuali": "12/04/2019"}, "geometry": {"type": "Polygon", "coordinates": [[[-50.00960580039887, -29.20721185241743], [-50.00927431852026, -29.20753464428567], [-50.02234200161207, -29.21517024110453], [-50.02276758530132, -29.21489934467748], [-50.00960580039887, -29.20721185241743]]]}}, {"type": "Feature", "properties": {"cod_imovel": "SC-4213807-0406635BD0A649E8BD022A5B0C612165", "municipio": "Praia Grande", "num_area": 8.071, "mod_fiscal": 0.4484, "des_condic": "Aguardando analise", "ind_status": "AT", "dat_atuali": "15/04/2015"}, "geometry": {"type": "Polygon", "coordinates": [[[-50.02573013305664, -29.20832726303863], [-50.02373456954956, -29.208683120148198], [-50.02470016479492, -29.212260351917656], [-50.02667427062988, -29.211998150688817], [-50.02573013305664, -29.20832726303863]]]}}, {"type": "Feature", "properties": {"cod_imovel": "SC-4213807-9531680906A041C5A15151D62DEF041C", "municipio": "Praia Grande", "num_area": 15.7282, "mod_fiscal": 0.8738, "des_condic": "Aguardando analise", "ind_status": "AT", "dat_atuali": "30/04/2015"}, "geometry": {"type": "Polygon", "coordinates": [[[-50.003628730773926, -29.209975432943597], [-50.00319957733154, -29.20883295435098], [-50.003113746643066, -29.20001109246442], [-50.001654624938965, -29.200086015931806], [-50.00199794769287, -29.211024254536223], [-50.003628730773926, -29.209975432943597]]]}}, {"type": "Feature", "properties": {"cod_imovel": "SC-4213807-0C807E20EBCF48449943E5EAF6AF82C6", "municipio": "Praia Grande", "num_area": 38.1642, "mod_fiscal": 2.1202, "des_condic": "Aguardando analise", "ind_status": "AT", "dat_atuali": "30/03/2016"}, "geometry": {"type": "Polygon", "coordinates": [[[-50.01221179962158, -29.216698942328787], [-50.00675171484018, -29.2195893458343], [-50.00698658055805, -29.21967565446523], [-50.00747654700923, -29.22054568734801], [-50.00805433353617, -29.22085833646206], [-50.00908149253696, -29.22068107431644], [-50.01114077383267, -29.22068952515977], [-50.01246992111572, -29.2213899834592], [-50.01378251308134, -29.2217474825931], [-50.01447973616516, -29.22171980586757], [-50.01658673323051, -29.22061885720298], [-50.01801495612658, -29.22074738664997], [-50.01611922261516, -29.2176669694023], [-50.01799408839666, -29.21762471190997], [-50.0172038916667, -29.21718451628275], [-50.01221179962158, -29.216698942328787]]]}}, {"type": "Feature", "properties": {"cod_imovel": "SC-4213807-B0A6637091FE4613A5C40FE9734D0F56", "municipio": "Praia Grande", "num_area": 3.0354, "mod_fiscal": 0.1686, "des_condic": "Aguardando analise", "ind_status": "AT", "dat_atuali": "10/04/2016"}, "geometry": {"type": "Polygon", "coordinates": [[[-50.00032424926758, -29.222504403236364], [-49.99970197677612, -29.221961325682205], [-49.99646186828613, -29.22364672938264], [-49.99684810638427, -29.22426470379051], [-50.00032424926758, -29.222504403236364]]]}}, {"type": "Feature", "properties": {"cod_imovel": "SC-4213807-05AA18555D04496FBD4C4F389A4E2FB6", "municipio": "Praia Grande", "num_area": 4.5259, "mod_fiscal": 0.2514, "des_condic": "Aguardando analise", "ind_status": "AT", "dat_atuali": "11/04/2016"}, "geometry": {"type": "Polygon", "coordinates": [[[-50.04184461863146, -29.24002371205348], [-50.04338184260114, -29.23520741136165], [-50.04239971345167, -29.23511274117361], [-50.04119130193682, -29.23927201890632], [-50.04184461863146, -29.24002371205348]]]}}, {"type": "Feature", "properties": {"cod_imovel": "SC-4213807-0D504AAC867B41F3A02FC36ED23EB089", "municipio": "Praia Grande", "num_area": 2.0801, "mod_fiscal": 0.1156, "des_condic": "Aguardando analise", "ind_status": "AT", "dat_atuali": "21/04/2015"}, "geometry": {"type": "Polygon", "coordinates": [[[-50.02980709075928, -29.21306568006826], [-50.02660989761352, -29.213590076391554], [-50.028390884399414, -29.214545219941396], [-50.02980709075928, -29.21306568006826]]]}}, {"type": "Feature", "properties": {"cod_imovel": "SC-4213807-0DDEAEC8A333446C87EB752C1D6E1E55", "municipio": "Praia Grande", "num_area": 3.8712, "mod_fiscal": 0.2151, "des_condic": "Aguardando analise", "ind_status": "AT", "dat_atuali": "21/04/2015"}, "geometry": {"type": "Polygon", "coordinates": [[[-50.03105163574218, -29.21598728254838], [-50.03190994262695, -29.21486359914599], [-50.02954959869385, -29.213664989932937], [-50.02877712249756, -29.214788686480976], [-50.03105163574218, -29.21598728254838]]]}}, {"type": "Feature", "properties": {"cod_imovel": "SC-4213807-9D34E41156FA4256A0DAE9AF5A5B5FFF", "municipio": "Praia Grande", "num_area": 5.5021, "mod_fiscal": 0.3057, "des_condic": "Aguardando analise", "ind_status": "AT", "dat_atuali": "08/04/2016"}, "geometry": {"type": "Polygon", "coordinates": [[[-50.004122257232666, -29.226418221830556], [-50.00154733657837, -29.224133618621636], [-50.00056028366089, -29.22508866386734], [-50.003156661987305, -29.227391971641786], [-50.00377893447876, -29.227373245771187], [-50.00403642654419, -29.22703617951502], [-50.004122257232666, -29.226418221830556]]]}}, {"type": "Feature", "properties": {"cod_imovel": "SC-4213807-8261BAF20A4C49D99EAE23ACEBAE7691", "municipio": "Praia Grande", "num_area": 5.0631, "mod_fiscal": 0.2813, "des_condic": "Aguardando analise", "ind_status": "AT", "dat_atuali": "09/04/2016"}, "geometry": {"type": "Polygon", "coordinates": [[[-50.04472017288208, -29.231193252466667], [-50.04570722579956, -29.23130560344736], [-50.04645824432373, -29.22647439995596], [-50.04553556442261, -29.22636204367434], [-50.04472017288208, -29.231193252466667]]]}}, {"type": "Feature", "properties": {"cod_imovel": "SC-4213807-5F413F17725D4CBE99E63358DAFB27B0", "municipio": "Praia Grande", "num_area": 4.1074, "mod_fiscal": 0.2282, "des_condic": "Aguardando analise", "ind_status": "AT", "dat_atuali": "11/04/2016"}, "geometry": {"type": "Polygon", "coordinates": [[[-50.04180570154959, -29.2402616128894], [-50.04266088802181, -29.24023281399684], [-50.04398935021685, -29.23515909149136], [-50.04336643994751, -29.23509079075574], [-50.04180570154959, -29.2402616128894]]]}}, {"type": "Feature", "properties": {"cod_imovel": "SC-4213807-6E450BA2F15348B2AA4E239CB6FB86D5", "municipio": "Praia Grande", "num_area": 3.5896, "mod_fiscal": 0.1994, "des_condic": "Analisado, aguardando atendimento a notificacao", "ind_status": "AT", "dat_atuali": "22/06/2022"}, "geometry": {"type": "Polygon", "coordinates": [[[-50.03377676010132, -29.2288151277871], [-50.03257513046265, -29.23227930678243], [-50.03345489501953, -29.23254145609817], [-50.03465160956306, -29.22895854746025], [-50.03377676010132, -29.2288151277871]]]}}, {"type": "Feature", "properties": {"cod_imovel": "SC-4213807-CBB0F92D7F704EF0BE18B715C6EEEC0D", "municipio": "Praia Grande", "num_area": 13.1904, "mod_fiscal": 0.7328, "des_condic": "Aguardando analise", "ind_status": "AT", "dat_atuali": "03/05/2016"}, "geometry": {"type": "Polygon", "coordinates": [[[-50.02036571502685, -29.214807414652363], [-50.00933647155761, -29.20813996932676], [-50.00871419906616, -29.208889142120555], [-50.019593238830566, -29.21544417044271], [-50.02036571502685, -29.214807414652363]]]}}, {"type": "Feature", "properties": {"cod_imovel": "SC-4213807-B012688782034539A49004FBCDA2061B", "municipio": "Praia Grande", "num_area": 5.0393, "mod_fiscal": 0.28, "des_condic": "Aguardando analise", "ind_status": "AT", "dat_atuali": "11/05/2015"}, "geometry": {"type": "Polygon", "coordinates": [[[-50.02085924148559, -29.19879357844491], [-50.01798391342163, -29.199243123766617], [-50.01830577850342, -29.200835247594142], [-50.02092361450195, -29.200554286362454], [-50.02085924148559, -29.19879357844491]]]}}, {"type": "Feature", "properties": {"cod_imovel": "SC-4213807-ADC510870C0A4F2CB4DD70185F14EEF4", "municipio": "Praia Grande", "num_area": 6.8447, "mod_fiscal": 0.3803, "des_condic": "Aguardando analise", "ind_status": "AT", "dat_atuali": "04/05/2016"}, "geometry": {"type": "Polygon", "coordinates": [[[-50.0108182684076, -29.21193542693958], [-50.01238396554327, -29.21096384718392], [-50.00885198514623, -29.20887555107749], [-50.00763450543555, -29.21003602439092], [-50.0108182684076, -29.21193542693958]]]}}, {"type": "Feature", "properties": {"cod_imovel": "SC-4213807-3D3FA217248D40F1A3F57550879A4147", "municipio": "Praia Grande", "num_area": 8.9048, "mod_fiscal": 0.4947, "des_condic": "Aguardando analise", "ind_status": "AT", "dat_atuali": "26/05/2017"}, "geometry": {"type": "Polygon", "coordinates": [[[-50.04632949829101, -29.237877921247424], [-50.04688739776611, -29.238102608413662], [-50.04791736602783, -29.238177504026144], [-50.04926919937134, -29.23733492522615], [-50.04944086074829, -29.236398718425125], [-50.05014896392822, -29.23493821871832], [-50.05027770996093, -29.234095613255377], [-50.048668384552, -29.23407688861077], [-50.048625469207764, -29.23493821871832], [-50.047166347503655, -29.236417442645067], [-50.04641532897949, -29.23740982140034], [-50.04632949829101, -29.237877921247424]]]}}, {"type": "Feature", "properties": {"cod_imovel": "SC-4213807-C4D0A814055D465C9C7D51F75EB0E7B1", "municipio": "Praia Grande", "num_area": 20.9491, "mod_fiscal": 1.1638, "des_condic": "Aguardando analise", "ind_status": "AT", "dat_atuali": "11/08/2022"}, "geometry": {"type": "Polygon", "coordinates": [[[-50.01947846202091, -29.22004858561285], [-50.02351888103679, -29.21910381396778], [-50.02057883005373, -29.21716786166523], [-50.01957465295065, -29.21556807809731], [-50.01556640503293, -29.21684377142417], [-50.01839987633107, -29.22062704181246], [-50.01947846202091, -29.22004858561285]]]}}, {"type": "Feature", "properties": {"cod_imovel": "SC-4213807-62F52E2CF29F40ABB990BF74DBEEC4FD", "municipio": "Praia Grande", "num_area": 21.311, "mod_fiscal": 1.1839, "des_condic": "Aguardando analise", "ind_status": "AT", "dat_atuali": "19/10/2016"}, "geometry": {"type": "Polygon", "coordinates": [[[-50.00630578131992, -29.21955766178347], [-50.01103196234942, -29.21685661434827], [-50.0098115991361, -29.21507208341243], [-50.00258884214693, -29.21914830675468], [-50.0045190441901, -29.22024393436152], [-50.00505203699598, -29.2209189536451], [-50.00717642468487, -29.22146100479705], [-50.00708249735519, -29.21975394442567], [-50.00630578131992, -29.21955766178347]]]}}, {"type": "Feature", "properties": {"cod_imovel": "SC-4213807-D874BC2D2F654B72B9F30153602EE2DD", "municipio": "Praia Grande", "num_area": 21.7485, "mod_fiscal": 1.2082, "des_condic": "Aguardando analise", "ind_status": "AT", "dat_atuali": "23/02/2017"}, "geometry": {"type": "Polygon", "coordinates": [[[-50.00699925266112, -29.21970494471569], [-50.00627115502697, -29.21946302640086], [-50.01097021459724, -29.21688148623165], [-50.0097881274299, -29.21501998911938], [-50.00258226382339, -29.21914649688646], [-50.00447913512549, -29.22029333866933], [-50.00500050194416, -29.22094412316149], [-50.00602342589367, -29.22168441647873], [-50.00605233906728, -29.22130573667811], [-50.00725503092173, -29.22141792052359], [-50.00699925266112, -29.21970494471569]]]}}, {"type": "Feature", "properties": {"cod_imovel": "SC-4213807-B46CB86F2F32466C80E1AE48D61E2376", "municipio": "Praia Grande", "num_area": 20.1596, "mod_fiscal": 1.12, "des_condic": "Aguardando analise", "ind_status": "AT", "dat_atuali": "25/04/2016"}, "geometry": {"type": "Polygon", "coordinates": [[[-50.04800257899382, -29.22462457868438], [-50.04819448643345, -29.22701429234474], [-50.05167245864868, -29.225201021546013], [-50.05467653274536, -29.22286021110709], [-50.05208015441894, -29.220781526590493], [-50.04800257899382, -29.22462457868438]]]}}, {"type": "Feature", "properties": {"cod_imovel": "SC-4213807-0A9A4C339F8D41A7BCF58760968E3E69", "municipio": "Praia Grande", "num_area": 6.5115, "mod_fiscal": 0.3617, "des_condic": "Aguardando analise", "ind_status": "AT", "dat_atuali": "26/04/2016"}, "geometry": {"type": "Polygon", "coordinates": [[[-50.04991292953491, -29.240986049933873], [-50.05220890045166, -29.23770940554907], [-50.04930218214687, -29.23811410459288], [-50.04853963851929, -29.24025583541166], [-50.04991292953491, -29.240986049933873]]]}}, {"type": "Feature", "properties": {"cod_imovel": "SC-4213807-C7FDF1F849124D85B5701FFF023826BC", "municipio": "Praia Grande", "num_area": 121.9128, "mod_fiscal": 6.7729, "des_condic": "Aguardando analise", "ind_status": "AT", "dat_atuali": "03/05/2016"}, "geometry": {"type": "Polygon", "coordinates": [[[-50.11956831021603, -29.25028665228386], [-50.12855212877138, -29.24073405315452], [-50.12164225236047, -29.23638523114247], [-50.11148171542772, -29.24597428720395], [-50.11956831021603, -29.25028665228386]]]}}, {"type": "Feature", "properties": {"cod_imovel": "SC-4213807-89276FB357CF4BEFBACF7A15D9C5F298", "municipio": "Praia Grande", "num_area": 13.0212, "mod_fiscal": 0.7234, "des_condic": "Aguardando analise", "ind_status": "AT", "dat_atuali": "26/04/2015"}, "geometry": {"type": "Polygon", "coordinates": [[[-50.02723217010498, -29.21727950322509], [-50.02894878387451, -29.21473250194627], [-50.02851053543373, -29.21430203928453], [-50.02846666060643, -29.21398351587584], [-50.02753257751465, -29.21344024914448], [-50.026845932006836, -29.213365335438766], [-50.02598762512207, -29.213384063870333], [-50.02471009574533, -29.21383529076245], [-50.023627281188965, -29.21506960869236], [-50.02723217010498, -29.21727950322509]]]}}, {"type": "Feature", "properties": {"cod_imovel": "SC-4213807-48B66E3D7E584986A43D143EB9BD4525", "municipio": "Praia Grande", "num_area": 29.1916, "mod_fiscal": 1.6218, "des_condic": "Aguardando analise", "ind_status": "AT", "dat_atuali": "18/04/2016"}, "geometry": {"type": "Polygon", "coordinates": [[[-50.0158436227803, -29.22094025398998], [-50.01501126262949, -29.22167426969165], [-50.01443435239764, -29.22183899582452], [-50.01287786897347, -29.2215057647408], [-50.01270363940893, -29.22223607475455], [-50.01507307965859, -29.22313434275585], [-50.01688068385733, -29.22426694235714], [-50.02094542975784, -29.22567069835308], [-50.02319915585453, -29.22597095602974], [-50.02388579637167, -29.22332270185815], [-50.02277475692976, -29.223164196253], [-50.02197306341048, -29.22266823915807], [-50.01925622280861, -29.22149667849861], [-50.01885050252351, -29.22222673638271], [-50.01777923942682, -29.22176834120214], [-50.0175532188779, -29.22216139447438], [-50.01638824593287, -29.22098476843139], [-50.0158436227803, -29.22094025398998]]]}}, {"type": "Feature", "properties": {"cod_imovel": "SC-4213807-7AA22FDA7D8E4BDC97DA54D7B3B5AFB7", "municipio": "Praia Grande", "num_area": 3.9967, "mod_fiscal": 0.222, "des_condic": "Aguardando analise", "ind_status": "AT", "dat_atuali": "03/05/2016"}, "geometry": {"type": "Polygon", "coordinates": [[[-50.04262486461953, -29.24039913526604], [-50.04345137211283, -29.24010206164197], [-50.0446095642479, -29.23516402877211], [-50.04403635589392, -29.23501452631258], [-50.04262486461953, -29.24039913526604]]]}}, {"type": "Feature", "properties": {"cod_imovel": "SC-4213807-A1ECBECCF5B540F785679C73BB4C18E0", "municipio": "Praia Grande", "num_area": 4.0976, "mod_fiscal": 0.2276, "des_condic": "Aguardando analise", "ind_status": "AT", "dat_atuali": "24/04/2016"}, "geometry": {"type": "Polygon", "coordinates": [[[-50.01046299934387, -29.213590076391554], [-50.00874638557434, -29.21254128106115], [-50.00698685646057, -29.214751230127924], [-50.009411573410034, -29.214507763499327], [-50.01046299934387, -29.213590076391554]]]}}, {"type": "Feature", "properties": {"cod_imovel": "SC-4213807-05D6B1A404CD4711B1D235A140290903", "municipio": "Praia Grande", "num_area": 25.0887, "mod_fiscal": 1.3938, "des_condic": "Aguardando analise", "ind_status": "AT", "dat_atuali": "20/09/2019"}, "geometry": {"type": "Polygon", "coordinates": [[[-49.993650913238525, -29.213590076391554], [-49.99506711959839, -29.213309150123564], [-49.99650478363037, -29.214657589185396], [-49.99672301563495, -29.2140963264199], [-49.99772773817954, -29.21388458823082], [-49.99818393941114, -29.21403059621503], [-49.99945049364575, -29.2135485906634], [-50.00054998337321, -29.21205764408649], [-50.00352144241333, -29.210893152424187], [-50.00341415405273, -29.210200181331402], [-49.99701481830719, -29.21066760202134], [-49.99629020690918, -29.211080441104308], [-49.99508857727051, -29.211380102280494], [-49.993221759796135, -29.21130518706862], [-49.993650913238525, -29.213590076391554]]]}}, {"type": "Feature", "properties": {"cod_imovel": "SC-4213807-EBD71C16496C44C490BF650879C69DB8", "municipio": "Praia Grande", "num_area": 5.6988, "mod_fiscal": 0.3166, "des_condic": "Aguardando analise", "ind_status": "AT", "dat_atuali": "25/09/2015"}, "geometry": {"type": "Polygon", "coordinates": [[[-50.0472092628479, -29.239563062972174], [-50.04949868000239, -29.24130327259966], [-50.04997346298411, -29.24053998918462], [-50.04865477410715, -29.24021435270442], [-50.04928748952948, -29.23808899771708], [-50.049870014190674, -29.238046436668338], [-50.04939794540405, -29.23726002899716], [-50.04805660699429, -29.2381670333165], [-50.04772049676129, -29.2382081105675], [-50.04735757419265, -29.23904827490667], [-50.0466513633728, -29.238757943164746], [-50.04613637924194, -29.239169865717898], [-50.0472092628479, -29.239563062972174]]]}}, {"type": "Feature", "properties": {"cod_imovel": "SC-4213807-2CC8FACC56A64EFB98D49D6B58F73B7C", "municipio": "Praia Grande", "num_area": 2.3186, "mod_fiscal": 0.1288, "des_condic": "Aguardando analise", "ind_status": "AT", "dat_atuali": "05/10/2015"}, "geometry": {"type": "Polygon", "coordinates": [[[-50.0018048286438, -29.227597955992263], [-50.00298500061035, -29.227129809141925], [-50.0018048286438, -29.226212235107084], [-50.0002384185791, -29.226830194034545], [-50.00107526779175, -29.22752305264004], [-50.0018048286438, -29.227597955992263]]]}}, {"type": "Feature", "properties": {"cod_imovel": "SC-4213807-F337AAFF2C674CA5A730C423C9CAAA4E", "municipio": "Praia Grande", "num_area": 3.1055, "mod_fiscal": 0.1725, "des_condic": "Aguardando analise", "ind_status": "AT", "dat_atuali": "05/10/2015"}, "geometry": {"type": "Polygon", "coordinates": [[[-50.00181263726659, -29.22351545690674], [-50.00072036899032, -29.22266669363736], [-49.99907668239556, -29.22354058460069], [-50.00044431379732, -29.22478979256343], [-50.00181263726659, -29.22351545690674]]]}}, {"type": "Feature", "properties": {"cod_imovel": "SC-4213807-7E18DF55421F48C2BC01C62C14F58A62", "municipio": "Praia Grande", "num_area": 12.5082, "mod_fiscal": 0.6949, "des_condic": "Aguardando analise", "ind_status": "AT", "dat_atuali": "03/03/2016"}, "geometry": {"type": "Polygon", "coordinates": [[[-50.00826358795166, -29.203026718773817], [-50.01045227050781, -29.202652111635505], [-50.010387897491455, -29.197557318646453], [-50.008156299591064, -29.197632243907073], [-50.00826358795166, -29.203026718773817]]]}}, {"type": "Feature", "properties": {"cod_imovel": "SC-4213807-DBE23C37B0274626B0B148C55CEDFA45", "municipio": "Praia Grande", "num_area": 35.6749, "mod_fiscal": 1.9819, "des_condic": "Aguardando analise", "ind_status": "AT", "dat_atuali": "19/04/2016"}, "geometry": {"type": "Polygon", "coordinates": [[[-50.00834941864013, -29.225856438881536], [-50.008671283721924, -29.226043700206954], [-50.00925064086914, -29.22550064141986], [-50.01017332077026, -29.22553809384246], [-50.010859966278076, -29.225800260417135], [-50.011482238769524, -29.226680386152115], [-50.01251220703125, -29.22684892000443], [-50.01322031021118, -29.226736564133695], [-50.01354217529297, -29.22684892000443], [-50.013885498046875, -29.22735451989718], [-50.01455068588257, -29.2276541334705], [-50.01532316207886, -29.227785214133156], [-50.016117095947266, -29.227691585105532], [-50.017232894897454, -29.228215906557704], [-50.017855167388916, -29.224826495471046], [-50.010902881622314, -29.221530606953834], [-50.00834941864013, -29.225856438881536]]]}}, {"type": "Feature", "properties": {"cod_imovel": "SC-4213807-B78FB5D393D044B5AE6AE2B1AB6082DD", "municipio": "Praia Grande", "num_area": 6.1262, "mod_fiscal": 0.3403, "des_condic": "Aguardando analise", "ind_status": "AT", "dat_atuali": "02/05/2015"}, "geometry": {"type": "Polygon", "coordinates": [[[-50.01779079437256, -29.22825335798727], [-50.01976490020752, -29.228403163568572], [-50.02195358276367, -29.22581898657536], [-50.020151138305664, -29.225444462760287], [-50.01779079437256, -29.22825335798727]]]}}, {"type": "Feature", "properties": {"cod_imovel": "SC-4213807-75E35A09F3B64FCF9145DDAD276FE756", "municipio": "Praia Grande", "num_area": 19.8607, "mod_fiscal": 1.1034, "des_condic": "Aguardando analise", "ind_status": "AT", "dat_atuali": "22/02/2016"}, "geometry": {"type": "Polygon", "coordinates": [[[-50.06462602791678, -29.24252265905544], [-50.06414450575988, -29.24301007388797], [-50.06455964249616, -29.24327603750096], [-50.06487904810359, -29.24386759155315], [-50.06497298130264, -29.24417144021589], [-50.06484756869247, -29.24463632371269], [-50.06457277514214, -29.2450203401614], [-50.06354299368805, -29.24538365015215], [-50.06310823634225, -29.2462656833654], [-50.06317120044195, -29.24682518834797], [-50.06459375214012, -29.24900118609073], [-50.06585895218334, -29.24951798122045], [-50.06694531244245, -29.24941261897657], [-50.06710297576374, -29.24893398800651], [-50.06678209931365, -29.24759075797105], [-50.06713836671379, -29.24714496947075], [-50.06775942430623, -29.24553085692861], [-50.06661515964913, -29.2446715063968], [-50.06606663039875, -29.24376704555269], [-50.06462602791678, -29.24252265905544]]]}}, {"type": "Feature", "properties": {"cod_imovel": "SC-4213807-25621988A199436A81A3695FFC371C9E", "municipio": "Praia Grande", "num_area": 4.0684, "mod_fiscal": 0.226, "des_condic": "Aguardando analise", "ind_status": "AT", "dat_atuali": "08/04/2016"}, "geometry": {"type": "Polygon", "coordinates": [[[-50.04128694534302, -29.228459340605042], [-50.040407180786126, -29.22838443788289], [-50.039870738983154, -29.228103552186806], [-50.03939867019653, -29.23078129781603], [-50.04072904586792, -29.23115580211237], [-50.04128694534302, -29.228459340605042]]]}}, {"type": "Feature", "properties": {"cod_imovel": "SC-4213807-3EC71CFF49514C828491DD5304341FFA", "municipio": "Praia Grande", "num_area": 24.2978, "mod_fiscal": 1.3499, "des_condic": "Aguardando analise", "ind_status": "AT", "dat_atuali": "09/06/2015"}, "geometry": {"type": "Polygon", "coordinates": [[[-50.00560283660889, -29.20815869871336], [-50.00532388687134, -29.198587536180366], [-50.003135204315186, -29.198681191806497], [-50.00328540802002, -29.20903897602211], [-50.00560283660889, -29.20815869871336]]]}}, {"type": "Feature", "properties": {"cod_imovel": "SC-4213807-3EFE6ACD5BFE46EF85A7BAC29A3D88C9", "municipio": "Praia Grande", "num_area": 4.3145, "mod_fiscal": 0.2397, "des_condic": "Aguardando analise", "ind_status": "AT", "dat_atuali": "26/02/2016"}, "geometry": {"type": "Polygon", "coordinates": [[[-50.0170612335205, -29.219114803127916], [-50.01658916473388, -29.219189712629614], [-50.01667499542236, -29.221287156436627], [-50.017726421356194, -29.2222422282249], [-50.01781225204468, -29.221998779399073], [-50.01879930496216, -29.222410769380733], [-50.0191855430603, -29.221586787760256], [-50.01798391342163, -29.22109988641426], [-50.0181770324707, -29.220837707807753], [-50.0170612335205, -29.219114803127916]]]}}, {"type": "Feature", "properties": {"cod_imovel": "SC-4213807-4DADE77035294B3CA4A1EE2481F7760C", "municipio": "Praia Grande", "num_area": 6.064, "mod_fiscal": 0.3369, "des_condic": "Aguardando analise", "ind_status": "AT", "dat_atuali": "16/03/2016"}, "geometry": {"type": "Polygon", "coordinates": [[[-50.03542900085449, -29.20179051002209], [-50.03615856170654, -29.205405442154518], [-50.03774642944336, -29.205161953320978], [-50.03701686859131, -29.201696857236474], [-50.03596544265747, -29.201902893251916], [-50.03542900085449, -29.20179051002209]]]}}, {"type": "Feature", "properties": {"cod_imovel": "SC-4213807-5FC89FF38DD8487FB74D06E09A043DF9", "municipio": "Praia Grande", "num_area": 24.8038, "mod_fiscal": 1.378, "des_condic": "Aguardando analise", "ind_status": "AT", "dat_atuali": "05/05/2016"}, "geometry": {"type": "Polygon", "coordinates": [[[-50.021138191223145, -29.199898707160667], [-50.02457141876221, -29.198924696034034], [-50.02298355102538, -29.19272452368143], [-50.01955032348633, -29.193492541204236], [-50.021138191223145, -29.199898707160667]]]}}, {"type": "Feature", "properties": {"cod_imovel": "SC-4213807-7318FE5FEBA04A1BB7AFC5A5C0C8BE9D", "municipio": "Praia Grande", "num_area": 14.1158, "mod_fiscal": 0.7842, "des_condic": "Aguardando analise", "ind_status": "AT", "dat_atuali": "04/05/2016"}, "geometry": {"type": "Polygon", "coordinates": [[[-50.00521659851074, -29.225219747813824], [-50.00545263290405, -29.22581898657536], [-50.005924701690674, -29.22621223510707], [-50.006418228149414, -29.22609987853781], [-50.006911754608154, -29.22576280809041], [-50.00701904296875, -29.225201021546013], [-50.007426738739014, -29.22495757975308], [-50.00781297683716, -29.22514484272208], [-50.008177757263184, -29.225856438881536], [-50.01058101654053, -29.22222350141269], [-50.009658336639404, -29.22181151067777], [-50.00897169113159, -29.22181151067777], [-50.007426738739014, -29.222279681839048], [-50.00652551651001, -29.222242228224886], [-50.005731582641594, -29.22190514508122], [-50.0061821937561, -29.225126116440606], [-50.00521659851074, -29.225219747813824]]]}}, {"type": "Feature", "properties": {"cod_imovel": "SC-4213807-B2E50A5A15DE48E289870BDD8C511E1B", "municipio": "Praia Grande", "num_area": 10.0801, "mod_fiscal": 0.56, "des_condic": "Aguardando analise", "ind_status": "AT", "dat_atuali": "28/09/2015"}, "geometry": {"type": "Polygon", "coordinates": [[[-50.021374225616455, -29.20323275211636], [-50.020623207092285, -29.199355509789047], [-50.0181770324707, -29.19982378355638], [-50.01892805099487, -29.20340132454314], [-50.021374225616455, -29.20323275211636]]]}}, {"type": "Feature", "properties": {"cod_imovel": "SC-4213807-C34812AB3B9F4362B71C61FDF7AB89F6", "municipio": "Praia Grande", "num_area": 23.7301, "mod_fiscal": 1.3183, "des_condic": "Aguardando analise", "ind_status": "AT", "dat_atuali": "12/04/2016"}, "geometry": {"type": "Polygon", "coordinates": [[[-50.038089752197266, -29.200179670189037], [-50.03901243209839, -29.205274332854493], [-50.04278898239136, -29.205330522575043], [-50.04251003265381, -29.20207146786566], [-50.0417160987854, -29.199561550510186], [-50.04075050354003, -29.199392971769136], [-50.038089752197266, -29.200179670189037]]]}}, {"type": "Feature", "properties": {"cod_imovel": "SC-4213807-D116A36CC4B041D4B582360068254506", "municipio": "Praia Grande", "num_area": 24.7112, "mod_fiscal": 1.3728, "des_condic": "Aguardando analise", "ind_status": "AT", "dat_atuali": "05/11/2014"}, "geometry": {"type": "Polygon", "coordinates": [[[-50.03161894496234, -29.21438284516678], [-50.03059143793735, -29.21549875811906], [-50.03284364865878, -29.21669392937587], [-50.03225872834641, -29.21754107518041], [-50.03524238297615, -29.21913053647593], [-50.038862228393555, -29.214882327303688], [-50.03557080455676, -29.21316162672907], [-50.03379556929885, -29.21555069390251], [-50.03161894496234, -29.21438284516678]]]}}, {"type": "Feature", "properties": {"cod_imovel": "SC-4213807-F4F7EB6EFEF846FD88970EF82090E848", "municipio": "Praia Grande", "num_area": 24.3727, "mod_fiscal": 1.354, "des_condic": "Aguardando analise", "ind_status": "AT", "dat_atuali": "13/10/2014"}, "geometry": {"type": "Polygon", "coordinates": [[[-49.99957323074341, -29.210893152424187], [-50.00148296356201, -29.21072459231942], [-50.0013542175293, -29.206716525930677], [-50.00079631805419, -29.20252099881366], [-50.000410079956055, -29.19795067565382], [-49.99895095825195, -29.197875750625915], [-49.99957323074341, -29.210893152424187]]]}}, {"type": "Feature", "properties": {"cod_imovel": "SC-4213807-8D67FE82DE2343A0AA4E94CD3EA04959", "municipio": "Praia Grande", "num_area": 10.7381, "mod_fiscal": 0.5966, "des_condic": "Aguardando analise", "ind_status": "AT", "dat_atuali": "28/06/2018"}, "geometry": {"type": "Polygon", "coordinates": [[[-50.01842170377288, -29.19954705147479], [-50.01584382491559, -29.20021748467164], [-50.01607811271617, -29.20441691364634], [-50.01842556561239, -29.20337147310793], [-50.01842170377288, -29.19954705147479]]]}}, {"type": "Feature", "properties": {"cod_imovel": "SC-4213807-CB337EDC22BC4CD5B685802774696F0F", "municipio": "Praia Grande", "num_area": 10.0147, "mod_fiscal": 0.5564, "des_condic": "Aguardando analise", "ind_status": "AT", "dat_atuali": "04/03/2016"}, "geometry": {"type": "Polygon", "coordinates": [[[-50.00980856396402, -29.19351214664346], [-50.009658336639404, -29.191769176784263], [-50.00944375991821, -29.191750444403183], [-50.00581782420665, -29.19152221591193], [-50.00445104128171, -29.19305594493148], [-50.00445695513905, -29.19368853312836], [-50.00749358224323, -29.19377829990062], [-50.00747078997993, -29.19324804414742], [-50.00980856396402, -29.19351214664346]]]}}, {"type": "Feature", "properties": {"cod_imovel": "SC-4213807-5EC2894E74BE499BB4DA7F05F41A3C42", "municipio": "Praia Grande", "num_area": 5.3838, "mod_fiscal": 0.2991, "des_condic": "Aguardando analise", "ind_status": "AT", "dat_atuali": "09/09/2019"}, "geometry": {"type": "Polygon", "coordinates": [[[-50.04408715814169, -29.23939389740274], [-50.04449594030163, -29.23911871720544], [-50.04648687511449, -29.23898397285124], [-50.04655915973947, -29.23874849599495], [-50.04625976644753, -29.23801611443854], [-50.04651057554346, -29.23710085237871], [-50.04465322025875, -29.23647832444788], [-50.04433754968747, -29.23720623534686], [-50.04408715814169, -29.23939389740274]]]}}, {"type": "Feature", "properties": {"cod_imovel": "SC-4213807-2B63111650FB40EB8B10A0BF43AD9D76", "municipio": "Praia Grande", "num_area": 13.1817, "mod_fiscal": 0.7323, "des_condic": "Aguardando analise", "ind_status": "AT", "dat_atuali": "20/04/2016"}, "geometry": {"type": "Polygon", "coordinates": [[[-50.00224471092224, -29.223908900798932], [-50.005120038986206, -29.221137340446134], [-50.00284552574158, -29.219639168489437], [-49.99934792518616, -29.221418245248575], [-50.00224471092224, -29.223908900798932]]]}}, {"type": "Feature", "properties": {"cod_imovel": "SC-4213807-F5339707634242F5B9C02732B0263EC2", "municipio": "Praia Grande", "num_area": 14.2175, "mod_fiscal": 0.7899, "des_condic": "Aguardando analise", "ind_status": "AT", "dat_atuali": "03/03/2016"}, "geometry": {"type": "Polygon", "coordinates": [[[-50.00658988952637, -29.20057301713519], [-50.007920265197754, -29.20057301713519], [-50.00779151916504, -29.195365730550723], [-50.00478744506836, -29.195365730550723], [-50.00470161437988, -29.19723888567802], [-50.00658988952637, -29.20057301713519]]]}}, {"type": "Feature", "properties": {"cod_imovel": "SC-4213807-84785AC63F8349189BDD32334F11A77A", "municipio": "Praia Grande", "num_area": 7.5037, "mod_fiscal": 0.4169, "des_condic": "Aguardando analise", "ind_status": "AT", "dat_atuali": "04/03/2016"}, "geometry": {"type": "Polygon", "coordinates": [[[-50.00458041971758, -29.19604651892512], [-50.00777474017057, -29.19590145788595], [-50.0075340270996, -29.19379225379914], [-50.00446257331152, -29.19370817453508], [-50.00458041971758, -29.19604651892512]]]}}, {"type": "Feature", "properties": {"cod_imovel": "SC-4213807-46838D6E55D8423EBE61699F6754EA71", "municipio": "Praia Grande", "num_area": 15.2426, "mod_fiscal": 0.8468, "des_condic": "Aguardando analise", "ind_status": "AT", "dat_atuali": "19/12/2016"}, "geometry": {"type": "Polygon", "coordinates": [[[-50.01982927322388, -29.21712968137327], [-50.010859966278076, -29.2120356080483], [-50.00909269846363, -29.21233915723851], [-50.00910043716431, -29.212485095294067], [-50.01789808273315, -29.217672784543666], [-50.01982927322388, -29.21712968137327]]]}}, {"type": "Feature", "properties": {"cod_imovel": "SC-4213807-843B4EC414654AF09D1BC6C1669150D6", "municipio": "Praia Grande", "num_area": 14.9077, "mod_fiscal": 0.8282, "des_condic": "Aguardando analise", "ind_status": "AT", "dat_atuali": "05/10/2015"}, "geometry": {"type": "Polygon", "coordinates": [[[-50.001654624938965, -29.22593134345279], [-49.99931573867797, -29.223702909028336], [-49.99399423599243, -29.226586756114322], [-49.995625019073486, -29.227092357301444], [-49.99629421168169, -29.22784056949639], [-49.99716997146606, -29.22830953510593], [-49.997406005859375, -29.228103552186806], [-49.99755114153707, -29.22732955527769], [-49.99747037887573, -29.226436947875783], [-49.99781370162964, -29.226324591553066], [-49.9995157647334, -29.22638187277071], [-50.00000238418579, -29.226830194034545], [-50.001654624938965, -29.22593134345279]]]}}, {"type": "Feature", "properties": {"cod_imovel": "SC-4213807-67DAC5E3A0B7482C8BA28EBE72240999", "municipio": "Praia Grande", "num_area": 19.0586, "mod_fiscal": 1.0588, "des_condic": "Aguardando analise", "ind_status": "AT", "dat_atuali": "19/11/2015"}, "geometry": {"type": "Polygon", "coordinates": [[[-50.03628730773926, -29.22742942337269], [-50.03740310668945, -29.223684182483193], [-50.03315448760986, -29.222560583508642], [-50.03165245056152, -29.226043700206954], [-50.03628730773926, -29.22742942337269]]]}}, {"type": "Feature", "properties": {"cod_imovel": "SC-4213807-FEA1FB9AB58348F99FA0C1440F4803F3", "municipio": "Praia Grande", "num_area": 20.381, "mod_fiscal": 1.1323, "des_condic": "Aguardando analise", "ind_status": "AT", "dat_atuali": "19/11/2015"}, "geometry": {"type": "Polygon", "coordinates": [[[-50.019893646240234, -29.22031334858156], [-50.01847743988037, -29.221024978309455], [-50.02345561981201, -29.223422010491653], [-50.02573013305664, -29.223983806794628], [-50.02547264099121, -29.22203623310224], [-50.02542972564697, -29.2193769861442], [-50.019893646240234, -29.22031334858156]]]}}, {"type": "Feature", "properties": {"cod_imovel": "SC-4213807-1A9D9215FF3C4B908D0CBAF06A2C7328", "municipio": "Praia Grande", "num_area": 4.4992, "mod_fiscal": 0.25, "des_condic": "Aguardando analise", "ind_status": "AT", "dat_atuali": "03/07/2019"}, "geometry": {"type": "Polygon", "coordinates": [[[-50.04929844257548, -29.23321916570941], [-50.04943290354999, -29.23435468158596], [-50.05012572466067, -29.23350074148107], [-50.05074073368936, -29.23312439419169], [-50.0506359695888, -29.23042531855851], [-50.04952430286267, -29.23028119160725], [-50.04929844257548, -29.23321916570941]]]}}, {"type": "Feature", "properties": {"cod_imovel": "SC-4213807-0AB54A39EA0C4B5188D251C73D7D8C40", "municipio": "Praia Grande", "num_area": 44.5987, "mod_fiscal": 2.4777, "des_condic": "Aguardando analise", "ind_status": "AT", "dat_atuali": "26/03/2018"}, "geometry": {"type": "Polygon", "coordinates": [[[-50.04892603211539, -29.23441316576396], [-50.05069017487138, -29.22982871204731], [-50.04955400014385, -29.22895722766383], [-50.05018376305244, -29.22572745968832], [-50.04663401242289, -29.226052468985], [-50.04463052519812, -29.23650999566443], [-50.04652333353819, -29.23703416036622], [-50.04892603211539, -29.23441316576396]]]}}, {"type": "Feature", "properties": {"cod_imovel": "SC-4213807-D7B4701F06774F31830D27EA67DCBD18", "municipio": "Praia Grande", "num_area": 5.6057, "mod_fiscal": 0.3114, "des_condic": "Aguardando analise", "ind_status": "AT", "dat_atuali": "17/03/2016"}, "geometry": {"type": "Polygon", "coordinates": [[[-50.051329135894775, -29.22707363137605], [-50.050084590911865, -29.226961275751883], [-50.049870014190674, -29.230594045154177], [-50.05154371261597, -29.230575319869157], [-50.051329135894775, -29.22707363137605]]]}}, {"type": "Feature", "properties": {"cod_imovel": "SC-4213807-1E94A67DC8014FB6BDC1D282BCA67DA2", "municipio": "Praia Grande", "num_area": 8.0116, "mod_fiscal": 0.4451, "des_condic": "Aguardando analise", "ind_status": "AT", "dat_atuali": "03/05/2016"}, "geometry": {"type": "Polygon", "coordinates": [[[-50.049333572387695, -29.237278753059552], [-50.052616596221924, -29.235406329867683], [-50.05227327346802, -29.23439520710342], [-50.05141496658325, -29.233777293831192], [-50.05040645599365, -29.23383346791915], [-50.04948377609253, -29.234582452813218], [-50.049140453338616, -29.235799541578942], [-50.049333572387695, -29.237278753059552]]]}}, {"type": "Feature", "properties": {"cod_imovel": "SC-4213807-267463D19D4A483694BB1677CDAEF715", "municipio": "Praia Grande", "num_area": 9.0378, "mod_fiscal": 0.5021, "des_condic": "Aguardando analise", "ind_status": "AT", "dat_atuali": "06/12/2019"}, "geometry": {"type": "Polygon", "coordinates": [[[-50.02825069858231, -29.23160314508381], [-50.02964463616536, -29.23198335906784], [-50.03159135900375, -29.22592161920401], [-50.03042068784332, -29.22563954764355], [-50.02825069858231, -29.23160314508381]]]}}, {"type": "Feature", "properties": {"cod_imovel": "SC-4213807-6684437F39A24151BD0565C4CF25B0E2", "municipio": "Praia Grande", "num_area": 10.3206, "mod_fiscal": 0.5734, "des_condic": "Aguardando analise", "ind_status": "AT", "dat_atuali": "26/02/2016"}, "geometry": {"type": "Polygon", "coordinates": [[[-50.03626585006714, -29.22742942337269], [-50.03173828125, -29.22600624796927], [-50.031116008758545, -29.228103552186806], [-50.035858154296875, -29.229245815879825], [-50.03626585006714, -29.22742942337269]]]}}, {"type": "Feature", "properties": {"cod_imovel": "SC-4213807-85827FFAB98B499AA20D3258835F5289", "municipio": "Praia Grande", "num_area": 12.3081, "mod_fiscal": 0.6838, "des_condic": "Aguardando analise", "ind_status": "AT", "dat_atuali": "05/05/2016"}, "geometry": {"type": "Polygon", "coordinates": [[[-50.01744747161865, -29.196676942732925], [-50.01538550416975, -29.19722971609826], [-50.015923976898186, -29.20255845963702], [-50.0180697441101, -29.20186543218901], [-50.01744747161865, -29.196676942732925]]]}}, {"type": "Feature", "properties": {"cod_imovel": "SC-4213807-BFCA3A373F08463D9C18EB5F47E7FB2C", "municipio": "Praia Grande", "num_area": 11.955, "mod_fiscal": 0.6642, "des_condic": "Aguardando analise", "ind_status": "AT", "dat_atuali": "28/06/2018"}, "geometry": {"type": "Polygon", "coordinates": [[[-50.00808970759395, -29.20710691936234], [-50.00810421883275, -29.20013968878126], [-50.00641951311989, -29.20031037946283], [-50.00663859446675, -29.20746446996354], [-50.00808970759395, -29.20710691936234]]]}}, {"type": "Feature", "properties": {"cod_imovel": "SC-4213807-3879768D72C445179EF8AA49A93655AB", "municipio": "Praia Grande", "num_area": 20.1765, "mod_fiscal": 1.1209, "des_condic": "Aguardando analise", "ind_status": "AT", "dat_atuali": "29/07/2015"}, "geometry": {"type": "Polygon", "coordinates": [[[-50.010645389556885, -29.212054336722915], [-50.02083778381348, -29.217747695099842], [-50.022640228271484, -29.21694240375037], [-50.011911392211914, -29.21098679680703], [-50.010645389556885, -29.212054336722915]]]}}, {"type": "Feature", "properties": {"cod_imovel": "SC-4213807-14B15D49F1EB4031B5F58F464784818C", "municipio": "Praia Grande", "num_area": 15.007, "mod_fiscal": 0.8337, "des_condic": "Aguardando analise", "ind_status": "AT", "dat_atuali": "10/02/2016"}, "geometry": {"type": "Polygon", "coordinates": [[[-50.02714913696208, -29.22696607732381], [-50.02809047698974, -29.22353436999878], [-50.02442121505737, -29.22265421722733], [-50.02326250076294, -29.22611860464125], [-50.02714913696208, -29.22696607732381]]]}}, {"type": "Feature", "properties": {"cod_imovel": "SC-4213807-1E25799B83D94900AA68867C2A69B369", "municipio": "Praia Grande", "num_area": 6.7899, "mod_fiscal": 0.3772, "des_condic": "Aguardando analise", "ind_status": "AT", "dat_atuali": "22/02/2016"}, "geometry": {"type": "Polygon", "coordinates": [[[-50.06570778869875, -29.24335507385381], [-50.06665887094364, -29.24410655922233], [-50.06687520769135, -29.24473084112793], [-50.06811096041584, -29.24459585772088], [-50.06875436265876, -29.24299673339387], [-50.06670858253047, -29.24106723735269], [-50.06570778869875, -29.24335507385381]]]}}, {"type": "Feature", "properties": {"cod_imovel": "SC-4213807-6203A82EE8D24F84A55827045CCD44BF", "municipio": "Praia Grande", "num_area": 25.8089, "mod_fiscal": 1.4338, "des_condic": "Aguardando analise", "ind_status": "AT", "dat_atuali": "02/05/2017"}, "geometry": {"type": "Polygon", "coordinates": [[[-50.0434971676441, -29.23366827909791], [-50.04521884243138, -29.22712413183665], [-50.04652261734009, -29.222953844551842], [-50.0442910194397, -29.222317135439496], [-50.04146006268507, -29.23326458262984], [-50.0434971676441, -29.23366827909791]]]}}, {"type": "Feature", "properties": {"cod_imovel": "SC-4213807-0055191C73A54F20A24F2D9ACE02A9BE", "municipio": "Praia Grande", "num_area": 14.0133, "mod_fiscal": 0.7785, "des_condic": "Aguardando analise", "ind_status": "AT", "dat_atuali": "19/01/2023"}, "geometry": {"type": "Polygon", "coordinates": [[[-50.022169820112246, -29.216422586528992], [-50.0205323861748, -29.2173098045397], [-50.023257741620036, -29.219071395649557], [-50.02406563123706, -29.21898527164163], [-50.029356479644775, -29.22145569916401], [-50.02997942672526, -29.220632453287852], [-50.02405643463135, -29.21731695865381], [-50.022169820112246, -29.216422586528992]]]}}, {"type": "Feature", "properties": {"cod_imovel": "SC-4213807-A7DE7BAFDE564B23AD9E02B5AA59C5B7", "municipio": "Praia Grande", "num_area": 7.0358, "mod_fiscal": 0.3909, "des_condic": "Aguardando analise", "ind_status": "AT", "dat_atuali": "12/04/2019"}, "geometry": {"type": "Polygon", "coordinates": [[[-50.00892680319502, -29.20787207227489], [-50.02205274672821, -29.2154533102405], [-50.02234732045888, -29.21517354881109], [-50.00931237643236, -29.20754848233051], [-50.00892680319502, -29.20787207227489]]]}}, {"type": "Feature", "properties": {"cod_imovel": "SC-4213807-07A249B37461450EBCA6E182E134D324", "municipio": "Praia Grande", "num_area": 23.5783, "mod_fiscal": 1.3099, "des_condic": "Aguardando analise", "ind_status": "AT", "dat_atuali": "06/11/2019"}, "geometry": {"type": "Polygon", "coordinates": [[[-50.01364813326507, -29.20224615495235], [-50.01317309062942, -29.19642148271296], [-50.01003213974467, -29.19562244548889], [-50.01030752521516, -29.20327768622823], [-50.01364813326507, -29.20224615495235]]]}}, {"type": "Feature", "properties": {"cod_imovel": "SC-4213807-09BA022264E0482E84AC58CD158D20C7", "municipio": "Praia Grande", "num_area": 4.5142, "mod_fiscal": 0.2508, "des_condic": "Aguardando analise", "ind_status": "AT", "dat_atuali": "27/09/2019"}, "geometry": {"type": "Polygon", "coordinates": [[[-50.04036653074296, -29.23828026330017], [-50.04123964776857, -29.23474982396478], [-50.04001322186602, -29.23433919537948], [-50.03935877731797, -29.23749770251287], [-50.04036653074296, -29.23828026330017]]]}}, {"type": "Feature", "properties": {"cod_imovel": "SC-4213807-83C500ADEA8747B1A8B28A49438AD5BB", "municipio": "Praia Grande", "num_area": 8.1782, "mod_fiscal": 0.4543, "des_condic": "Aguardando analise", "ind_status": "AT", "dat_atuali": "11/08/2020"}, "geometry": {"type": "Polygon", "coordinates": [[[-50.0384975501, -29.2142780491], [-50.0397920172, -29.2128759189], [-50.0363480722, -29.2105484368], [-50.035209892, -29.2119897432], [-50.0384975501, -29.2142780491]]]}}, {"type": "Feature", "properties": {"cod_imovel": "SC-4213807-AD9A81529E0E488ABC61E094051BB523", "municipio": "Praia Grande", "num_area": 81.8454, "mod_fiscal": 4.547, "des_condic": "Aguardando analise", "ind_status": "AT", "dat_atuali": "29/10/2019"}, "geometry": {"type": "Polygon", "coordinates": [[[-50.06939649581909, -29.244206421055253], [-50.068323612213135, -29.24519872429051], [-50.06920590401743, -29.24593223294107], [-50.07033394364212, -29.24786057658128], [-50.07131715968185, -29.24843613556626], [-50.07558419297658, -29.24968415734624], [-50.07718563079834, -29.250609416034088], [-50.0786018371582, -29.247164579643098], [-50.079867839813225, -29.24458087623673], [-50.08220672607422, -29.240798815937655], [-50.07941722869873, -29.239600510250952], [-50.078301429748535, -29.241304346941334], [-50.07611274719238, -29.240143494253534], [-50.072057247161865, -29.24370090438679], [-50.06939649581909, -29.244206421055253]]]}}, {"type": "Feature", "properties": {"cod_imovel": "SC-4213807-CB9E4392426C4956884C04C1C4AFC75F", "municipio": "Praia Grande", "num_area": 4.5511, "mod_fiscal": 0.2528, "des_condic": "Aguardando analise", "ind_status": "AT", "dat_atuali": "15/06/2020"}, "geometry": {"type": "Polygon", "coordinates": [[[-50.04191955356854, -29.23474847608417], [-50.04089859240926, -29.23442374423404], [-50.04067987587748, -29.23545301886389], [-50.040263605915584, -29.238362298715412], [-50.04102945327759, -29.23915114200145], [-50.04191955356854, -29.23474847608417]]]}}, {"type": "Feature", "properties": {"cod_imovel": "SC-4213807-C98E08CABA784523ADBFC7EAB7956C3B", "municipio": "Praia Grande", "num_area": 4.1877, "mod_fiscal": 0.2326, "des_condic": "Aguardando analise", "ind_status": "AT", "dat_atuali": "19/03/2019"}, "geometry": {"type": "Polygon", "coordinates": [[[-50.00318433872127, -29.20891113992492], [-50.00360830328621, -29.20950097559492], [-50.00794719742225, -29.20804891973101], [-50.00792962019977, -29.20724800185343], [-50.00611405757373, -29.20772201596473], [-50.00318433872127, -29.20891113992492]]]}}, {"type": "Feature", "properties": {"cod_imovel": "SC-4213807-AD71F0F9C32C4DD6958067126ABD3050", "municipio": "Praia Grande", "num_area": 24.2302, "mod_fiscal": 1.3461, "des_condic": "Aguardando analise", "ind_status": "AT", "dat_atuali": "13/05/2019"}, "geometry": {"type": "Polygon", "coordinates": [[[-50.02616312852214, -29.23078179995449], [-50.02722589057142, -29.22656374894071], [-50.02612051914672, -29.22613235372166], [-50.02408609973139, -29.22579265448611], [-50.0225107980566, -29.22581464989666], [-50.02132872340192, -29.22551545728852], [-50.0202307751005, -29.22831258134943], [-50.02137348921329, -29.22854350624642], [-50.02200946537727, -29.22896233136259], [-50.02297530665407, -29.22917604239969], [-50.02616312852214, -29.23078179995449]]]}}, {"type": "Feature", "properties": {"cod_imovel": "SC-4213807-3438DC868E414EBB95F8AAADB2B6879E", "municipio": "Praia Grande", "num_area": 20.4403, "mod_fiscal": 1.1356, "des_condic": "Aguardando analise", "ind_status": "AT", "dat_atuali": "25/06/2020"}, "geometry": {"type": "Polygon", "coordinates": [[[-50.02335011321752, -29.20785936819363], [-50.01877190006407, -29.21042672536717], [-50.02454757705216, -29.21359887479125], [-50.02540298495604, -29.21345013714102], [-50.02580717768552, -29.21303652571006], [-50.0268769713949, -29.21309206142698], [-50.02664728799581, -29.21176861347574], [-50.0245750240238, -29.21187872313697], [-50.02335011321752, -29.20785936819363]]]}}, {"type": "Feature", "properties": {"cod_imovel": "SC-4213807-016DC7D32FB24B7A91E3EBD1CD291191", "municipio": "Praia Grande", "num_area": 9.0771, "mod_fiscal": 0.5043, "des_condic": "Aguardando analise", "ind_status": "AT", "dat_atuali": "09/11/2020"}, "geometry": {"type": "Polygon", "coordinates": [[[-50.03924539936396, -29.23693613084853], [-50.04030252890468, -29.2382972002829], [-50.04141684092637, -29.23062657136316], [-50.04041145175994, -29.23018636816899], [-50.03924539936396, -29.23693613084853]]]}}, {"type": "Feature", "properties": {"cod_imovel": "SC-4213807-0E1A6E2E286B41EBAC0CCA97F5D86DDA", "municipio": "Praia Grande", "num_area": 13.7984, "mod_fiscal": 0.7666, "des_condic": "Aguardando analise", "ind_status": "AT", "dat_atuali": "03/12/2020"}, "geometry": {"type": "Polygon", "coordinates": [[[-50.003990668225, -29.197766223634], [-50.004237332633, -29.208387979114], [-50.005437208636, -29.207899991995], [-50.005295395869, -29.198528056288], [-50.004807742989, -29.19775871049], [-50.003990668225, -29.197766223634]]]}}, {"type": "Feature", "properties": {"cod_imovel": "SC-4213807-18DF9DE4AA3341908C5F7843F9D5003A", "municipio": "Praia Grande", "num_area": 13.7983, "mod_fiscal": 0.7666, "des_condic": "Aguardando analise", "ind_status": "AT", "dat_atuali": "03/12/2020"}, "geometry": {"type": "Polygon", "coordinates": [[[-50.003990668225, -29.197766223634], [-50.002696630244, -29.197778110816], [-50.003190669627, -29.208813642094], [-50.004237332633, -29.208387979114], [-50.003990668225, -29.197766223634]]]}}, {"type": "Feature", "properties": {"cod_imovel": "SC-4213807-89D828C55715402C8A101278E0BB56C4", "municipio": "Praia Grande", "num_area": 16.3766, "mod_fiscal": 0.9098, "des_condic": "Aguardando analise", "ind_status": "AT", "dat_atuali": "15/10/2020"}, "geometry": {"type": "Polygon", "coordinates": [[[-50.02830505371094, -29.2156127227836], [-50.0272652818558, -29.21716379869861], [-50.026833703614614, -29.217434198076276], [-50.02759051441765, -29.21773288519217], [-50.02849817276001, -29.21697985930233], [-50.02929146025075, -29.21604850874898], [-50.03212160395296, -29.21758687539693], [-50.032875537872314, -29.216848764810535], [-50.030353055942356, -29.21539342503274], [-50.0327091550064, -29.213404034880977], [-50.030634282551276, -29.21217952805059], [-50.029635429382324, -29.2130469515785], [-50.02860334529905, -29.21271559444967], [-50.02743688014728, -29.213456053987297], [-50.02894331222066, -29.21429743495281], [-50.02830505371094, -29.2156127227836]]]}}, {"type": "Feature", "properties": {"cod_imovel": "SC-4213807-C665D2CC0B5B4D7DBA4602D9C5F2938E", "municipio": "Praia Grande", "num_area": 6.544, "mod_fiscal": 0.3636, "des_condic": "Aguardando analise", "ind_status": "AT", "dat_atuali": "17/11/2020"}, "geometry": {"type": "Polygon", "coordinates": [[[-49.99919610717708, -29.198238563927315], [-49.99949272659156, -29.20335218148809], [-50.00015258697147, -29.20342006373167], [-50.00069298671689, -29.20327883380097], [-50.00029313195537, -29.198174746106716], [-49.99919610717708, -29.198238563927315]]]}}, {"type": "Feature", "properties": {"cod_imovel": "SC-4213807-D9B8FB371E774BB8AC6EC00A0B9D917F", "municipio": "Praia Grande", "num_area": 7.1526, "mod_fiscal": 0.3974, "des_condic": "Aguardando analise", "ind_status": "AT", "dat_atuali": "22/09/2020"}, "geometry": {"type": "Polygon", "coordinates": [[[-50.02221958576757, -29.20592152038378], [-50.02104303309291, -29.206843580377], [-50.02508198231759, -29.20917554783642], [-50.02601754086177, -29.20912326672209], [-50.02561103058985, -29.20833116410536], [-50.0258742085298, -29.20801220044345], [-50.02221958576757, -29.20592152038378]]]}}]}