{"type": "FeatureCollection", "features": [{"type": "Feature", "properties": {"cod_imovel": "SC-4213807-06467D08C2E5423BA3AB31F7E8044C4C", "municipio": "Praia Grande", "num_area": 34.0112, "mod_fiscal": 1.8895, "des_condic": "Analisado, aguardando atendimento a notificacao", "ind_status": "AT", "dat_atuali": "04/05/2016"}, "geometry": {"type": "Polygon", "coordinates": [[[-50.09493112564087, -29.292331397455857], [-50.09958744049072, -29.305935555984917], [-50.102076530456536, -29.305093535526805], [-50.096325874328606, -29.29126469492141], [-50.09493112564087, -29.292331397455857]]]}}, {"type": "Feature", "properties": {"cod_imovel": "SC-4213807-79BD3A2D774648F592B131DDBB939983", "municipio": "Praia Grande", "num_area": 48.3769, "mod_fiscal": 2.6876, "des_condic": "Aguardando analise", "ind_status": "AT", "dat_atuali": "25/09/2015"}, "geometry": {"type": "Polygon", "coordinates": [[[-50.1128222804228, -29.26982826702868], [-50.10952184419961, -29.27509366199098], [-50.1186203956604, -29.277134513881574], [-50.12048721313476, -29.273409809625782], [-50.1128222804228, -29.26982826702868]]]}}, {"type": "Feature", "properties": {"cod_imovel": "SC-4213807-D2843EE258094D0FB03B78ED02929C83", "municipio": "Praia Grande", "num_area": 69.8694, "mod_fiscal": 3.8816, "des_condic": "Em analise", "ind_status": "AT", "dat_atuali": "09/10/2019"}, "geometry": {"type": "Polygon", "coordinates": [[[-50.107784271240234, -29.252668773696456], [-50.108814239501946, -29.25334273629128], [-50.109264850616455, -29.25397925244258], [-50.10980129241943, -29.25409157841109], [-50.10984420776367, -29.255626687618587], [-50.110015869140625, -29.25622574837679], [-50.110509395599365, -29.25545820114818], [-50.1112174987793, -29.255177389747434], [-50.1115608215332, -29.253642273797045], [-50.11192560195923, -29.25306191908306], [-50.11190414428711, -29.25233179073394], [-50.11246204376221, -29.251695264331634], [-50.1126766204834, -29.250010322384764], [-50.112247467041016, -29.248512572913423], [-50.11117458343506, -29.24693991237147], [-50.1106595993042, -29.246602910539078], [-50.11070251464844, -29.245779123609523], [-50.11031627655029, -29.245517008195677], [-50.10937213897705, -29.244318757753565], [-50.101990699768066, -29.24338261483294], [-50.10417938232422, -29.247351801992636], [-50.10568141937255, -29.24974821781004], [-50.106754302978516, -29.250983847783395], [-50.107784271240234, -29.252668773696456]]]}}, {"type": "Feature", "properties": {"cod_imovel": "SC-4213807-990B81BA306C4B26B69A2141A58EE33B", "municipio": "Praia Grande", "num_area": 99.3037, "mod_fiscal": 5.4113, "des_condic": "Aguardando analise", "ind_status": "AT", "dat_atuali": "12/12/2025"}, "geometry": {"type": "Polygon", "coordinates": [[[-50.126317457222, -29.244752057778], [-50.126482953889, -29.245127373056], [-50.1263240875, -29.245594836389], [-50.125547908611, -29.246118894167], [-50.124382245833, -29.246601706944], [-50.123362954722, -29.247968861111], [-50.123895075278, -29.248328198889], [-50.142190991944, -29.252192154722], [-50.1446509375, -29.252390375556], [-50.146175721944, -29.252967376389], [-50.152049575833, -29.256575072778], [-50.152273815, -29.254950063611], [-50.152029363611, -29.253913514444], [-50.151569815556, -29.253393090278], [-50.146093828056, -29.252031104444], [-50.144814851389, -29.251220841944], [-50.142637334444, -29.248577813056], [-50.140803670278, -29.247339134722], [-50.138573380278, -29.246924945556], [-50.135503053611, -29.246716884722], [-50.132041380556, -29.246227058333], [-50.130689869722, -29.245789839722], [-50.129516441111, -29.245173878889], [-50.128504333889, -29.245147990556], [-50.126317457222, -29.244752057778]]]}}, {"type": "Feature", "properties": {"cod_imovel": "SC-4213807-4E27B64178FF470D99E29C4C6009174D", "municipio": "Praia Grande", "num_area": 12.9383, "mod_fiscal": 0.7188, "des_condic": "Aguardando analise", "ind_status": "AT", "dat_atuali": "05/11/2025"}, "geometry": {"type": "Polygon", "coordinates": [[[-50.08324069216681, -29.24858052370157], [-50.08377499631977, -29.25024512921495], [-50.0868101283743, -29.25100927345188], [-50.08820271998631, -29.25165673296497], [-50.08833226214912, -29.25193705532764], [-50.09106561805627, -29.25223503153828], [-50.09337303323006, -29.25195551015269], [-50.09138690593591, -29.25042831526992], [-50.08903274974766, -29.25077324921751], [-50.08891965639749, -29.25059500638876], [-50.08907082662091, -29.25012078803427], [-50.08705686629905, -29.2497973564778], [-50.08534937898558, -29.24984862830499], [-50.08427429944787, -29.2496026553875], [-50.08324069216681, -29.24858052370157]]]}}, {"type": "Feature", "properties": {"cod_imovel": "SC-4213807-BB270A8A29324D3B9C957613E3B8948D", "municipio": "Praia Grande", "num_area": 4.9888, "mod_fiscal": 0.2772, "des_condic": "Aguardando analise", "ind_status": "AT", "dat_atuali": "29/01/2016"}, "geometry": {"type": "Polygon", "coordinates": [[[-50.11440145997027, -29.25633864595442], [-50.11264043393722, -29.25670898870205], [-50.11173004793618, -29.25623711970124], [-50.11153078480692, -29.25595504519658], [-50.11060540984236, -29.25638375266568], [-50.10992685168204, -29.25823158875369], [-50.11073585808499, -29.25832027381637], [-50.11216092884145, -29.25761670735388], [-50.11298274097752, -29.25701597597683], [-50.11453987298953, -29.25661287714303], [-50.11440145997027, -29.25633864595442]]]}}, {"type": "Feature", "properties": {"cod_imovel": "SC-4213807-C4B52EFFFB4F4D1B8954C7D586A5D0BA", "municipio": "Praia Grande", "num_area": 26.394, "mod_fiscal": 1.4663, "des_condic": "Aguardando analise", "ind_status": "AT", "dat_atuali": "30/09/2022"}, "geometry": {"type": "Polygon", "coordinates": [[[-50.118480920791626, -29.25747066029302], [-50.11713981628418, -29.258977638654834], [-50.11731790813179, -29.26021405745391], [-50.11802085861149, -29.25998286083979], [-50.120315551757805, -29.260643713109555], [-50.12172902938008, -29.25948948352854], [-50.1232880849007, -29.25891170667762], [-50.12439799585356, -29.25829984526773], [-50.12476801872253, -29.258350513711132], [-50.1264202594757, -29.25713369314968], [-50.12666702270508, -29.25558924620469], [-50.12383950700744, -29.255999881640083], [-50.122300386428826, -29.256543997977495], [-50.12100273205372, -29.25666102495034], [-50.118480920791626, -29.25747066029302]]]}}, {"type": "Feature", "properties": {"cod_imovel": "SC-4213807-E4D8546E6B234E2E81887069DE47A9BE", "municipio": "Praia Grande", "num_area": 251.1624, "mod_fiscal": 13.5059, "des_condic": "Aguardando analise", "ind_status": "AT", "dat_atuali": "07/04/2022"}, "geometry": {"type": "Polygon", "coordinates": [[[-50.13556432645284, -29.24633106045263], [-50.13960092077568, -29.24644606708331], [-50.14142543572727, -29.24713843540705], [-50.14236059486444, -29.24822153171822], [-50.1430387967397, -29.24840614835917], [-50.14475003806245, -29.25026311404302], [-50.14688175443862, -29.25168776301726], [-50.14724890221858, -29.25211372358004], [-50.15068794876809, -29.25290348269165], [-50.14984441951952, -29.25178620839259], [-50.15007940204211, -29.24979407511464], [-50.15326660169747, -29.25060353875453], [-50.15750455443629, -29.25293566824982], [-50.15814870703269, -29.25073652449103], [-50.16120447171977, -29.24920181884186], [-50.16511557933715, -29.24909019521949], [-50.17473328714915, -29.24984469228155], [-50.174338744137, -29.24847461289153], [-50.17227226357877, -29.24792070259353], [-50.16131412865523, -29.24618325836667], [-50.15725661505336, -29.24393693883863], [-50.15233272356212, -29.24339347460172], [-50.14871644190961, -29.24054800238363], [-50.14166448055578, -29.23797608359001], [-50.14095849435967, -29.23634093556452], [-50.13556432645284, -29.24633106045263]]]}}, {"type": "Feature", "properties": {"cod_imovel": "SC-4213807-405332EC90704ECCB6F09BC3FD20FE4B", "municipio": "Praia Grande", "num_area": 18.0746, "mod_fiscal": 1.0041, "des_condic": "Aguardando analise", "ind_status": "AT", "dat_atuali": "17/06/2019"}, "geometry": {"type": "Polygon", "coordinates": [[[-50.08295785206776, -29.2373133528655], [-50.0774252544568, -29.25074615453881], [-50.07972911942814, -29.25079711847001], [-50.07940874243734, -29.24947282730702], [-50.08144034883823, -29.24452254689437], [-50.08344248474099, -29.23751910283117], [-50.08295785206776, -29.2373133528655]]]}}, {"type": "Feature", "properties": {"cod_imovel": "SC-4213807-D173D5396E8341468E9A2AC302A7247F", "municipio": "Praia Grande", "num_area": 164.9193, "mod_fiscal": 9.1619, "des_condic": "Aguardando analise", "ind_status": "AT", "dat_atuali": "20/01/2025"}, "geometry": {"type": "Polygon", "coordinates": [[[-50.1249466477, -29.2632944286], [-50.1211045127, -29.2691016222], [-50.122626332, -29.2696537752], [-50.1254855556, -29.2719861106], [-50.1271344444, -29.2764047217], [-50.1265369444, -29.2771713884], [-50.1265825, -29.2777208328], [-50.1268355556, -29.2780122217], [-50.127365, -29.2781894439], [-50.1274519444, -29.278470555], [-50.1274408333, -29.2788886106], [-50.1271277778, -29.2793799995], [-50.1272172222, -29.2796836106], [-50.1276113889, -29.2800063884], [-50.1276291667, -29.2807027772], [-50.1280044444, -29.2810966661], [-50.1280383333, -29.2814069439], [-50.1277269444, -29.2817308328], [-50.1281794444, -29.2821974995], [-50.1280269444, -29.282423055], [-50.1281919444, -29.2829766661], [-50.1291480556, -29.2834997217], [-50.1291636111, -29.2839366661], [-50.1290152778, -29.284138055], [-50.1298269444, -29.2841963884], [-50.1301841667, -29.2839419439], [-50.1306277778, -29.2839344439], [-50.1317161111, -29.284625555], [-50.1318444444, -29.2849183328], [-50.1323763889, -29.2851711106], [-50.1323691667, -29.2854274995], [-50.1321347222, -29.2854149995], [-50.1314433333, -29.2859158328], [-50.1308858333, -29.2866469439], [-50.1308172222, -29.2874108328], [-50.1312169444, -29.2880452772], [-50.1326744444, -29.2886522217], [-50.1322372222, -29.2890163884], [-50.1323888889, -29.2893663884], [-50.1315719444, -29.2895483328], [-50.1334475, -29.2911177772], [-50.132595, -29.292135555], [-50.1326597222, -29.2926286106], [-50.1332525, -29.2923369439], [-50.1335461111, -29.2925886106], [-50.134005, -29.2926763884], [-50.1335205556, -29.2921297217], [-50.1345394444, -29.2911499995], [-50.1343711111, -29.2900874995], [-50.1349716667, -29.2886647217], [-50.1349616351, -29.2881318707], [-50.1344286187, -29.2867228575], [-50.1344765394, -29.2865027737], [-50.1348125608, -29.2863110238], [-50.1351136775, -29.2853671553], [-50.1349648248, -29.2850389462], [-50.1350787276, -29.2844389775], [-50.1348242957, -29.2841905637], [-50.1348371862, -29.283731693], [-50.1337720274, -29.2825920144], [-50.1334131856, -29.2811363986], [-50.1328971258, -29.2806314014], [-50.1326578487, -29.2796575457], [-50.1326830173, -29.2790951922], [-50.1323776383, -29.2782462556], [-50.1326297107, -29.2774554331], [-50.1332494298, -29.2766572662], [-50.1333451741, -29.2754368615], [-50.1327566233, -29.2741828916], [-50.1326147065, -29.2733770627], [-50.1329716632, -29.2725206837], [-50.1329116028, -29.2718087232], [-50.1326270858, -29.2713293276], [-50.1321233614, -29.2709952103], [-50.1322491888, -29.2704849328], [-50.1320860231, -29.2685892314], [-50.1317492968, -29.2682200888], [-50.1308848825, -29.2681312493], [-50.130468752, -29.2670881325], [-50.1299015893, -29.266629553], [-50.1288057521, -29.2665311801], [-50.1282985881, -29.2663057286], [-50.1278456518, -29.2657843733], [-50.1275691691, -29.2651328042], [-50.126940801, -29.2649004321], [-50.1256462447, -29.2637890198], [-50.1252381896, -29.2637253368], [-50.1249466477, -29.2632944286]]]}}, {"type": "Feature", "properties": {"cod_imovel": "SC-4213807-85981862551040C0BF5A47508A1945B4", "municipio": "Praia Grande", "num_area": 151.4286, "mod_fiscal": 7.8187, "des_condic": "Aguardando analise", "ind_status": "AT", "dat_atuali": "18/01/2023"}, "geometry": {"type": "Polygon", "coordinates": [[[-50.09216781566729, -29.31832516575746], [-50.09236726528295, -29.31242433484624], [-50.09161648167172, -29.29815010824198], [-50.08880678663126, -29.2979913089841], [-50.08731714626881, -29.29939126311649], [-50.08562869971034, -29.30217212794649], [-50.08323478987037, -29.3023483830402], [-50.08600415683296, -29.317094956436], [-50.0875482474658, -29.31794843297675], [-50.09161164214371, -29.31965766763696], [-50.09216781566729, -29.31832516575746]]]}}, {"type": "Feature", "properties": {"cod_imovel": "SC-4213807-306B760D838A4E9185B3679C730F6383", "municipio": "Praia Grande", "num_area": 6.0202, "mod_fiscal": 0.3345, "des_condic": "Aguardando analise", "ind_status": "AT", "dat_atuali": "26/09/2023"}, "geometry": {"type": "Polygon", "coordinates": [[[-50.082971555376, -29.248505237961], [-50.082549113287, -29.249159465554], [-50.081305723646, -29.249223763956], [-50.08035127496, -29.249087758482], [-50.079765072271, -29.248760159214], [-50.079536215542, -29.249343663011], [-50.079217719919, -29.249563708279], [-50.076691802608, -29.24982006787], [-50.076625201581, -29.250088113901], [-50.077460042304, -29.250550765713], [-50.078099832213, -29.250674886698], [-50.078899777179, -29.250642320877], [-50.081166148187, -29.249847952772], [-50.083038999105, -29.24990132694], [-50.082971555376, -29.248505237961]]]}}, {"type": "Feature", "properties": {"cod_imovel": "SC-4213807-DF838A168F67450A90F7CCDA8A533F10", "municipio": "Praia Grande", "num_area": 3172.2766, "mod_fiscal": 172.0193, "des_condic": "Aguardando analise", "ind_status": "PE", "dat_atuali": "07/06/2024"}, "geometry": {"type": "Polygon", "coordinates": [[[-50.13919238285603, -29.1928501282443], [-50.13737477257084, -29.19470524086576], [-50.13947703009606, -29.1969610187891], [-50.13765935110826, -29.19916577668991], [-50.13166178094276, -29.19682692395154], [-50.12306974272285, -29.19820005067144], [-50.12697718936106, -29.20241639907687], [-50.11718221189, -29.2065430343204], [-50.09467964748141, -29.21324205500548], [-50.09909038812217, -29.21920920238815], [-50.09781865902613, -29.22306548959265], [-50.10159222505234, -29.22547325402697], [-50.11200285326213, -29.22166012734253], [-50.112538977431, -29.22745057933259], [-50.11002587570297, -29.23115646767457], [-50.11254389929891, -29.24074600428081], [-50.10981478308716, -29.23924972533513], [-50.10187626014541, -29.23439611905778], [-50.0983326558647, -29.22681721504379], [-50.09540066105232, -29.22617184566502], [-50.09608080238018, -29.22941780579969], [-50.09536385688502, -29.2389049720371], [-50.09881595771538, -29.24209020738696], [-50.11233317985627, -29.2493521933889], [-50.12889862060547, -29.25495274007177], [-50.12792253901094, -29.27776947634926], [-50.12900673238706, -29.28213374870292], [-50.13098581117908, -29.28757015724317], [-50.13100665926126, -29.28919440784875], [-50.13025196625338, -29.29726295127442], [-50.12991430330219, -29.29930562559396], [-50.13082055304498, -29.29997649098277], [-50.13282325585093, -29.30068774241155], [-50.13432015023439, -29.29932495329577], [-50.13663880395629, -29.2991297855125], [-50.13625766854403, -29.29476280688337], [-50.1412983698043, -29.29423591070948], [-50.141659374784, -29.28908469381155], [-50.14439494869414, -29.29080107039862], [-50.14700204230059, -29.286455528242], [-50.15095617094309, -29.28562538591931], [-50.15098646611494, -29.28225942213272], [-50.14773746094784, -29.27878575100178], [-50.14419525685347, -29.27416771302817], [-50.14503693255922, -29.26727680265141], [-50.14785841132292, -29.26466309535408], [-50.14472749265335, -29.25902215185013], [-50.13874036086788, -29.25498598906764], [-50.14101294813395, -29.25310131985365], [-50.15046738596056, -29.25918727851167], [-50.15277478495749, -29.25727962740064], [-50.15308974766241, -29.2554308164029], [-50.15105796769815, -29.25349158639307], [-50.14989375139785, -29.25037127602371], [-50.15406905558492, -29.25098757792573], [-50.15791624321201, -29.25263388108126], [-50.15855677279987, -29.25090693618992], [-50.16151485906774, -29.24928455391713], [-50.16772142899656, -29.24741013381893], [-50.15262204437894, -29.24250753687065], [-50.14422424558232, -29.24042180651293], [-50.14020131883349, -29.23609079291928], [-50.14580792864795, -29.22949125968764], [-50.14741446436459, -29.22827441501654], [-50.14878781831064, -29.22305927049285], [-50.14804484448035, -29.21936315495961], [-50.14136463805905, -29.21739171080234], [-50.13940682626235, -29.21578243546047], [-50.13714008143357, -29.21175093828092], [-50.13784548867591, -29.20886528540176], [-50.1385178067838, -29.20707525957959], [-50.13965491461477, -29.2047551729332], [-50.14226480261212, -29.20227194817242], [-50.14607448002513, -29.20127101725959], [-50.1475920441665, -29.2015502122891], [-50.15128806527419, -29.20418086590432], [-50.15308330900492, -29.20151907342657], [-50.13919238285603, -29.1928501282443]]]}}, {"type": "Feature", "properties": {"cod_imovel": "SC-4213807-95AF7867358442D4A3F9A74DF41C6E46", "municipio": "Praia Grande", "num_area": 17.8137, "mod_fiscal": 0.9897, "des_condic": "Aguardando analise", "ind_status": "AT", "dat_atuali": "25/11/2024"}, "geometry": {"type": "Polygon", "coordinates": [[[-50.1222556183, -29.2673618669], [-50.1181839756, -29.2661798681], [-50.1132416322, -29.2654799683], [-50.11292633190001, -29.2666343243], [-50.1125846471, -29.2669299644], [-50.1127900204, -29.2675840959], [-50.11411771589999, -29.2677016751], [-50.1164219278, -29.2674025216], [-50.1211045127, -29.2691016222], [-50.1222556183, -29.2673618669]]]}}, {"type": "Feature", "properties": {"cod_imovel": "SC-4213807-BF3A24BAE5974A17B27480677D0E2AD4", "municipio": "Praia Grande", "num_area": 32.0443, "mod_fiscal": 1.7802, "des_condic": "Aguardando analise", "ind_status": "AT", "dat_atuali": "07/11/2024"}, "geometry": {"type": "Polygon", "coordinates": [[[-50.1181839756, -29.2661798681], [-50.1213952578, -29.2609241201], [-50.1184984965, -29.26005608], [-50.1179221298, -29.2600163527], [-50.1157621065, -29.2605530498], [-50.1150017719, -29.2596580148], [-50.1149666783, -29.2607372923], [-50.1155099881, -29.2622501243], [-50.1144016451, -29.2641568915], [-50.1132416322, -29.2654799683], [-50.1181839756, -29.2661798681]]]}}, {"type": "Feature", "properties": {"cod_imovel": "SC-4213807-1D9B849ECD6B4859AD299BFA7CADA7B9", "municipio": "Praia Grande", "num_area": 117.8133, "mod_fiscal": 6.5452, "des_condic": "Cancelado por decisao administrativa", "ind_status": "CA", "dat_atuali": "11/04/2016"}, "geometry": {"type": "Polygon", "coordinates": [[[-50.11275406381227, -29.26727643810008], [-50.12248535537049, -29.27009618478711], [-50.12448621124444, -29.27129079649199], [-50.12677155525203, -29.27018836451539], [-50.13069338856177, -29.26788676407727], [-50.12418804905396, -29.26268676804721], [-50.12277143086433, -29.26206061749299], [-50.12185113680508, -29.26123772922125], [-50.12052714023403, -29.2606578802982], [-50.1184328694234, -29.26026425580264], [-50.11585596031279, -29.26056563026274], [-50.11535836356518, -29.26286026760004], [-50.113254854583, -29.26620622997969], [-50.11275406381227, -29.26727643810008]]]}}, {"type": "Feature", "properties": {"cod_imovel": "SC-4213807-35834FDA9B3D437D913E2FAF01EFDFA8", "municipio": "Praia Grande", "num_area": 249.9516, "mod_fiscal": 13.8862, "des_condic": "Aguardando analise", "ind_status": "AT", "dat_atuali": "12/06/2024"}, "geometry": {"type": "Polygon", "coordinates": [[[-50.10737696189224, -29.28062313669645], [-50.10510583740782, -29.28159716398009], [-50.10426818148046, -29.28318312623922], [-50.10302810091476, -29.28359104708132], [-50.10177934834584, -29.28356415793315], [-50.10084886529004, -29.28424864201011], [-50.10109656939252, -29.28607783023022], [-50.10084316961945, -29.2868319412075], [-50.10200797223636, -29.28630818363112], [-50.10384107066925, -29.28623471389848], [-50.10779567137309, -29.28916831720314], [-50.10945123855652, -29.29126538412338], [-50.10995768784185, -29.29222570891848], [-50.10923014513947, -29.29361046183132], [-50.10805737211113, -29.29459465232912], [-50.10665945626607, -29.29731241855306], [-50.10702093320042, -29.29807542231978], [-50.11425588168625, -29.29858498105614], [-50.11639685127776, -29.29853371354412], [-50.11813478696602, -29.2972049009159], [-50.1190010396112, -29.29717085402091], [-50.1195547950272, -29.29661897977693], [-50.11920807165174, -29.29509995362886], [-50.1183033215427, -29.29353032862037], [-50.11722657660209, -29.29259756115466], [-50.11686662017621, -29.29184037404207], [-50.11915798629537, -29.28872232487224], [-50.12080764693515, -29.28727732452546], [-50.12212204724312, -29.2870800744404], [-50.12249885422581, -29.28647897067032], [-50.1212348051777, -29.28572249938608], [-50.11931016203945, -29.28363926504601], [-50.11741313462946, -29.28229005563922], [-50.11372943191741, -29.2802168410877], [-50.11109654536887, -29.27833175746927], [-50.10877101940137, -29.27817376029582], [-50.10824968871042, -29.27929386755885], [-50.10816464704373, -29.28008399260559], [-50.10737696189224, -29.28062313669645]]]}}, {"type": "Feature", "properties": {"cod_imovel": "SC-4213807-3212DAAABE244AB996013D117EE0DA52", "municipio": "Praia Grande", "num_area": 50.0362, "mod_fiscal": 2.7798, "des_condic": "Aguardando analise", "ind_status": "AT", "dat_atuali": "20/05/2024"}, "geometry": {"type": "Polygon", "coordinates": [[[-50.11684676870019, -29.25981291215314], [-50.11981343874493, -29.25988002307867], [-50.12506080816648, -29.26288303399478], [-50.12732268795665, -29.2603950181244], [-50.13029100599779, -29.25892920162894], [-50.12992666611024, -29.25770516698631], [-50.12912255375141, -29.25684575845369], [-50.12735488251443, -29.25660154623984], [-50.1190829304331, -29.25748510003653], [-50.11831113033864, -29.25778836943709], [-50.11731692458, -29.25883659125492], [-50.11684676870019, -29.25981291215314]]]}}, {"type": "Feature", "properties": {"cod_imovel": "SC-4213807-693E18688BAF4D7A9391BFA9D19416C7", "municipio": "Praia Grande", "num_area": 50.5678, "mod_fiscal": 2.8093, "des_condic": "Aguardando analise", "ind_status": "AT", "dat_atuali": "06/05/2021"}, "geometry": {"type": "Polygon", "coordinates": [[[-50.11693130358097, -29.25771828535633], [-50.1154174859283, -29.26026285536072], [-50.12456807092317, -29.263151394092], [-50.12731075623468, -29.25643541294684], [-50.11693130358097, -29.25771828535633]]]}}, {"type": "Feature", "properties": {"cod_imovel": "SC-4213807-8EA5F662E5CB4146914D863379E69212", "municipio": "Praia Grande", "num_area": 4.0604, "mod_fiscal": 0.2256, "des_condic": "Aguardando analise", "ind_status": "AT", "dat_atuali": "06/05/2023"}, "geometry": {"type": "Polygon", "coordinates": [[[-50.11004622163276, -29.25220928439818], [-50.10982574847224, -29.25012504796081], [-50.10891749074325, -29.24999022116671], [-50.10854772984337, -29.25032906647673], [-50.10798775301788, -29.25221290734743], [-50.10946413578964, -29.2524462829161], [-50.11004622163276, -29.25220928439818]]]}}, {"type": "Feature", "properties": {"cod_imovel": "SC-4213807-C7FDF1F849124D85B5701FFF023826BC", "municipio": "Praia Grande", "num_area": 121.9128, "mod_fiscal": 6.7729, "des_condic": "Aguardando analise", "ind_status": "AT", "dat_atuali": "03/05/2016"}, "geometry": {"type": "Polygon", "coordinates": [[[-50.11956831021603, -29.25028665228386], [-50.12855212877138, -29.24073405315452], [-50.12164225236047, -29.23638523114247], [-50.11148171542772, -29.24597428720395], [-50.11956831021603, -29.25028665228386]]]}}, {"type": "Feature", "properties": {"cod_imovel": "SC-4213807-AD9A81529E0E488ABC61E094051BB523", "municipio": "Praia Grande", "num_area": 81.8454, "mod_fiscal": 4.547, "des_condic": "Aguardando analise", "ind_status": "AT", "dat_atuali": "29/10/2019"}, "geometry": {"type": "Polygon", "coordinates": [[[-50.06939649581909, -29.244206421055253], [-50.068323612213135, -29.24519872429051], [-50.06920590401743, -29.24593223294107], [-50.07033394364212, -29.24786057658128], [-50.07131715968185, -29.24843613556626], [-50.07558419297658, -29.24968415734624], [-50.07718563079834, -29.250609416034088], [-50.0786018371582, -29.247164579643098], [-50.079867839813225, -29.24458087623673], [-50.08220672607422, -29.240798815937655], [-50.07941722869873, -29.239600510250952], [-50.078301429748535, -29.241304346941334], [-50.07611274719238, -29.240143494253534], [-50.072057247161865, -29.24370090438679], [-50.06939649581909, -29.244206421055253]]]}}]}