{"type": "FeatureCollection", "features": [{"type": "Feature", "properties": {"cod_imovel": "SC-4201406-29EBF3E372E6476CB20E4B14D13DFE2F", "municipio": "Ararangua", "num_area": 18.6875, "mod_fiscal": 0.9344, "des_condic": "Aguardando analise", "ind_status": "AT", "dat_atuali": "17/12/2025"}, "geometry": {"type": "Polygon", "coordinates": [[[-49.518106026465325, -28.983024515821203], [-49.5173753712013, -28.983521103789318], [-49.517257271097805, -28.983389308912475], [-49.50987514136854, -28.988409885053898], [-49.4863068177907, -29.004859927123515], [-49.48645126477874, -29.005078921949604], [-49.517951930699226, -28.98361698235848], [-49.518106026465325, -28.983024515821203]]]}}, {"type": "Feature", "properties": {"cod_imovel": "SC-4201406-4C045F1783AE4C4BA35C63EC2A109840", "municipio": "Ararangua", "num_area": 83.9266, "mod_fiscal": 4.1963, "des_condic": "Aguardando analise", "ind_status": "AT", "dat_atuali": "12/05/2023"}, "geometry": {"type": "Polygon", "coordinates": [[[-49.478888648595806, -28.95889015254201], [-49.4397698983956, -28.99514233328322], [-49.42960351451853, -29.004276277951252], [-49.42969757116257, -29.00438647844437], [-49.43972018146943, -28.995206562970868], [-49.44021354833296, -28.995637349461685], [-49.439541265397345, -28.996251823884027], [-49.4392868819741, -28.996035873416155], [-49.429934597064104, -29.004664186097234], [-49.43033555483606, -29.005133957614767], [-49.44901863705593, -28.988094542967964], [-49.46620799360978, -28.972694490377155], [-49.480065190597, -28.959897700756148], [-49.47963076297763, -28.959525675975154], [-49.47182189788464, -28.96669197081379], [-49.4714959665177, -28.96641727386062], [-49.479274923678375, -28.95922094782914], [-49.478888648595806, -28.95889015254201]]]}}, {"type": "Feature", "properties": {"cod_imovel": "SC-4201406-9A53803C25D54FD7A194E74EA94A8F67", "municipio": "Ararangua", "num_area": 4.6135, "mod_fiscal": 0.2307, "des_condic": "Aguardando analise", "ind_status": "AT", "dat_atuali": "23/03/2017"}, "geometry": {"type": "Polygon", "coordinates": [[[-49.48967456817627, -29.000971569290016], [-49.49072599411011, -29.00012704514741], [-49.4884729385376, -28.997818643951856], [-49.48744297027588, -28.998606884302404], [-49.48967456817627, -29.000971569290016]]]}}, {"type": "Feature", "properties": {"cod_imovel": "SC-4201406-3E42A48BE6074DD0A6CB9D7472C53C83", "municipio": "Ararangua", "num_area": 77.1876, "mod_fiscal": 3.8594, "des_condic": "Aguardando analise", "ind_status": "AT", "dat_atuali": "08/08/2018"}, "geometry": {"type": "Polygon", "coordinates": [[[-49.48484942566795, -29.00329102775723], [-49.48578991571854, -29.00440232078885], [-49.50969525608837, -28.98852810653295], [-49.50900416989322, -28.98724497038188], [-49.50890757402865, -28.98611473297389], [-49.48322241346168, -29.00317730349848], [-49.48484942566795, -29.00329102775723]]]}}, {"type": "Feature", "properties": {"cod_imovel": "SC-4201406-7D559C20F8A44DBAAC0F628C570C91EB", "municipio": "Ararangua", "num_area": 2.8038, "mod_fiscal": 0.1402, "des_condic": "Aguardando analise", "ind_status": "AT", "dat_atuali": "09/06/2015"}, "geometry": {"type": "Polygon", "coordinates": [[[-49.49795722961426, -29.010242113970246], [-49.52115297317505, -28.99445917125455], [-49.4978928565979, -29.010185817625914], [-49.49795722961426, -29.010242113970246]]]}}, {"type": "Feature", "properties": {"cod_imovel": "SC-4201406-BE2A2F8BDA634C5A8DE6B6D7771C4454", "municipio": "Ararangua", "num_area": 15.2907, "mod_fiscal": 0.7645, "des_condic": "Aguardando analise", "ind_status": "AT", "dat_atuali": "24/08/2017"}, "geometry": {"type": "Polygon", "coordinates": [[[-49.519479274749756, -28.985149671004198], [-49.49244260787964, -29.00369276680985], [-49.48913812637329, -29.00592597193527], [-49.48939561843872, -29.00611363403346], [-49.519758224487305, -28.98550630036214], [-49.519479274749756, -28.985149671004198]]]}}, {"type": "Feature", "properties": {"cod_imovel": "SC-4201406-BD2B3C3778A44815B4DA100847DA48AB", "municipio": "Ararangua", "num_area": 22.4431, "mod_fiscal": 1.1222, "des_condic": "Aguardando analise", "ind_status": "AT", "dat_atuali": "20/11/2019"}, "geometry": {"type": "Polygon", "coordinates": [[[-49.51657417009682, -28.99928713008241], [-49.51245049089883, -29.00206971164385], [-49.51170790386606, -29.00123532724661], [-49.49847221374512, -29.010298410283905], [-49.49973821640015, -29.01088013706226], [-49.51657545071806, -28.99953823959603], [-49.51657417009682, -28.99928713008241]]]}}, {"type": "Feature", "properties": {"cod_imovel": "SC-4201406-3636D86973BF479FBB79DD956BB1BC24", "municipio": "Ararangua", "num_area": 241.147, "mod_fiscal": 12.0578, "des_condic": "Aguardando analise", "ind_status": "AT", "dat_atuali": "25/04/2015"}, "geometry": {"type": "Polygon", "coordinates": [[[-49.517998695373535, -28.972591779751497], [-49.476585388183594, -29.00007074329256], [-49.48353767395019, -29.00281073132367], [-49.4917345046997, -28.99676764746813], [-49.48868751525879, -28.99507852359097], [-49.48967456817627, -28.994215182951805], [-49.4902753829956, -28.994515476165734], [-49.492764472961426, -28.992601091983747], [-49.494781494140625, -28.994402866312722], [-49.50233459472656, -28.989147603425153], [-49.51207637786865, -28.98197749260251], [-49.5113468170166, -28.981189125480846], [-49.52040195465088, -28.974581621994197], [-49.517998695373535, -28.972591779751497]]]}}, {"type": "Feature", "properties": {"cod_imovel": "SC-4201406-5409E3E41D754A12B93240A63C8E3ED5", "municipio": "Ararangua", "num_area": 7.6476, "mod_fiscal": 0.3824, "des_condic": "Aguardando analise", "ind_status": "AT", "dat_atuali": "11/06/2015"}, "geometry": {"type": "Polygon", "coordinates": [[[-49.51887845993041, -28.98240921490878], [-49.50829445788216, -28.98949240895485], [-49.48608735499639, -29.004702709007137], [-49.48619854679064, -29.004821276823044], [-49.508375132282836, -28.989592571616512], [-49.5141118507884, -28.986064419209725], [-49.519050121307366, -28.98263446061415], [-49.51887845993041, -28.98240921490878]]]}}, {"type": "Feature", "properties": {"cod_imovel": "SC-4201406-2BADF4E84AC34E7DA5BC7261C26F01DB", "municipio": "Ararangua", "num_area": 25.1167, "mod_fiscal": 1.2558, "des_condic": "Aguardando analise", "ind_status": "AT", "dat_atuali": "27/12/2018"}, "geometry": {"type": "Polygon", "coordinates": [[[-49.50972047273714, -28.99106472926332], [-49.4882677102765, -29.00577935000248], [-49.48929895470821, -29.00616809087955], [-49.51033951234078, -28.99173635255824], [-49.50972047273714, -28.99106472926332]]]}}, {"type": "Feature", "properties": {"cod_imovel": "SC-4201406-0F9B4F5A28254F57BBE43CE5780AB2CA", "municipio": "Ararangua", "num_area": 30.5865, "mod_fiscal": 1.5293, "des_condic": "Aguardando analise", "ind_status": "AT", "dat_atuali": "27/09/2017"}, "geometry": {"type": "Polygon", "coordinates": [[[-49.518771171569824, -28.98409854574321], [-49.51061725616455, -28.989335295984613], [-49.485790729522705, -29.00453726181703], [-49.48615550994872, -29.004987656332524], [-49.50490951538085, -28.993276761036668], [-49.50765609741211, -28.991681424233487], [-49.51121807098389, -28.990179908286393], [-49.51555252075195, -28.987758667897328], [-49.51945781707764, -28.985112131000243], [-49.518771171569824, -28.98409854574321]]]}}, {"type": "Feature", "properties": {"cod_imovel": "SC-4201406-6C55B0A3269B48DA81914FA1B381EBE5", "municipio": "Ararangua", "num_area": 11.9339, "mod_fiscal": 0.5967, "des_condic": "Aguardando analise", "ind_status": "AT", "dat_atuali": "09/06/2015"}, "geometry": {"type": "Polygon", "coordinates": [[[-49.520745277404785, -28.994083804396443], [-49.49750661849975, -29.00971668023024], [-49.497828483581536, -29.00999816292326], [-49.520981311798096, -28.994421634630072], [-49.520745277404785, -28.994083804396443]]]}}, {"type": "Feature", "properties": {"cod_imovel": "SC-4201406-1A646911836B4EF0BACAED29B6BD5EB8", "municipio": "Ararangua", "num_area": 7.6519, "mod_fiscal": 0.3826, "des_condic": "Aguardando analise", "ind_status": "AT", "dat_atuali": "08/03/2023"}, "geometry": {"type": "Polygon", "coordinates": [[[-49.51900633564894, -28.98291094859778], [-49.50966122098376, -28.98924306840087], [-49.48645123111746, -29.00507907257611], [-49.48658354181331, -29.00520293272901], [-49.50878752169189, -28.98999713508951], [-49.51918844427391, -28.98311908783492], [-49.51900633564894, -28.98291094859778]]]}}, {"type": "Feature", "properties": {"cod_imovel": "SC-4201406-1489B9C205934E1FB317844355878E8A", "municipio": "Ararangua", "num_area": 236.5502, "mod_fiscal": 11.8275, "des_condic": "Aguardando analise", "ind_status": "AT", "dat_atuali": "20/10/2020"}, "geometry": {"type": "Polygon", "coordinates": [[[-49.51654325558928, -28.98928308770721], [-49.51141293963419, -28.991458091623084], [-49.51119036731263, -28.99083791195981], [-49.51014422068863, -28.991426619257425], [-49.50953947121723, -28.990759876781194], [-49.4868835072254, -29.005283000940395], [-49.49288051491265, -29.006974397604637], [-49.494591732062936, -29.007255823873138], [-49.49596190745071, -29.00789320935684], [-49.49770740526371, -29.009560476228046], [-49.51410958664349, -28.99837465785058], [-49.51145280865382, -28.99456452332147], [-49.51140740229339, -28.993915172038175], [-49.51629162776797, -28.990343828495735], [-49.51654325558928, -28.98928308770721]]]}}, {"type": "Feature", "properties": {"cod_imovel": "SC-4201950-66D6D40F53424038B48B56BF008CB1E2", "municipio": "Balneario Arroio do Silva", "num_area": 0.0593, "mod_fiscal": 0.003, "des_condic": "Aguardando analise", "ind_status": "AT", "dat_atuali": "21/03/2025"}, "geometry": {"type": "Polygon", "coordinates": [[[-49.42965685971999, -29.00369262408959], [-49.42934056706952, -29.003985822402402], [-49.42943000397779, -29.004072326426208], [-49.42975517233932, -29.00377598292018], [-49.42965685971999, -29.00369262408959]]]}}, {"type": "Feature", "properties": {"cod_imovel": "SC-4201950-AF54979E970E4A789F5AEC9AA3A33121", "municipio": "Balneario Arroio do Silva", "num_area": 11.4249, "mod_fiscal": 0.5712, "des_condic": "Aguardando analise", "ind_status": "AT", "dat_atuali": "19/03/2025"}, "geometry": {"type": "Polygon", "coordinates": [[[-49.46955769950035, -28.966541156498305], [-49.439684015357926, -28.994129539507174], [-49.4399281714636, -28.994336771419878], [-49.432744052219974, -29.000881900771706], [-49.432840843098646, -29.000964066482826], [-49.43949040163305, -28.994903642817665], [-49.4471432699017, -28.987484401557037], [-49.46970490690451, -28.96672575390264], [-49.46955769950035, -28.966541156498305]]]}}, {"type": "Feature", "properties": {"cod_imovel": "SC-4201950-69016956DD16435BAA3DE75F334D61BA", "municipio": "Balneario Arroio do Silva", "num_area": 0.1332, "mod_fiscal": 0.0067, "des_condic": "Aguardando analise", "ind_status": "AT", "dat_atuali": "13/03/2025"}, "geometry": {"type": "Polygon", "coordinates": [[[-49.42975517233932, -29.00377598292018], [-49.42943000397779, -29.004072326426208], [-49.42960348242994, -29.004276314344374], [-49.42996010633887, -29.003949926530254], [-49.42975517233932, -29.00377598292018]]]}}, {"type": "Feature", "properties": {"cod_imovel": "SC-4201950-758202C27116415E87012DDE3DCB4636", "municipio": "Balneario Arroio do Silva", "num_area": 1.0728, "mod_fiscal": 0.0536, "des_condic": "Aguardando analise", "ind_status": "AT", "dat_atuali": "13/03/2025"}, "geometry": {"type": "Polygon", "coordinates": [[[-49.432662656690034, -29.001126408834498], [-49.42986206891625, -29.00367859790478], [-49.43006669910675, -29.00385226707982], [-49.4328660039364, -29.001289861526317], [-49.432662656690034, -29.001126408834498]]]}}, {"type": "Feature", "properties": {"cod_imovel": "SC-4201950-711F5E0AED984F3283F347BEE6BAE205", "municipio": "Balneario Arroio do Silva", "num_area": 2.4794, "mod_fiscal": 0.124, "des_condic": "Aguardando analise", "ind_status": "AT", "dat_atuali": "13/03/2025"}, "geometry": {"type": "Polygon", "coordinates": [[[-49.43949040163305, -28.994903642817665], [-49.432840843098646, -29.000964066482826], [-49.43304378524998, -29.001127153217638], [-49.439695319632314, -28.995078654467545], [-49.43949040163305, -28.994903642817665]]]}}, {"type": "Feature", "properties": {"cod_imovel": "SC-4201950-3F7A7DDD00CE42ECB67BC3CAE63837A4", "municipio": "Balneario Arroio do Silva", "num_area": 5.1352, "mod_fiscal": 0.2568, "des_condic": "Aguardando analise", "ind_status": "AT", "dat_atuali": "12/12/2024"}, "geometry": {"type": "Polygon", "coordinates": [[[-49.45610845439148, -29.01685710066136], [-49.45701599121094, -29.016209352509218], [-49.45491743977683, -29.01316091419817], [-49.45372370876134, -29.01400903066129], [-49.45610845439148, -29.01685710066136]]]}}, {"type": "Feature", "properties": {"cod_imovel": "SC-4201950-98B385782CB148F28920F4B5DA79B792", "municipio": "Balneario Arroio do Silva", "num_area": 5.1739, "mod_fiscal": 0.2587, "des_condic": "Aguardando analise", "ind_status": "AT", "dat_atuali": "14/11/2024"}, "geometry": {"type": "Polygon", "coordinates": [[[-49.45190395602785, -29.004745700757972], [-49.45333138387794, -29.006042759564657], [-49.45543202000172, -29.004595658373557], [-49.454003653919614, -29.003297579214017], [-49.45190395602785, -29.004745700757972]]]}}, {"type": "Feature", "properties": {"cod_imovel": "SC-4201950-6FE57AEC88F141FF8AE045F4282540B3", "municipio": "Balneario Arroio do Silva", "num_area": 2.179, "mod_fiscal": 0.109, "des_condic": "Aguardando analise", "ind_status": "AT", "dat_atuali": "12/05/2023"}, "geometry": {"type": "Polygon", "coordinates": [[[-49.43972018146943, -28.995206562970868], [-49.42969757116257, -29.00438647844437], [-49.429773081674625, -29.00448681822435], [-49.43911855354852, -28.9958929757766], [-49.439541265397345, -28.996251823884027], [-49.44021354833296, -28.995637349461685], [-49.43972018146943, -28.995206562970868]]]}}, {"type": "Feature", "properties": {"cod_imovel": "SC-4201950-D7748AC2261E41AF9877DDDF448E4790", "municipio": "Balneario Arroio do Silva", "num_area": 3.4975, "mod_fiscal": 0.1749, "des_condic": "Aguardando analise", "ind_status": "AT", "dat_atuali": "28/11/2022"}, "geometry": {"type": "Polygon", "coordinates": [[[-49.46253021984703, -29.03178618400619], [-49.469799754304624, -29.02690570737325], [-49.46928748326746, -29.026795550568092], [-49.462287070616355, -29.031495257796262], [-49.46253021984703, -29.03178618400619]]]}}, {"type": "Feature", "properties": {"cod_imovel": "SC-4201950-5F49A8F515C545D89C4C663C718B12A0", "municipio": "Balneario Arroio do Silva", "num_area": 3.1311, "mod_fiscal": 0.1566, "des_condic": "Aguardando analise", "ind_status": "AT", "dat_atuali": "29/03/2023"}, "geometry": {"type": "Polygon", "coordinates": [[[-49.43911855354852, -28.9958929757766], [-49.429830236839976, -29.004433699636827], [-49.429999400779714, -29.004604406343685], [-49.4392868819741, -28.996035873416155], [-49.43911855354852, -28.9958929757766]]]}}, {"type": "Feature", "properties": {"cod_imovel": "SC-4201950-BE33B0FB8B484E3BB5C89BCDE2DF3CFC", "municipio": "Balneario Arroio do Silva", "num_area": 20.5496, "mod_fiscal": 1.0275, "des_condic": "Aguardando analise", "ind_status": "AT", "dat_atuali": "06/08/2022"}, "geometry": {"type": "Polygon", "coordinates": [[[-49.429823045833, -29.003679856667], [-49.43083319, -29.004539836111], [-49.441543668056, -28.994816738611004], [-49.440533521944, -28.993956838889005], [-49.429823045833, -29.003679856667]]]}}, {"type": "Feature", "properties": {"cod_imovel": "SC-4201950-FFD57DAF79CE4315A867986ABA91545E", "municipio": "Balneario Arroio do Silva", "num_area": 0.9989, "mod_fiscal": 0.0499, "des_condic": "Aguardando analise", "ind_status": "AT", "dat_atuali": "26/06/2023"}, "geometry": {"type": "Polygon", "coordinates": [[[-49.45212372395774, -29.009363558462294], [-49.45055702954786, -29.010444919509904], [-49.45087419167784, -29.01079961763766], [-49.45249125945013, -29.00973435476903], [-49.45212372395774, -29.009363558462294]]]}}, {"type": "Feature", "properties": {"cod_imovel": "SC-4201950-497ACCBB566949DD867DBD16532CC302", "municipio": "Balneario Arroio do Silva", "num_area": 5.1768, "mod_fiscal": 0.2588, "des_condic": "Aguardando analise", "ind_status": "AT", "dat_atuali": "08/02/2019"}, "geometry": {"type": "Polygon", "coordinates": [[[-49.49113368988037, -29.064066137572052], [-49.488537311553955, -29.061102700854516], [-49.48697090148925, -29.062096774564086], [-49.48873043060303, -29.06303457116435], [-49.49040412902832, -29.06455378355354], [-49.49113368988037, -29.064066137572052]]]}}, {"type": "Feature", "properties": {"cod_imovel": "SC-4201950-7F9779BDDB404EA2A2C775BF82A57F2B", "municipio": "Balneario Arroio do Silva", "num_area": 375.3313, "mod_fiscal": 18.7664, "des_condic": "Aguardando analise", "ind_status": "AT", "dat_atuali": "28/01/2022"}, "geometry": {"type": "Polygon", "coordinates": [[[-49.4598954783143, -28.9783692127551], [-49.4490188295105, -28.9880947453268], [-49.4410574013968, -28.9954554270379], [-49.4476202126272, -29.0009771300938], [-49.448598237928, -29.0001061273634], [-49.4519498770098, -29.0033565986957], [-49.4718236612747, -28.985575204002], [-49.4598954783143, -28.9783692127551]]]}}, {"type": "Feature", "properties": {"cod_imovel": "SC-4201950-2889BBB8D0D940849ED9E68454933DAF", "municipio": "Balneario Arroio do Silva", "num_area": 11.55, "mod_fiscal": 0.5775, "des_condic": "Aguardando analise", "ind_status": "AT", "dat_atuali": "30/05/2018"}, "geometry": {"type": "Polygon", "coordinates": [[[-49.43660526091069, -29.010897044865914], [-49.447450360860174, -29.00128934531768], [-49.446889322480246, -29.000799969054977], [-49.43604422617551, -29.010407623954134], [-49.43660526091069, -29.010897044865914]]]}}, {"type": "Feature", "properties": {"cod_imovel": "SC-4201950-83E5ED1EB92E4C7BB0D519FB77E0CE62", "municipio": "Balneario Arroio do Silva", "num_area": 81.9584, "mod_fiscal": 4.0979, "des_condic": "Aguardando analise", "ind_status": "AT", "dat_atuali": "05/09/2017"}, "geometry": {"type": "Polygon", "coordinates": [[[-49.47273905367733, -29.01201245536943], [-49.48144776879846, -29.0062009132403], [-49.48110071108903, -29.00586144345848], [-49.47910512606761, -29.00537026671223], [-49.47762378035267, -29.00420643244425], [-49.47401366339818, -29.00203272251111], [-49.46586423881455, -29.00740550746569], [-49.47273905367733, -29.01201245536943]]]}}, {"type": "Feature", "properties": {"cod_imovel": "SC-4201950-9CE043852F7945C6AB7584DCC44EFCDB", "municipio": "Balneario Arroio do Silva", "num_area": 10.0054, "mod_fiscal": 0.5003, "des_condic": "Aguardando analise", "ind_status": "AT", "dat_atuali": "17/03/2017"}, "geometry": {"type": "Polygon", "coordinates": [[[-49.45971965789795, -29.024071319742973], [-49.461543560028076, -29.026078933816468], [-49.46439743041992, -29.024090082672007], [-49.46253061294556, -29.02211995650804], [-49.45971965789795, -29.024071319742973]]]}}, {"type": "Feature", "properties": {"cod_imovel": "SC-4201950-1500908DF89F4105A11A6E490081772F", "municipio": "Balneario Arroio do Silva", "num_area": 1.008, "mod_fiscal": 0.0504, "des_condic": "Aguardando analise", "ind_status": "AT", "dat_atuali": "30/05/2018"}, "geometry": {"type": "Polygon", "coordinates": [[[-49.43998223262808, -28.99486745001259], [-49.42973134920126, -29.00460307626021], [-49.42976122496708, -29.00464534520413], [-49.43998223262808, -28.99486745001259]]]}}, {"type": "Feature", "properties": {"cod_imovel": "SC-4201950-23035DE8A9894977B19F3DD37ABC3EC8", "municipio": "Balneario Arroio do Silva", "num_area": 538.7191, "mod_fiscal": 26.936, "des_condic": "Aguardando analise", "ind_status": "AT", "dat_atuali": "27/11/2019"}, "geometry": {"type": "Polygon", "coordinates": [[[-49.5206814656284, -29.02228220081791], [-49.48802255661898, -29.04266321826074], [-49.48827966207562, -29.04295522975711], [-49.48844690988673, -29.04368984713236], [-49.48833994343017, -29.04411355380722], [-49.48878441401329, -29.04441779905642], [-49.48871069252455, -29.04538156679329], [-49.48979287695349, -29.04626318361157], [-49.49172808648071, -29.04822814491167], [-49.49195628879216, -29.04910101723141], [-49.49267620262308, -29.04964724944133], [-49.49486650075254, -29.0522585641342], [-49.49569740703474, -29.0527891451319], [-49.53308901346356, -29.02774144262823], [-49.53208591911833, -29.02714498035465], [-49.52764352013009, -29.02775437607026], [-49.52705962865851, -29.02731948563549], [-49.52574477382184, -29.02581136725045], [-49.52565903536031, -29.02542999861761], [-49.52490716928529, -29.0243608200294], [-49.5239636936194, -29.02339574861246], [-49.52322138819812, -29.02301843849621], [-49.5206814656284, -29.02228220081791]]]}}, {"type": "Feature", "properties": {"cod_imovel": "SC-4201950-46B4062B982F40C3B4789532DC1B9578", "municipio": "Balneario Arroio do Silva", "num_area": 175.9646, "mod_fiscal": 8.7982, "des_condic": "Aguardando analise", "ind_status": "AT", "dat_atuali": "10/08/2016"}, "geometry": {"type": "Polygon", "coordinates": [[[-49.51558116484664, -29.02030138877881], [-49.48511866420402, -29.03931900333351], [-49.48802519458914, -29.04266599984965], [-49.52067818099407, -29.02228505504907], [-49.51937842025257, -29.02159765354325], [-49.51754979642931, -29.02115651065648], [-49.51558116484664, -29.02030138877881]]]}}, {"type": "Feature", "properties": {"cod_imovel": "SC-4201950-A79D151641B34E1B982AD31F3823DAD6", "municipio": "Balneario Arroio do Silva", "num_area": 64.2233, "mod_fiscal": 3.2112, "des_condic": "Aguardando analise", "ind_status": "AT", "dat_atuali": "29/12/2014"}, "geometry": {"type": "Polygon", "coordinates": [[[-49.46104207976536, -29.00086166132227], [-49.45077180862427, -29.0078025775812], [-49.46105486042577, -29.00085616789607], [-49.46026428196099, -29.00090664011706], [-49.4598913192749, -29.000708829185086], [-49.45868968963622, -28.999488955663402], [-49.456350803375244, -28.99785617934294], [-49.45602893829346, -28.9973682181958], [-49.44770291684911, -29.00340964483892], [-49.4489365977165, -29.00438655384867], [-49.44930953922357, -29.00478231373282], [-49.44936101796594, -29.00507299520424], [-49.44972103959384, -29.00520533507307], [-49.44993433946513, -29.00553841427608], [-49.44979735271475, -29.00572600879253], [-49.45036674223911, -29.00683969296915], [-49.4501326408494, -29.00712047497319], [-49.45025179508, -29.00726780604327], [-49.45050395072201, -29.00724288773863], [-49.45079326629638, -29.007765045802273], [-49.46104207976536, -29.00086166132227]]]}}, {"type": "Feature", "properties": {"cod_imovel": "SC-4201950-AA6EA088B84348D88FE2EBC7C113F8E4", "municipio": "Balneario Arroio do Silva", "num_area": 88.6283, "mod_fiscal": 4.4314, "des_condic": "Aguardando analise", "ind_status": "AT", "dat_atuali": "04/09/2017"}, "geometry": {"type": "Polygon", "coordinates": [[[-49.47270788449416, -29.01200062207079], [-49.46581421056523, -29.00738369434103], [-49.45696442793239, -29.01331747038908], [-49.46382122311423, -29.0179795727529], [-49.47270788449416, -29.01200062207079]]]}}, {"type": "Feature", "properties": {"cod_imovel": "SC-4201950-D955087F23A746CFAF297EE9DE2940B4", "municipio": "Balneario Arroio do Silva", "num_area": 32.5192, "mod_fiscal": 1.626, "des_condic": "Aguardando analise", "ind_status": "AT", "dat_atuali": "16/10/2017"}, "geometry": {"type": "Polygon", "coordinates": [[[-49.48512092136908, -29.00382597933858], [-49.4846000831147, -29.00359170897118], [-49.48328125111217, -29.00350583455073], [-49.48164813066705, -29.00220898441954], [-49.47659201427307, -29.00030873257103], [-49.47312652770806, -29.00261823240914], [-49.47344704703444, -29.00274003662027], [-49.47556222377242, -29.00275019810568], [-49.47666237776674, -29.00362291486646], [-49.47700249661406, -29.00369022290452], [-49.47874688127922, -29.00532301301664], [-49.48109966250895, -29.00587707397824], [-49.48145092693041, -29.00619448757205], [-49.48512092136908, -29.00382597933858]]]}}, {"type": "Feature", "properties": {"cod_imovel": "SC-4201950-0237DE7B7BB9427791E14CB2C7620009", "municipio": "Balneario Arroio do Silva", "num_area": 20.0369, "mod_fiscal": 1.0018, "des_condic": "Aguardando analise", "ind_status": "AT", "dat_atuali": "01/02/2019"}, "geometry": {"type": "Polygon", "coordinates": [[[-49.49004388916843, -29.06223082562481], [-49.49879115859094, -29.05637429732984], [-49.49868474875445, -29.05554074791166], [-49.49834498154879, -29.05498924354393], [-49.49812218837227, -29.05477641582209], [-49.48889366362037, -29.0609529219765], [-49.49004388916843, -29.06223082562481]]]}}, {"type": "Feature", "properties": {"cod_imovel": "SC-4201950-AF4332FCC88A48BDA112AA41D2E27916", "municipio": "Balneario Arroio do Silva", "num_area": 25.0314, "mod_fiscal": 1.2516, "des_condic": "Aguardando analise", "ind_status": "AT", "dat_atuali": "22/06/2015"}, "geometry": {"type": "Polygon", "coordinates": [[[-49.49792896825867, -29.01029822939456], [-49.47256841673788, -29.02766855072558], [-49.47333058629281, -29.02806379970278], [-49.4985685184533, -29.01077242842813], [-49.49792896825867, -29.01029822939456]]]}}, {"type": "Feature", "properties": {"cod_imovel": "SC-4201950-6CADF9C9D62445029E215713676F713B", "municipio": "Balneario Arroio do Silva", "num_area": 91.8203, "mod_fiscal": 4.591, "des_condic": "Aguardando analise", "ind_status": "AT", "dat_atuali": "20/11/2019"}, "geometry": {"type": "Polygon", "coordinates": [[[-49.53115251878325, -29.03625649786382], [-49.49892282485962, -29.057782800336366], [-49.49914794883426, -29.05894531989192], [-49.5216310112669, -29.04363321819719], [-49.52520588739492, -29.04723688962895], [-49.53203770796015, -29.04246665091467], [-49.532225131988525, -29.041556890327936], [-49.53216075897217, -29.0406001385044], [-49.53142671466529, -29.03957997297717], [-49.53115251878325, -29.03625649786382]]]}}, {"type": "Feature", "properties": {"cod_imovel": "SC-4201950-02D1BD72F2FF4CA498F293CA0DBCC0F0", "municipio": "Balneario Arroio do Silva", "num_area": 98.0472, "mod_fiscal": 4.9024, "des_condic": "Aguardando analise", "ind_status": "AT", "dat_atuali": "09/04/2020"}, "geometry": {"type": "Polygon", "coordinates": [[[-49.45804595947265, -29.03300208852546], [-49.46967601776123, -29.024803071449416], [-49.46514844894409, -29.020318665409746], [-49.45345401763916, -29.028199082001013], [-49.45804595947265, -29.03300208852546]]]}}, {"type": "Feature", "properties": {"cod_imovel": "SC-4201950-4C42FAF78ADC416CA92B4BDC9A054302", "municipio": "Balneario Arroio do Silva", "num_area": 24.9152, "mod_fiscal": 1.2458, "des_condic": "Aguardando analise", "ind_status": "AT", "dat_atuali": "07/02/2019"}, "geometry": {"type": "Polygon", "coordinates": [[[-49.499630928039544, -29.058626852974232], [-49.49896574020386, -29.05645105879147], [-49.48978185653686, -29.062209310606512], [-49.491305351257324, -29.063916092190603], [-49.499630928039544, -29.058626852974232]]]}}, {"type": "Feature", "properties": {"cod_imovel": "SC-4201950-93E130C4419A4A67A35FB69BB8FD2E15", "municipio": "Balneario Arroio do Silva", "num_area": 3.7331, "mod_fiscal": 0.1867, "des_condic": "Aguardando analise", "ind_status": "AT", "dat_atuali": "30/05/2018"}, "geometry": {"type": "Polygon", "coordinates": [[[-49.42955691610096, -29.00441569660378], [-49.42971766809793, -29.00459614460183], [-49.43991578231744, -28.99482352647636], [-49.43974501592302, -28.99464342911444], [-49.42955691610096, -29.00441569660378]]]}}, {"type": "Feature", "properties": {"cod_imovel": "SC-4201950-6D7A9C2393804B0E8DFEF7A3A2C1605A", "municipio": "Balneario Arroio do Silva", "num_area": 25.1077, "mod_fiscal": 1.2554, "des_condic": "Aguardando analise", "ind_status": "AT", "dat_atuali": "22/06/2015"}, "geometry": {"type": "Polygon", "coordinates": [[[-49.49946866423521, -29.01107914394185], [-49.47401973908992, -29.02850173702739], [-49.47465365078925, -29.02899687462091], [-49.50023005375794, -29.0114436503802], [-49.49946866423521, -29.01107914394185]]]}}, {"type": "Feature", "properties": {"cod_imovel": "SC-4201950-79A7AA1CB5AD4E8387565A7B5285BBF5", "municipio": "Balneario Arroio do Silva", "num_area": 527.4436, "mod_fiscal": 26.3722, "des_condic": "Aguardando analise", "ind_status": "AT", "dat_atuali": "10/10/2017"}, "geometry": {"type": "Polygon", "coordinates": [[[-49.51537131732474, -29.02027051754211], [-49.51285489752134, -29.01964975102541], [-49.51224901521504, -29.01934176589349], [-49.51115375764427, -29.01832853441882], [-49.50830920160529, -29.01679374327034], [-49.50299270554713, -29.01328409853628], [-49.50192877596687, -29.0122472338022], [-49.50022434951516, -29.01145859932685], [-49.4746505085724, -29.02887930487033], [-49.47667692005498, -29.03005385292533], [-49.47646169718053, -29.03034122116942], [-49.48289877970476, -29.03563195704331], [-49.48350873553078, -29.03639155617982], [-49.48296539229987, -29.03681098813889], [-49.48511977510812, -29.03930580020352], [-49.51537131732474, -29.02027051754211]]]}}, {"type": "Feature", "properties": {"cod_imovel": "SC-4201950-76625C744BE04E84BD8D0E9A38F9C802", "municipio": "Balneario Arroio do Silva", "num_area": 25.0569, "mod_fiscal": 1.2536, "des_condic": "Aguardando analise", "ind_status": "AT", "dat_atuali": "11/10/2017"}, "geometry": {"type": "Polygon", "coordinates": [[[-49.49856789941664, -29.01076906891711], [-49.47332869120159, -29.02806448206629], [-49.47401830984861, -29.0284996398644], [-49.49946781695208, -29.01108015517541], [-49.49856789941664, -29.01076906891711]]]}}, {"type": "Feature", "properties": {"cod_imovel": "SC-4201950-B0AAAA5CFF9F4CADB36054A97AC150D2", "municipio": "Balneario Arroio do Silva", "num_area": 224.6592, "mod_fiscal": 11.233, "des_condic": "Aguardando analise", "ind_status": "AT", "dat_atuali": "29/10/2019"}, "geometry": {"type": "Polygon", "coordinates": [[[-49.51080054902304, -29.068736640420283], [-49.50048944980533, -29.057904997482538], [-49.488779188040525, -29.065764974281922], [-49.499059121777336, -29.07662078956245], [-49.51080054902304, -29.068736640420283]]]}}, {"type": "Feature", "properties": {"cod_imovel": "SC-4201950-8E9600FAC67C471EADD0C961AC3AE2EA", "municipio": "Balneario Arroio do Silva", "num_area": 360.3103, "mod_fiscal": 18.0155, "des_condic": "Aguardando analise", "ind_status": "AT", "dat_atuali": "19/11/2019"}, "geometry": {"type": "Polygon", "coordinates": [[[-49.48516052565335, -29.00373553328746], [-49.46074980179601, -29.02008097761008], [-49.46158972967282, -29.0205232861845], [-49.46217317251645, -29.02127566044935], [-49.46230382495955, -29.02171919529931], [-49.4628185169984, -29.02226404761115], [-49.4637867819315, -29.02290176599792], [-49.46594799430059, -29.02517628081378], [-49.46952885672511, -29.02635331507233], [-49.47001142069556, -29.02606760127468], [-49.47067577048025, -29.02662970076691], [-49.4964964199854, -29.00892193407561], [-49.49590834340787, -29.00810164499187], [-49.49546730461658, -29.00780181606531], [-49.49355280757571, -29.00730921799126], [-49.49319483755192, -29.00698354599196], [-49.49113976824145, -29.00683341330093], [-49.48827482798873, -29.00584877378165], [-49.48754087957159, -29.00579052341557], [-49.48675517901945, -29.00549524337815], [-49.48516052565335, -29.00373553328746]]]}}, {"type": "Feature", "properties": {"cod_imovel": "SC-4201950-9A99DC7F7F8342FBBA099AB91B5474DD", "municipio": "Balneario Arroio do Silva", "num_area": 20.5372, "mod_fiscal": 1.0269, "des_condic": "Aguardando analise", "ind_status": "AT", "dat_atuali": "02/05/2015"}, "geometry": {"type": "Polygon", "coordinates": [[[-49.44121773948108, -29.00263678130478], [-49.44474040140999, -28.99927944025685], [-49.4424862626321, -28.99641634407612], [-49.43844952658089, -29.00013908986573], [-49.44121773948108, -29.00263678130478]]]}}, {"type": "Feature", "properties": {"cod_imovel": "SC-4201950-82E4D6155CAD4A65AE1214FB06AE6440", "municipio": "Balneario Arroio do Silva", "num_area": 51.1272, "mod_fiscal": 2.5564, "des_condic": "Aguardando analise", "ind_status": "AT", "dat_atuali": "29/12/2014"}, "geometry": {"type": "Polygon", "coordinates": [[[-49.47277442540937, -28.99474477402261], [-49.47183627546191, -28.99360749315065], [-49.4507561817214, -29.00779448394561], [-49.45078583615007, -29.0079109346101], [-49.452123641967766, -29.0091912438182], [-49.47286196677673, -28.99509983099759], [-49.47277442540937, -28.99474477402261]]]}}, {"type": "Feature", "properties": {"cod_imovel": "SC-4201950-6BE640ECF0B14EDD80E10FBCAD0E1ABB", "municipio": "Balneario Arroio do Silva", "num_area": 221.0338, "mod_fiscal": 11.0517, "des_condic": "Aguardando analise", "ind_status": "AT", "dat_atuali": "23/12/2014"}, "geometry": {"type": "Polygon", "coordinates": [[[-49.51057434082031, -29.06884871968109], [-49.50078964233398, -29.05767025946265], [-49.48920249938965, -29.064722583548154], [-49.49941635131836, -29.076575403045364], [-49.51057434082031, -29.06884871968109]]]}}, {"type": "Feature", "properties": {"cod_imovel": "SC-4201950-EE252A5D5D0C418CB8C040A65811DA9B", "municipio": "Balneario Arroio do Silva", "num_area": 50.2395, "mod_fiscal": 2.512, "des_condic": "Aguardando analise", "ind_status": "AT", "dat_atuali": "29/12/2014"}, "geometry": {"type": "Polygon", "coordinates": [[[-49.49668893199228, -29.00932133373953], [-49.47121727434968, -29.02680069899533], [-49.47246551513672, -29.027767550943608], [-49.4979377997757, -29.01029619512019], [-49.49668893199228, -29.00932133373953]]]}}, {"type": "Feature", "properties": {"cod_imovel": "SC-4201950-1995E296DF754039AFF48673C558EF62", "municipio": "Balneario Arroio do Silva", "num_area": 128.1771, "mod_fiscal": 6.4089, "des_condic": "Aguardando analise", "ind_status": "AT", "dat_atuali": "22/01/2015"}, "geometry": {"type": "Polygon", "coordinates": [[[-49.4547681877932, -29.01311816204279], [-49.47529061043925, -28.99931688509406], [-49.47409228470345, -28.99823690009304], [-49.47325285171925, -28.99685107071046], [-49.47284549561703, -28.9951248692948], [-49.45189597358842, -29.00921857992949], [-49.45276810621554, -29.01012922404946], [-49.45305940815148, -29.01074855654771], [-49.45394644560998, -29.01127128999877], [-49.45419756595032, -29.01228087175229], [-49.45451307023029, -29.01255272703037], [-49.4547681877932, -29.01311816204279]]]}}, {"type": "Feature", "properties": {"cod_imovel": "SC-4201950-8F8B30A3D539465D9564FA08A38645FA", "municipio": "Balneario Arroio do Silva", "num_area": 38.8823, "mod_fiscal": 1.9441, "des_condic": "Aguardando analise", "ind_status": "AT", "dat_atuali": "22/01/2015"}, "geometry": {"type": "Polygon", "coordinates": [[[-49.45575895604818, -29.01419905816614], [-49.45883661939881, -29.01199350422144], [-49.47658648568043, -29.00030591218865], [-49.47622220678969, -29.00014868069566], [-49.47530273651424, -28.99930356085835], [-49.45476973203501, -29.01312083363363], [-49.45575895604818, -29.01419905816614]]]}}, {"type": "Feature", "properties": {"cod_imovel": "SC-4201950-0B5EF37783C5485F9624B993D8E06647", "municipio": "Balneario Arroio do Silva", "num_area": 8.3111, "mod_fiscal": 0.4171, "des_condic": "Aguardando analise", "ind_status": "AT", "dat_atuali": "15/08/2019"}, "geometry": {"type": "Polygon", "coordinates": [[[-49.43058013916015, -29.00453726181703], [-49.4628095626831, -28.973305123823312], [-49.462637901306145, -28.97315494653265], [-49.43047285079956, -29.004462195873607], [-49.43058013916015, -29.00453726181703]]]}}, {"type": "Feature", "properties": {"cod_imovel": "SC-4201950-10D7F78FD900471092B52EDA066560AE", "municipio": "Balneario Arroio do Silva", "num_area": 18.3089, "mod_fiscal": 0.9154, "des_condic": "Aguardando analise", "ind_status": "AT", "dat_atuali": "27/07/2015"}, "geometry": {"type": "Polygon", "coordinates": [[[-49.53063726425171, -29.03454050429916], [-49.49870824813843, -29.055944617352285], [-49.49883699417114, -29.05641354469607], [-49.53072309494018, -29.03499076799294], [-49.53063726425171, -29.03454050429916]]]}}, {"type": "Feature", "properties": {"cod_imovel": "SC-4201950-8545D3CC3C0944B2AD62E20FBD6AF8F0", "municipio": "Balneario Arroio do Silva", "num_area": 50.2471, "mod_fiscal": 2.5124, "des_condic": "Aguardando analise", "ind_status": "AT", "dat_atuali": "24/10/2017"}, "geometry": {"type": "Polygon", "coordinates": [[[-49.49957182228393, -29.05753253691814], [-49.53084514591656, -29.03623685197668], [-49.53071523118766, -29.03502565027494], [-49.49891169452188, -29.05632266445179], [-49.49957182228393, -29.05753253691814]]]}}, {"type": "Feature", "properties": {"cod_imovel": "SC-4201950-23B29DE4C372421EA656595B4A479484", "municipio": "Balneario Arroio do Silva", "num_area": 10.5724, "mod_fiscal": 0.5286, "des_condic": "Aguardando analise", "ind_status": "AT", "dat_atuali": "01/02/2019"}, "geometry": {"type": "Polygon", "coordinates": [[[-49.48953126519236, -29.0605304240977], [-49.49812218837227, -29.05477641582209], [-49.49790341011574, -29.05458228487032], [-49.49770924333468, -29.05391777402243], [-49.48890532312822, -29.0598150389056], [-49.48953126519236, -29.0605304240977]]]}}, {"type": "Feature", "properties": {"cod_imovel": "SC-4201950-2732999BCF864ACEB0B4CD455AD43F8E", "municipio": "Balneario Arroio do Silva", "num_area": 170.2535, "mod_fiscal": 8.5127, "des_condic": "Aguardando analise", "ind_status": "AT", "dat_atuali": "14/11/2019"}, "geometry": {"type": "Polygon", "coordinates": [[[-49.53459581259325, -29.02975150130859], [-49.53479748485984, -29.02918589956925], [-49.53509055531048, -29.02890873174416], [-49.53427630011072, -29.02809635362588], [-49.53314495921491, -29.02768064147746], [-49.49573971367598, -29.05278132909147], [-49.49765532882608, -29.05402786466506], [-49.49770929160624, -29.05468671381138], [-49.4980759422051, -29.05492859418463], [-49.49871797979005, -29.05600152402463], [-49.51965102118638, -29.04183350665304], [-49.51853407438566, -29.04048211132039], [-49.53459581259325, -29.02975150130859]]]}}, {"type": "Feature", "properties": {"cod_imovel": "SC-4201950-992F8EFCE36144448596BAD8B4535BC9", "municipio": "Balneario Arroio do Silva", "num_area": 54.1686, "mod_fiscal": 2.7084, "des_condic": "Aguardando analise", "ind_status": "AT", "dat_atuali": "28/11/2019"}, "geometry": {"type": "Polygon", "coordinates": [[[-49.485018253326416, -29.05697625469401], [-49.48817253112793, -29.06037120653197], [-49.49800014495849, -29.054237703814447], [-49.49383735656738, -29.051442806365177], [-49.485018253326416, -29.05697625469401]]]}}, {"type": "Feature", "properties": {"cod_imovel": "SC-4201950-2627F978EAB9462A9236952E87C5CACC", "municipio": "Balneario Arroio do Silva", "num_area": 0.2784, "mod_fiscal": 0.0139, "des_condic": "Aguardando analise", "ind_status": "AT", "dat_atuali": "04/08/2020"}, "geometry": {"type": "Polygon", "coordinates": [[[-49.44105018868736, -29.00127888731073], [-49.44092479855332, -29.00139818805649], [-49.44112453421853, -29.00159222090294], [-49.44070618319466, -29.0020698235617], [-49.44086596414956, -29.00222504643865], [-49.44145100823837, -29.0016682837963], [-49.44105018868736, -29.00127888731073]]]}}]}